{"type": "FeatureCollection", "features": [{"type": "Feature", "properties": {"id": "city-47701000", "name": "ГО Мурманск", "region": "Мурманская область", "isCity": true, "sourceOktmo": "47-701-000-000", "sourceAgg": "Мурманск", "excelNames": ["ГО Мурманск"], "oktmo": "47701000", "vgp": [{"year": 2019, "value": 432977532.8443897}, {"year": 2020, "value": 413240248.71953803}, {"year": 2021, "value": 389253494.65948486}, {"year": 2022, "value": 570420209.8121067}, {"year": 2023, "value": 569600864.0770267}, {"year": 2024, "value": 588297218.9119792}], "population": [{"year": 2019, "value": 292465.0}, {"year": 2020, "value": 287847.0}, {"year": 2021, "value": 282851.0}, {"year": 2022, "value": 279064.0}, {"year": 2023, "value": 267422.0}, {"year": 2024, "value": 266681.0}, {"year": 2025, "value": 264339.0}], "shipments": [{"year": 2019, "value": 200601083.1}, {"year": 2020, "value": 215752852.6}, {"year": 2021, "value": 290791070.2}, {"year": 2022, "value": 273939675.4}, {"year": 2023, "value": 297835425.9}, {"year": 2024, "value": 304029034.4}], "employees": [{"year": 2019, "value": 87417.0}, {"year": 2020, "value": 88067.0}, {"year": 2021, "value": 88521.0}, {"year": 2022, "value": 89181.0}, {"year": 2023, "value": 84486.0}, {"year": 2024, "value": 83514.0}], "investments": [{"year": 2019, "value": 67321874.0}, {"year": 2020, "value": 74247821.0}, {"year": 2021, "value": 91636686.0}, {"year": 2022, "value": 90845262.0}, {"year": 2023, "value": 138739022.0}, {"year": 2024, "value": 165549780.0}], "vgp2024": 588297218.9119792, "pop2024": 266681.0, "ship2024": 304029034.4, "emp2024": 83514.0, "inv2024": 165549780.0}, "geometry": {"type": "MultiPolygon", "coordinates": [[[[33.0624865, 68.8966574], [33.01871799999999, 68.8987738], [32.9881778, 68.8999592], [32.9513393, 68.9013891], [32.9480394, 68.9015171], [32.9328749, 68.9021057], [32.9358776, 68.933017], [32.938173, 68.95563249999998], [32.9411267, 68.9787619], [32.9454953, 68.9790925], [32.95052919999999, 68.979454], [32.9564032, 68.97987809999998], [32.9603759, 68.98022129999998], [32.9653883, 68.9807329], [32.9710819, 68.9814404], [32.9778928, 68.9822798], [32.9815306, 68.9827282], [32.98674369999999, 68.9833709], [32.9920265, 68.9840069], [33.0025713, 68.9853128], [33.006475, 68.9857965], [33.0094134, 68.9861553], [33.009893899999994, 68.9862051], [33.0103785, 68.9862633], [33.013070299999995, 68.9862664], [33.0165741, 68.98660159999999], [33.019702, 68.9868223], [33.019786499999995, 68.9862738], [33.021680399999994, 68.986272], [33.02315819999999, 68.9857851], [33.026594, 68.9896182], [33.03135009999999, 68.9953041], [33.03523119999999, 68.9997601], [33.0440204, 69.0104943], [33.046573499999994, 69.0141694], [33.051291, 69.0193886], [33.06083439999999, 69.031092], [33.062509399999996, 69.0331406], [33.0665839, 69.0380804], [33.07162, 69.04988489999998], [33.08492509999999, 69.0534922], [33.1180316, 69.05351159999998], [33.1581318, 69.0625996], [33.172324499999995, 69.06031440000001], [33.190417, 69.0598759], [33.2062654, 69.0623556], [33.2196233, 69.0633426], [33.2658949, 69.0640502], [33.2668962, 69.0617749], [33.2597065, 69.0561711], [33.2686445, 69.05280579999999], [33.2643638, 69.0468289], [33.26308329999999, 69.0466153], [33.253761, 69.04587069999998], [33.2503528, 69.0460675], [33.23765819999999, 69.0468007], [33.2059058, 69.0420231], [33.20316629999999, 69.0398284], [33.191031, 69.0394073], [33.1879142, 69.0414462], [33.1829559, 69.0406523], [33.180154300000005, 69.04008540000001], [33.17769379999999, 69.03921209999999], [33.1764856, 69.0384893], [33.1738027, 69.03647249999999], [33.17317249999999, 69.0361925], [33.1720809, 69.0358669], [33.170376499999996, 69.0356943], [33.168740899999996, 69.0357369], [33.1672537, 69.035959], [33.1659436, 69.0363527], [33.165191799999995, 69.0370146], [33.164569199999995, 69.0384766], [33.1635107, 69.0393678], [33.1626468, 69.039701], [33.158777099999995, 69.0404616], [33.1569797, 69.0407096], [33.1517524, 69.04093619999999], [33.1475609, 69.0411575], [33.1420847, 69.0409023], [33.1381506, 69.0403928], [33.1343798, 69.0397243], [33.12522589999999, 69.037992], [33.1214603, 69.0361065], [33.117135, 69.0339786], [33.11625959999999, 69.0322062], [33.1165667, 69.03102979999998], [33.1167909, 69.02998629999999], [33.1164905, 69.0293455], [33.1151039, 69.0280236], [33.1128794, 69.0260035], [33.1125684, 69.0244637], [33.115657, 69.0240057], [33.1205448, 69.0227931], [33.1259945, 69.0243387], [33.1305929, 69.0245505], [33.13237039999999, 69.0246323], [33.1424027, 69.0250943], [33.1673581, 69.0146338], [33.20793419999999, 68.9976151], [33.23897, 68.9974515], [33.2886108, 68.9971897], [33.29269889999999, 68.9648703], [33.2941369, 68.95349019999999], [33.2656075, 68.95290909999999], [33.2624857, 68.93926669999999], [33.2288339, 68.9284064], [33.154850599999996, 68.9017941], [33.1252637, 68.8915891], [33.11873729999999, 68.8893374], [33.1166357, 68.8886123], [33.1107013, 68.8865646], [33.1094354, 68.88653519999998], [33.109206, 68.88615129999998], [33.1041004, 68.8843361], [33.09653699999999, 68.8857649], [33.09623239999999, 68.8858224], [33.0892228, 68.88437249999998], [33.08507199999999, 68.8832643], [33.0836867, 68.8828945], [33.0791309, 68.8864371], [33.0806211, 68.88819439999999], [33.07261909999999, 68.8887167], [33.0703875, 68.8886939], [33.066739, 68.88918929999998], [33.0643859, 68.889245], [33.0662857, 68.89134379999999], [33.06845589999999, 68.8927674], [33.0721078, 68.89490869999999], [33.071886500000005, 68.8949745], [33.0716748, 68.8950389], [33.072915599999995, 68.89569629999998], [33.0728746, 68.8960109], [33.0720487, 68.8962295], [33.07119659999999, 68.8963947], [33.0700267, 68.8964293], [33.0683329, 68.8962639], [33.06718709999999, 68.8964447], [33.0667667, 68.8965891], [33.0654534, 68.89663800000001], [33.063296599999994, 68.89663139999999], [33.0624865, 68.8966574]]]]}}, {"type": "Feature", "properties": {"id": "mo-47605000", "name": "Кольский муниципальный район", "region": "Мурманская область", "isCity": false, "sourceOktmo": "47-605-000-000", "sourceAgg": "Мурманск", "excelNames": ["Кольский муниципальный район"], "oktmo": "47605000", "vgp": [{"year": 2019, "value": 83392431.52976583}, {"year": 2020, "value": 94380413.11030728}, {"year": 2021, "value": 105966621.0282671}, {"year": 2022, "value": 156084844.85777757}, {"year": 2023, "value": 183841220.8927069}, {"year": 2024, "value": 184221367.5908192}], "population": [{"year": 2019, "value": 40515.0}, {"year": 2020, "value": 40531.0}, {"year": 2021, "value": 40293.0}, {"year": 2022, "value": 39638.0}, {"year": 2023, "value": 33510.0}, {"year": 2024, "value": 33201.0}, {"year": 2025, "value": 32849.0}], "shipments": [{"year": 2019, "value": 55716411.7}, {"year": 2020, "value": 64578003.5}, {"year": 2021, "value": 100423603.8}, {"year": 2022, "value": 134816290.6}, {"year": 2023, "value": 144692166.7}, {"year": 2024, "value": 170035963.9}], "employees": [{"year": 2019, "value": 17545.0}, {"year": 2020, "value": 21031.0}, {"year": 2021, "value": 24461.0}, {"year": 2022, "value": 22904.0}, {"year": 2023, "value": 24644.0}, {"year": 2024, "value": 23732.0}], "investments": [{"year": 2019, "value": 35923612.0}, {"year": 2020, "value": 53798299.0}, {"year": 2021, "value": 92829761.0}, {"year": 2022, "value": 87350425.0}, {"year": 2023, "value": 39460266.0}, {"year": 2024, "value": 62004833.0}], "vgp2024": 184221367.5908192, "pop2024": 33201.0, "ship2024": 170035963.9, "emp2024": 23732.0, "inv2024": 62004833.0}, "geometry": {"type": "MultiPolygon", "coordinates": [[[[32.9245429, 68.3226701], [32.7564325, 68.296145], [32.6112742, 68.2732969], [32.4898337, 68.2473221], [32.37233929999999, 68.22043280000001], [32.069492399999994, 68.1652024], [31.981072400000002, 68.081268], [31.8921814, 67.9963562], [31.775567499999994, 67.9703028], [31.551532600000005, 67.9319135], [31.329135800000003, 67.8932892], [31.170469099999995, 67.8655495], [30.957670100000005, 67.8423518], [30.745271699999996, 67.81909679999998], [30.5622584, 67.7823669], [30.461121099999996, 67.7620656], [30.3792565, 67.74561999999999], [30.199667599999998, 67.7099554], [30.015666999999993, 67.67317], [30.005059600000003, 67.6781388], [29.966119499999994, 67.69208940000001], [29.914786500000005, 67.711108], [29.904329299999997, 67.7147253], [29.863871699999997, 67.72925299999999], [29.812422699999992, 67.747859], [29.760468100000004, 67.76661], [29.710052399999995, 67.7847536], [29.6593888, 67.8029722], [29.625564500000003, 67.8302409], [29.592337999999998, 67.8575435], [29.5599675, 67.88495549999999], [29.526726, 67.9122336], [29.493052400000003, 67.9398533], [29.482186899999995, 67.9486818], [29.4565937, 67.9701479], [29.3937768, 68.0206587], [29.360290299999996, 68.04797439999999], [29.3269889, 68.07455329999999], [29.2414703, 68.0900038], [29.1563308, 68.1053036], [29.0714571, 68.1205352], [28.986527700000003, 68.1359101], [28.9014351, 68.15096979999998], [28.8447869, 68.16086999999999], [28.8217505, 68.165123], [28.816600099999995, 68.1660738], [28.731133399999994, 68.18091379999998], [28.6461349, 68.1963063], [28.624691199999997, 68.2321893], [28.608352, 68.25788410000001], [28.604296499999997, 68.2648579], [28.595155599999995, 68.2797282], [28.5825998, 68.3006326], [28.561292399999996, 68.3353921], [28.5387065, 68.36999819999998], [28.517232299999996, 68.4046328], [28.4957582, 68.4392146], [28.489185999999997, 68.45015569999998], [28.487246199999998, 68.4523837], [28.4795236, 68.4654694], [28.4788085, 68.466547], [28.4778892, 68.468], [28.474477299999997, 68.473763], [28.473118, 68.4760237], [28.4730747, 68.4761012], [28.4691961, 68.4818162], [28.4689854, 68.48246849999998], [28.4689226, 68.4825719], [28.4688528, 68.48268689999999], [28.4667284, 68.48651209999998], [28.465422199999995, 68.4885633], [28.4587354, 68.4995905], [28.457189399999997, 68.5018938], [28.454202099999996, 68.5067933], [28.442638800000005, 68.5258016], [28.436995599999996, 68.5346194], [28.433932000000002, 68.539671], [28.4422444, 68.5455824], [28.4472534, 68.5491502], [28.4513056, 68.5520738], [28.453050099999995, 68.5533199], [28.4684793, 68.5643649], [28.485149299999996, 68.5762576], [28.489840600000004, 68.579572], [28.498717499999998, 68.5858982], [28.5089065, 68.5931983], [28.522468799999995, 68.60280549999999], [28.528146199999995, 68.6068319], [28.540971699999997, 68.6159107], [28.554984699999995, 68.6258241], [28.5614295, 68.6304206], [28.5641076, 68.6323186], [28.567514399999997, 68.6347271], [28.572275699999995, 68.6380838], [28.5812341, 68.64438639999999], [28.5875615, 68.6488939], [28.6041192, 68.6605815], [28.624650399999997, 68.6749906], [28.6396467, 68.6855013], [28.641624799999995, 68.6868829], [28.648794199999998, 68.6919093], [28.656344299999994, 68.6972013], [28.6605276, 68.7001494], [28.670099, 68.706829], [28.673037100000002, 68.7088968], [28.6849991, 68.7172666], [28.706412100000005, 68.7322367], [28.756500500000005, 68.7326706], [29.052873100000003, 68.7319432], [29.2418347, 68.7314794], [29.655183299999997, 68.7304648], [29.8021396, 68.7301041], [30.061007100000005, 68.72946859999999], [30.3047527, 68.7288703], [30.360192999999995, 68.7287342], [30.571683199999995, 68.80931239999998], [30.625469099999997, 68.8297584], [30.797924699999992, 68.9205219], [30.872746599999992, 68.9597851], [31.122088900000005, 69.0544023], [31.2226912, 69.107622], [31.2595895, 69.1935447], [31.2992052, 69.2630147], [31.320808500000002, 69.2486365], [31.333281399999994, 69.3148785], [31.3338494, 69.317889], [31.381291699999995, 69.3504249], [31.381810299999994, 69.3506537], [31.3820828, 69.3509251], [31.3951845, 69.3551091], [31.403791599999995, 69.3656193], [31.406811499999993, 69.366892], [31.4172253, 69.3665683], [31.425179700000005, 69.3675776], [31.431546300000004, 69.3697277], [31.437087900000005, 69.3694205], [31.437293700000005, 69.3692057], [31.4383332, 69.3681206], [31.4338968, 69.3662721], [31.433920699999998, 69.36622500000001], [31.434846299999993, 69.3644015], [31.437690599999996, 69.3649683], [31.440434600000003, 69.3655151], [31.4413836, 69.3656471], [31.4520071, 69.3671247], [31.454550100000002, 69.3674784], [31.457380599999997, 69.368122], [31.4611476, 69.36897850000001], [31.461611299999998, 69.3690839], [31.465769800000004, 69.3700295], [31.470854099999997, 69.37060309999998], [31.475564799999994, 69.3711345], [31.491075300000002, 69.37763109999999], [31.494001500000003, 69.3795307], [31.4967911, 69.3813415], [31.505856800000004, 69.3817142], [31.507447199999994, 69.3822606], [31.5181355, 69.3859324], [31.527984900000003, 69.3875068], [31.5290918, 69.3887619], [31.5387387, 69.3906515], [31.5414591, 69.3932967], [31.545409700000004, 69.39270649999999], [31.5567782, 69.3910081], [31.566320899999997, 69.3922093], [31.571557900000002, 69.3896057], [31.57079999999999, 69.3951868], [31.5762871, 69.3978024], [31.587222399999995, 69.39953459999998], [31.5957255, 69.40111599999999], [31.596669099999996, 69.4012249], [31.6017185, 69.4018074], [31.6040145, 69.4045044], [31.6086455, 69.40652350000002], [31.6162481, 69.40903249999998], [31.618744099999997, 69.4098562], [31.6210374, 69.4110901], [31.622821200000004, 69.4120498], [31.623297199999996, 69.4123059], [31.6247936, 69.4127775], [31.627052600000003, 69.4134895], [31.6275514, 69.4141923], [31.628991899999995, 69.4162219], [31.631374699999995, 69.4216152], [31.633051500000004, 69.4236668], [31.633768100000005, 69.4238548], [31.6373871, 69.424804], [31.6403524, 69.4290127], [31.639438600000002, 69.429791], [31.638379899999993, 69.4306928], [31.640074, 69.4311676], [31.640840599999997, 69.43138239999999], [31.6418925, 69.4314735], [31.648601299999992, 69.4320544], [31.650336600000003, 69.4332932], [31.652048300000004, 69.4340703], [31.6498661, 69.4355473], [31.646378499999997, 69.4362394], [31.6437028, 69.43895799999999], [31.652950599999993, 69.4415493], [31.6563256, 69.4433557], [31.657683600000002, 69.4447353], [31.659048100000003, 69.4453107], [31.665463899999995, 69.4449727], [31.6670324, 69.4450868], [31.6676842, 69.4470059], [31.666364200000004, 69.4485929], [31.670349200000004, 69.4493929], [31.672653000000004, 69.4484836], [31.675654100000003, 69.448383], [31.6739998, 69.4507389], [31.6865088, 69.454457], [31.690391999999992, 69.4550223], [31.691489099999988, 69.4557575], [31.694353700000004, 69.4558588], [31.6963535, 69.4551678], [31.699963799999995, 69.4552433], [31.704299299999995, 69.4556035], [31.7055503, 69.4555621], [31.667851199999998, 69.5029306], [31.8725841, 69.5021752], [31.8757147, 69.5029852], [31.8766288, 69.5032217], [31.881908900000003, 69.50354610000001], [31.885186599999997, 69.5068668], [31.889235599999992, 69.508179], [31.8907293, 69.508663], [31.891578699999997, 69.51066500000002], [31.899047499999995, 69.5112766], [31.900029100000005, 69.512082], [31.901219299999998, 69.5130585], [31.906668699999997, 69.5150493], [31.908442099999995, 69.5167472], [31.913243900000005, 69.5180056], [31.936192100000003, 69.51900870000001], [31.94192, 69.5209719], [31.947320700000002, 69.5217231], [31.9496619, 69.5212308], [31.9501351, 69.5197102], [31.9524389, 69.5187603], [31.9549295, 69.5195228], [31.9560752, 69.5224202], [31.9576816, 69.52398410000002], [31.960321699999998, 69.5243413], [31.9622461, 69.5244153], [31.962696199999996, 69.5241976], [31.9658633, 69.52230249999998], [31.968403700000003, 69.5212264], [31.9705705, 69.5213746], [31.972193700000002, 69.523622], [31.9730557, 69.5256989], [31.978335299999994, 69.52960629999998], [31.9790005, 69.5297515], [31.979799900000003, 69.53042100000002], [31.9857412, 69.5326906], [31.9883771, 69.5338085], [31.991509699999998, 69.5351562], [31.991538800000004, 69.535587], [31.992168, 69.5360118], [31.993208000000003, 69.538139], [31.9937177, 69.5402756], [31.993895600000002, 69.541021], [31.994060999999995, 69.5417142], [31.9948609, 69.5453268], [31.994777199999994, 69.5467133], [31.995194600000005, 69.5476082], [31.9959177, 69.5484018], [31.9995241, 69.5504246], [32.0015915, 69.549458], [32.0134182, 69.5479389], [32.0287312, 69.5465963], [32.02962839999999, 69.5476627], [32.03041919999999, 69.5493312], [32.033106, 69.5504433], [32.0326021, 69.55176150000001], [32.0436213, 69.55115259999998], [32.0444183, 69.5511481], [32.0452599, 69.5513063], [32.045566, 69.5514177], [32.0455532, 69.5517005], [32.04559009999999, 69.5517954], [32.0453875, 69.5518587], [32.04525769999999, 69.5527618], [32.045417, 69.552874], [32.045638999999994, 69.5529461], [32.0464266, 69.5530761], [32.0471774, 69.5532665], [32.0479283, 69.55356300000001], [32.0480791, 69.5536618], [32.048092100000005, 69.5537886], [32.04827759999999, 69.5537886], [32.0482802, 69.5537539], [32.048884599999994, 69.5535896], [32.0504865, 69.55367869999999], [32.0546548, 69.5546504], [32.056371, 69.5576076], [32.06287619999999, 69.5599841], [32.08539999999999, 69.5766294], [32.0983515, 69.5816904], [32.1255748, 69.5944116], [32.3919728, 69.573149], [32.376581, 69.5627933], [32.3512291, 69.5451016], [32.2809903, 69.5044795], [32.2335838, 69.4932551], [32.1996191, 69.4895927], [32.1623371, 69.4855324], [32.1332722, 69.4716204], [32.1018025, 69.46089040000001], [32.0598691, 69.4211625], [32.0602058, 69.4210819], [32.06034859999999, 69.4210263], [32.0610321, 69.4207071], [32.061746199999995, 69.420483], [32.0636802, 69.4197989], [32.0651496, 69.4191597], [32.0666849, 69.4182492], [32.06811479999999, 69.4171762], [32.06822249999999, 69.4171636], [32.0696882, 69.41609050000001], [32.0696817, 69.4160285], [32.07014199999999, 69.4158081], [32.0709287, 69.4154213], [32.07165669999999, 69.4151172], [32.0725936, 69.414782], [32.0742111, 69.4143085], [32.0744272, 69.4142524], [32.0758427, 69.41381969999999], [32.076116899999995, 69.4137592], [32.0767162, 69.4135776], [32.0775132, 69.413257], [32.0777555, 69.4131628], [32.07881389999999, 69.4126135], [32.0797894, 69.4119364], [32.0837935, 69.40799], [32.08465429999999, 69.4071939], [32.0844949, 69.4071423], [32.085362, 69.4062363], [32.085566, 69.4062543], [32.087783, 69.4039789], [32.087846799999994, 69.4038695], [32.0880301, 69.403435], [32.088149599999994, 69.4033677], [32.088149599999994, 69.4030593], [32.0880301, 69.4030312], [32.087998199999994, 69.4028406], [32.0879105, 69.4026135], [32.0876794, 69.4022854], [32.0860711, 69.4007846], [32.08606689999999, 69.4007258], [32.0858956, 69.4005442], [32.08568879999999, 69.4003972], [32.0843446, 69.3992283], [32.0832234, 69.3984429], [32.0821168, 69.3977157], [32.0790954, 69.39594799999999], [32.0783608, 69.3954684], [32.0782262, 69.3952401], [32.0780793, 69.39468], [32.0781691, 69.3945551], [32.0784139, 69.3940194], [32.0783812, 69.3939261], [32.0796983, 69.3913938], [32.08049530000001, 69.3899602], [32.0808699, 69.3894356], [32.0814358, 69.3891326], [32.082105199999994, 69.3889025], [32.0829899, 69.3886528], [32.087461, 69.38786719999999], [32.089055, 69.3875306], [32.0899955, 69.3872696], [32.0908881, 69.3869554], [32.0915496, 69.3866467], [32.09398039999999, 69.3852101], [32.094618, 69.3848593], [32.1011243, 69.3823136], [32.1044609, 69.381063], [32.107476899999995, 69.3803914], [32.1082941, 69.3801311], [32.108586, 69.3798912], [32.1089946, 69.379528], [32.1154862, 69.3683457], [32.1173144, 69.3651934], [32.1189198, 69.362484], [32.1197054, 69.3612232], [32.120054700000004, 69.3608615], [32.1207735, 69.36034680000002], [32.1212281, 69.3601298], [32.1212938, 69.3600937], [32.121938, 69.3597259], [32.12259629999999, 69.35946740000001], [32.1245915, 69.3583725], [32.1257256, 69.3578665], [32.1265306, 69.3575003], [32.1265908, 69.3575139], [32.126671, 69.3574706], [32.1266148, 69.3574564], [32.1274322, 69.3571971], [32.128568, 69.3568847], [32.12860049999999, 69.3569043], [32.1286895, 69.3568775], [32.128647599999994, 69.3568606], [32.1297705, 69.3566213], [32.1316457, 69.35634029999999], [32.1316558, 69.3563606], [32.13176969999999, 69.3563499], [32.1317574, 69.3563306], [32.13178909999999, 69.356328], [32.1345432, 69.35616509999998], [32.1378029, 69.3560414], [32.141166199999994, 69.3559908], [32.1446171, 69.3559712], [32.1479884, 69.3558981], [32.147829, 69.3561032], [32.1479247, 69.3570726], [32.146426, 69.3586048], [32.1541992, 69.3580023], [32.1598678, 69.3582552], [32.1622488, 69.3579918], [32.1642911, 69.3583044], [32.16562, 69.3580536], [32.170657, 69.3571032], [32.1724802, 69.3576371], [32.1720224, 69.3587479], [32.1746126, 69.359085], [32.1792112, 69.3585371], [32.18075739999999, 69.3579303], [32.1822797, 69.3579977], [32.1864514, 69.3573975], [32.1877379, 69.356054], [32.19325709999999, 69.35398159999998], [32.200306999999995, 69.3516139], [32.2026075, 69.3516139], [32.204955, 69.3520307], [32.2505172, 69.3362952], [32.3287431, 69.3197777], [32.4634513, 69.312546], [32.48891879999999, 69.3064295], [32.5283335, 69.2977364], [32.5309941, 69.2915658], [32.5272384, 69.28020999999998], [32.5609982, 69.2800539], [32.56282019999999, 69.28032699999999], [32.5737657, 69.2800562], [32.57872739999999, 69.2802191], [32.62975869999999, 69.2802225], [32.6613345, 69.280208], [32.6634695, 69.2819764], [32.6665045, 69.2825214], [32.667350199999994, 69.2833059], [32.6757662, 69.2844101], [32.6761891, 69.29318039999998], [32.6737373, 69.3013926], [32.6755555, 69.3024693], [32.6806146, 69.305473], [32.6882522, 69.3100125], [32.7116636, 69.3219438], [32.7085296, 69.32288], [32.7148225, 69.32331050000002], [32.72000499999999, 69.3244737], [32.7227958, 69.3247988], [32.7256054, 69.3234094], [32.7259633, 69.32201050000002], [32.7322735, 69.31978719999998], [32.7304999, 69.3178862], [32.7379528, 69.3134491], [32.7411951, 69.3153213], [32.74652869999999, 69.3165222], [32.7536196, 69.3147652], [32.7537639, 69.3137842], [32.749923, 69.3129085], [32.7481378, 69.3117481], [32.74552619999999, 69.3109047], [32.761916899999996, 69.3054132], [32.7821015, 69.2986492], [32.7853579, 69.2987613], [32.78997999999999, 69.2989203], [32.79817739999999, 69.29820540000001], [32.80074, 69.3001146], [32.8060812, 69.3024636], [32.8120554, 69.301112], [32.8177711, 69.2994872], [32.820108, 69.3000481], [32.8262596, 69.30152479999998], [32.82669049999999, 69.3016301], [32.8327534, 69.3031119], [32.8341027, 69.3034417], [32.8406098, 69.3050319], [32.8462127, 69.30715309999998], [32.8463287, 69.3109641], [32.8505039, 69.31174259999999], [32.8505039, 69.3137092], [32.8472121, 69.3228614], [32.838305, 69.3254611], [32.8345368, 69.3277429], [32.8295504, 69.3271925], [32.824859399999994, 69.319288], [32.82068989999999, 69.31904920000001], [32.8182681, 69.3189105], [32.8150022, 69.320001], [32.814349, 69.31844909999998], [32.8110237, 69.319267], [32.8146309, 69.3208467], [32.8157499, 69.32133669999999], [32.8169618, 69.3218673], [32.81731799999999, 69.3232302], [32.8140521, 69.3250752], [32.8188026, 69.3269828], [32.8208215, 69.3271925], [32.827293999999995, 69.328597], [32.8274127, 69.3308188], [32.8315458, 69.3302796], [32.835191599999995, 69.3297079], [32.8420381, 69.3308276], [32.8592236, 69.3276839], [32.86390560000001, 69.3274477], [32.86767559999999, 69.3273082], [32.8727734, 69.3279608], [32.8730426, 69.3279854], [32.888454, 69.3291493], [32.886173799999995, 69.32994350000001], [32.8867211, 69.333592], [32.8983958, 69.3343539], [32.899218600000005, 69.3361765], [32.90406399999999, 69.33743370000002], [32.9041115, 69.339663], [32.9099546, 69.3415066], [32.9071734, 69.3436206], [32.9142249, 69.3457676], [32.9085837, 69.3463959], [32.907841499999996, 69.3507939], [32.912295, 69.35233820000002], [32.91859579999999, 69.3576637], [32.9186886, 69.3583833], [32.9164618, 69.3595607], [32.9298224, 69.3652182], [32.9366698, 69.36971679999999], [32.9369667, 69.3712336], [32.9333296, 69.3704752], [32.9311028, 69.37444979999998], [32.92546169999999, 69.3763063], [32.91381489999999, 69.3772173], [32.9050934, 69.3817918], [32.9198458, 69.3823472], [32.92921669999999, 69.38166109999999], [32.9426702, 69.3849608], [32.9452681, 69.3886845], [32.9531545, 69.3922118], [32.8121277, 69.4106462], [32.767237599999994, 69.40021799999998], [32.732897699999995, 69.4176151], [32.71636089999999, 69.4340216], [32.7849739, 69.4598775], [32.7829335, 69.4613325], [32.7827016, 69.4658893], [32.8352156, 69.521076], [33.0701096, 69.5111374], [33.519022199999995, 69.4921306], [33.4152395, 69.4275034], [33.3875928, 69.41025449999998], [33.2945335, 69.3758643], [33.2234855, 69.3466178], [33.1577954, 69.31943620000001], [33.0537787, 69.2638354], [33.04994469999999, 69.2617832], [33.0617158, 69.1295029], [33.413092199999994, 69.1356556], [33.4103669, 69.1338879], [33.4041228, 69.131143], [33.3975887, 69.1261412], [33.399111, 69.1226314], [33.3962692, 69.1183176], [33.3972992, 69.1156252], [33.391419799999994, 69.1141718], [33.390089399999994, 69.11238159999999], [33.37296620000001, 69.110622], [33.361379, 69.1060003], [33.3530535, 69.1057248], [33.3531822, 69.10326039999998], [33.3361448, 69.0991424], [33.318377899999994, 69.0954064], [33.3077349, 69.09445699999999], [33.30207, 69.09142469999999], [33.2923497, 69.09265759999998], [33.2809342, 69.0904215], [33.279314299999996, 69.0841339], [33.266343, 69.0848457], [33.24342620000001, 69.0834975], [33.21947949999999, 69.0807702], [33.2005967, 69.0787781], [33.17965209999999, 69.0742137], [33.17188629999999, 69.0739197], [33.1552352, 69.07520719999998], [33.1494845, 69.0733066], [33.1424464, 69.0728468], [33.1262244, 69.07520719999998], [33.1158627, 69.0732265], [33.1037552, 69.0725461], [33.10073439999999, 69.0718591], [33.0976679, 69.0715978], [33.09388529999999, 69.0706636], [33.0896201, 69.070558], [33.0868649, 69.07024659999999], [33.0844317, 69.0696565], [33.079264699999996, 69.0689551], [33.0726217, 69.0679054], [33.0575209, 69.0669287], [33.05691540000001, 69.0668881], [33.05632709999999, 69.0669116], [33.05562539999999, 69.06693969999999], [33.0541222, 69.0669999], [33.0484194, 69.06628309999999], [33.0479023, 69.0660508], [33.0471995, 69.065735], [33.0467756, 69.0655445], [33.0467645, 69.0649839], [33.0467382, 69.0636579], [33.041826799999996, 69.0606832], [33.04003689999999, 69.0591484], [33.0393754, 69.057973], [33.0317129, 69.052339], [33.03211759999999, 69.0506249], [33.0323511, 69.0504746], [33.0324601, 69.0502464], [33.0336167, 69.04924770000001], [33.03365, 69.04917919999998], [33.03376759999999, 69.0490999], [33.0358349, 69.0492245], [33.0390029, 69.04776029999998], [33.039979200000005, 69.0472723], [33.040308, 69.0471903], [33.0418422, 69.0466346], [33.0422307, 69.04655259999998], [33.0438313, 69.0459085], [33.0440519, 69.04524849999999], [33.0453788, 69.0443722], [33.0439642, 69.0434707], [33.041732599999996, 69.0425193], [33.0360042, 69.0416285], [33.034071499999996, 69.0407875], [33.03331489999999, 69.0379458], [33.0312291, 69.0361302], [33.02957899999999, 69.0341698], [33.0268745, 69.0316136], [33.0276587, 69.02829869999998], [33.028145099999996, 69.0262267], [33.0285611, 69.0239723], [33.0286413, 69.0226985], [33.0271843, 69.0206611], [33.0245318, 69.0192432], [33.0213389, 69.0171992], [33.01907969999999, 69.007136], [33.0202503, 69.0061768], [33.0275522, 69.0015528], [33.023295299999994, 68.99825129999999], [33.025467299999995, 68.99316029999999], [33.0261186, 68.9914771], [33.026594, 68.9896182], [33.02315819999999, 68.9857851], [33.021680399999994, 68.986272], [33.019786499999995, 68.9862738], [33.019702, 68.9868223], [33.0165741, 68.98660159999999], [33.013070299999995, 68.9862664], [33.0103785, 68.9862633], [33.009893899999994, 68.9862051], [33.0094134, 68.9861553], [33.006475, 68.9857965], [33.0025713, 68.9853128], [32.9920265, 68.9840069], [32.98674369999999, 68.9833709], [32.9815306, 68.9827282], [32.9778928, 68.9822798], [32.9710819, 68.9814404], [32.9653883, 68.9807329], [32.9603759, 68.98022129999998], [32.9564032, 68.97987809999998], [32.95052919999999, 68.979454], [32.9454953, 68.9790925], [32.9411267, 68.9787619], [32.938173, 68.95563249999998], [32.9358776, 68.933017], [32.9328749, 68.9021057], [32.9480394, 68.9015171], [32.9513393, 68.9013891], [32.9881778, 68.8999592], [33.01871799999999, 68.8987738], [33.0624865, 68.8966574], [33.063296599999994, 68.89663139999999], [33.0654534, 68.89663800000001], [33.0667667, 68.8965891], [33.06718709999999, 68.8964447], [33.0683329, 68.8962639], [33.0700267, 68.8964293], [33.07119659999999, 68.8963947], [33.0720487, 68.8962295], [33.0728746, 68.8960109], [33.072915599999995, 68.89569629999998], [33.0716748, 68.8950389], [33.071886500000005, 68.8949745], [33.0721078, 68.89490869999999], [33.06845589999999, 68.8927674], [33.0662857, 68.89134379999999], [33.0643859, 68.889245], [33.066739, 68.88918929999998], [33.0703875, 68.8886939], [33.07261909999999, 68.8887167], [33.0806211, 68.88819439999999], [33.0791309, 68.8864371], [33.0836867, 68.8828945], [33.08507199999999, 68.8832643], [33.0892228, 68.88437249999998], [33.09623239999999, 68.8858224], [33.09653699999999, 68.8857649], [33.1041004, 68.8843361], [33.109206, 68.88615129999998], [33.1094354, 68.88653519999998], [33.1107013, 68.8865646], [33.1166357, 68.8886123], [33.11873729999999, 68.8893374], [33.1252637, 68.8915891], [33.154850599999996, 68.9017941], [33.2288339, 68.9284064], [33.2624857, 68.93926669999999], [33.4007482, 68.9545338], [33.4007482, 68.9602389], [33.4043035, 68.9609826], [33.4268231, 68.96487589999998], [33.4329935, 68.9659426], [33.4502844, 68.9684584], [33.4488824, 68.9592322], [33.5488895, 68.9580577], [33.55029139999999, 68.9555407], [33.5521607, 68.946477], [33.5465529, 68.9395928], [33.547982499999996, 68.9328149], [33.548095999999994, 68.9322766], [33.548173, 68.9319117], [33.5487086, 68.9293716], [33.54914269999999, 68.9273125], [33.5492093, 68.9269967], [33.54935119999999, 68.9263237], [33.5812177, 68.9253875], [33.5935806, 68.9250243], [33.5962097, 68.92494710000001], [33.6090728, 68.92384569999999], [33.60671, 68.9156405], [33.6066522, 68.9154395], [33.5996966, 68.89126699999998], [33.5977793, 68.8881182], [33.6157723, 68.8864634], [33.624386, 68.8867392], [33.6238118, 68.901214], [33.62610879999999, 68.89439139999999], [33.6310856, 68.8926681], [33.6354881, 68.8898418], [33.6454417, 68.88880759999999], [33.6442932, 68.8810846], [33.6544382, 68.8770151], [33.6540554, 68.8741867], [33.64888719999999, 68.871427], [33.6504185, 68.8691499], [33.6454417, 68.8654923], [33.65003569999999, 68.8608678], [33.6559696, 68.8585896], [33.6619034, 68.85237530000002], [33.6804707, 68.8428434], [33.679246199999994, 68.84117369999998], [33.678748, 68.8404943], [33.6748284, 68.8411437], [33.6670717, 68.8424289], [33.6578837, 68.84933659999999], [33.654246799999996, 68.8541017], [33.6481215, 68.84919849999999], [33.6454417, 68.84415599999998], [33.6364452, 68.8387669], [33.642761899999996, 68.8306116], [33.64272919999999, 68.7996577], [33.642726, 68.79664949999999], [33.7560246, 68.793912], [33.8274119, 68.7921869], [33.8370267, 68.92932839999999], [33.84212629999999, 69.0017233], [33.814562499999994, 69.0017233], [33.726175899999994, 69.0507637], [33.7240225, 69.0455446], [33.71804079999999, 69.0433197], [33.6977029, 69.0535011], [33.709187799999995, 69.05392879999998], [33.71038409999999, 69.05777750000001], [33.7130161, 69.06119809999998], [33.70655579999999, 69.0589748], [33.692678199999996, 69.0588038], [33.6890892, 69.06102709999999], [33.7000956, 69.0637632], [33.6615732, 69.0882019], [33.63907619999999, 69.0904756], [33.6398112, 69.093361], [33.639688699999994, 69.0999611], [33.5870468, 69.1300325], [33.5380193, 69.1484654], [33.5376883, 69.1591417], [33.53217829999999, 69.2205259], [33.5313593, 69.232755], [33.53150709999999, 69.269021], [33.5322633, 69.2928], [33.5848285, 69.3082642], [33.98533249999999, 69.3345822], [33.9829569, 69.3349109], [33.974502599999994, 69.3383073], [33.9655504, 69.3401562], [33.9621296, 69.3420307], [33.96267739999999, 69.3473813], [33.96463469999999, 69.34914899999998], [33.9678022, 69.3508574], [33.9726194, 69.3567756], [33.9789543, 69.3626702], [33.9847303, 69.3635896], [33.9863858, 69.36598969999999], [33.9900749, 69.3690624], [34.02495259999999, 69.3815664], [34.0460442, 69.385588], [34.06775069999999, 69.3881299], [34.0879074, 69.3893191], [34.1283897, 69.38824849999999], [34.1503671, 69.3861236], [34.205662, 69.3798697], [34.2797134, 69.3646574], [34.329340599999995, 69.3504713], [34.3487118, 69.346921], [34.3557939, 69.3456889], [34.3676839, 69.3440751], [34.3831784, 69.3415064], [34.39870669999999, 69.3389269], [34.405752, 69.3351464], [34.4078763, 69.32961289999999], [34.407294, 69.3273725], [34.3962712, 69.3216328], [34.3919771, 69.3202192], [34.64729299999999, 69.2815131], [34.9236465, 69.2393735], [35.2184829, 69.2638439], [35.3413354, 69.2537911], [35.7173985, 69.2145758], [35.789702399999996, 69.2154047], [35.8859026, 69.1934366], [36.0752908, 69.1514536], [36.2666925, 69.1090276], [36.470767099999996, 69.0637017], [36.403086, 69.0272877], [36.4054218, 69.0236218], [36.4127883, 69.01796099999999], [36.4228499, 69.0171246], [36.4327319, 69.0131352], [36.4312945, 69.011269], [36.4217719, 69.0081797], [36.40649979999999, 68.99910239999998], [36.4156631, 68.99472339999998], [36.41584269999999, 68.9916317], [36.3908683, 68.9814521], [36.3863456, 68.9732317], [36.3702032, 68.97222439999999], [36.3544117, 68.9736094], [36.3449368, 68.9753721], [36.344235, 68.97146889999999], [36.3358128, 68.9636603], [36.325987, 68.957109], [36.30809, 68.9485391], [36.3084409, 68.9412268], [36.307037199999996, 68.9307584], [36.305984499999994, 68.9255854], [36.2891402, 68.9191491], [36.2789635, 68.9224306], [36.2649266, 68.9212947], [36.25229339999999, 68.922052], [36.2487842, 68.9249545], [36.2375547, 68.9276043], [36.2157975, 68.9224306], [36.1989533, 68.9265949], [36.1901802, 68.9238188], [36.1947422, 68.9170032], [36.2077263, 68.9134684], [36.2119374, 68.9103118], [36.2164994, 68.9076599], [36.2112355, 68.9029868], [36.1993042, 68.8921212], [36.1837759, 68.8879741], [36.1723932, 68.8656495], [35.9102936, 68.775929], [35.754772599999995, 68.7225203], [35.6729912, 68.7229442], [35.54008019999999, 68.7238542], [35.4268111, 68.72462969999998], [35.3324298, 68.7252758], [35.2984103, 68.72542699999998], [35.0313032, 68.7266142], [34.8078601, 68.7276072], [34.66459609999999, 68.7255628], [34.37925049999999, 68.7214904], [34.1097969, 68.7176442], [33.81190719999999, 68.712392], [33.4520426, 68.70604539999998], [33.5678124, 68.65944959999999], [33.5675612, 68.65941349999999], [33.567283599999996, 68.6593654], [33.567039, 68.65926919999998], [33.5670654, 68.65914890000002], [33.5668737, 68.6590695], [33.5663713, 68.6590527], [33.5661069, 68.6589612], [33.5660275, 68.65890109999998], [33.5657102, 68.6588313], [33.5654326, 68.6587279], [33.5652078, 68.6586172], [33.5648773, 68.65848489999999], [33.56471199999999, 68.65835259999999], [33.5644476, 68.65822269999998], [33.564130299999995, 68.6581481], [33.5638394, 68.6580976], [33.5636146, 68.65799649999998], [33.5635221, 68.65796999999999], [33.563118800000005, 68.6577992], [33.562927099999996, 68.6576789], [33.5628676, 68.6575683], [33.5626759, 68.6574744], [33.56259, 68.657371], [33.5623983, 68.6572603], [33.562199899999996, 68.6571953], [33.56202809999999, 68.6570606], [33.5619752, 68.6569644], [33.5617835, 68.6568344], [33.5615256, 68.6566877], [33.5614067, 68.6565505], [33.5613207, 68.6564495], [33.5611621, 68.6562931], [33.561115799999996, 68.6562065], [33.5610629, 68.65606209999999], [33.5610827, 68.6559274], [33.561221599999996, 68.65581189999999], [33.5612348, 68.6556892], [33.5611488, 68.65556649999999], [33.5611488, 68.65546299999998], [33.561175299999995, 68.6553956], [33.5612017, 68.6552801], [33.561254600000005, 68.655167], [33.56139999999999, 68.6550467], [33.5615785, 68.6549048], [33.561843, 68.6547315], [33.562001599999995, 68.65461119999999], [33.5622594, 68.6545174], [33.562583399999994, 68.65445], [33.5629668, 68.65435369999999], [33.5633568, 68.6542695], [33.56363449999999, 68.6542045], [33.5637402, 68.6541083], [33.5638724, 68.65393749999998], [33.5639121, 68.6538364], [33.56393189999999, 68.6536992], [33.5639782, 68.6535356], [33.5639741, 68.6534003], [33.56406929999999, 68.6532271], [33.5639371, 68.6531231], [33.5637414, 68.6530057], [33.5637097, 68.6528382], [33.5636304, 68.6525976], [33.5633554, 68.6524917], [33.5631121, 68.65233569999998], [33.5629323, 68.652226], [33.562593799999995, 68.65206619999998], [33.56220249999999, 68.6518564], [33.56203849999999, 68.65168689999999], [33.5618798, 68.6515368], [33.56191689999999, 68.6514925], [33.5618534, 68.6513616], [33.5616895, 68.6511999], [33.5617265, 68.651092], [33.5618375, 68.65095729999999], [33.5621125, 68.6508206], [33.5620544, 68.650732], [33.5620121, 68.6506049], [33.5621284, 68.6504759], [33.5625356, 68.6503123], [33.562979899999995, 68.6501775], [33.56317549999999, 68.65004849999998], [33.5634876, 68.65001], [33.56377319999999, 68.6499811], [33.5635616, 68.6498117], [33.5634981, 68.6497366], [33.56330779999999, 68.6496384], [33.56330779999999, 68.6495787], [33.5633183, 68.6494786], [33.563514, 68.64938420000001], [33.5638366, 68.6492495], [33.5643337, 68.64914359999999], [33.5647357, 68.6490877], [33.5650054, 68.6490415], [33.5655395, 68.6490146], [33.5663275, 68.6490723], [33.5666448, 68.6490762], [33.5667771, 68.6490646], [33.566592, 68.6489838], [33.566354, 68.64889709999999], [33.5661477, 68.64881239999998], [33.5660631, 68.6487065], [33.5661636, 68.64865059999998], [33.56643859999999, 68.6486141], [33.5664333, 68.64852739999999], [33.566390999999996, 68.64843689999998], [33.5661794, 68.6483888], [33.5657881, 68.6483926], [33.5654285, 68.64837719999998], [33.5646087, 68.6483349], [33.56422799999999, 68.6482867], [33.56410629999999, 68.6482097], [33.5641909, 68.6480884], [33.56424380000001, 68.6479844], [33.5641328, 68.6479363], [33.5638313, 68.6478439], [33.56356689999999, 68.64765129999999], [33.5634717, 68.64749919999998], [33.5632664, 68.647437], [33.563021799999994, 68.647218], [33.5629028, 68.64704469999998], [33.5627772, 68.6468834], [33.5625326, 68.6466981], [33.5622087, 68.6465488], [33.5619509, 68.6463346], [33.56184509999999, 68.6461902], [33.5617327, 68.64599519999999], [33.5617063, 68.6458989], [33.56154099999999, 68.6457617], [33.5615146, 68.6455619], [33.5616931, 68.64528749999998], [33.5615476, 68.6451719], [33.5616269, 68.6450203], [33.5617526, 68.64487339999998], [33.56177240000001, 68.64473619999998], [33.5617922, 68.6446038], [33.56183850000001, 68.6444088], [33.561673199999994, 68.6442162], [33.56179879999999, 68.6440092], [33.56200379999999, 68.6437853], [33.5622946, 68.6436963], [33.5622351, 68.6435807], [33.5626053, 68.6434796], [33.56252599999999, 68.64333269999999], [33.56255240000001, 68.6432774], [33.5624797, 68.64315459999999], [33.5621029, 68.64305349999998], [33.5618583, 68.6429572], [33.5615146, 68.6428344], [33.5613824, 68.6427188], [33.5613559, 68.64266589999998], [33.5614352, 68.6424853], [33.561508, 68.6423938], [33.561574099999994, 68.64219879999999], [33.561494700000004, 68.64203990000001], [33.5613559, 68.64180640000001], [33.5613956, 68.64159209999998], [33.56173929999999, 68.6413008], [33.561904600000005, 68.6411154], [33.5616864, 68.640983], [33.5616864, 68.6408144], [33.5619112, 68.6405881], [33.561811999999996, 68.64045809999999], [33.5613096, 68.6403618], [33.561349299999996, 68.640239], [33.5614485, 68.640239], [33.5608799, 68.640068], [33.56090640000001, 68.6399019], [33.560536199999994, 68.6397911], [33.56043699999999, 68.6396828], [33.56008, 68.6394974], [33.5597892, 68.6391314], [33.55970979999999, 68.6389508], [33.5595049, 68.6388232], [33.5593595, 68.63862809999999], [33.5593396, 68.6384692], [33.5591545, 68.6383608], [33.5590422, 68.63823559999999], [33.559187599999994, 68.6381297], [33.5592669, 68.6379563], [33.5591942, 68.6378335], [33.5590686, 68.6376721], [33.5590381, 68.6375596], [33.5591247, 68.63752880000001], [33.55911819999999, 68.6373907], [33.5590793, 68.6373355], [33.559007799999996, 68.6372376], [33.5589839, 68.6371863], [33.5590056, 68.6371627], [33.5590511, 68.6370317], [33.559196199999995, 68.6369204], [33.55939120000001, 68.636851], [33.5595428, 68.63680519999998], [33.5597378, 68.63676969999999], [33.5597334, 68.6366995], [33.55978979999999, 68.636634], [33.5598591, 68.636585], [33.5600085, 68.63655429999999], [33.56003019999999, 68.6365464], [33.560311799999994, 68.6364927], [33.56053489999999, 68.63652109999998], [33.5606952, 68.63646900000002], [33.560727699999994, 68.63643909999999], [33.56081869999999, 68.63633649999998], [33.56079489999999, 68.6362615], [33.5607516, 68.6362149], [33.560771, 68.6361534], [33.56099629999999, 68.63608], [33.5613364, 68.6360658], [33.561644, 68.6360579], [33.5619928, 68.6360555], [33.5623632, 68.63605239999998], [33.5625863, 68.6360421], [33.5627228, 68.6360066], [33.5629004, 68.6359735], [33.563091, 68.63598689999999], [33.5634463, 68.6360208], [33.56359139999999, 68.6360587], [33.5638167, 68.63607049999999], [33.5638687, 68.63602239999999], [33.5639813, 68.63600109999999], [33.5640745, 68.63599000000002], [33.5641265, 68.63600029999999], [33.5643366, 68.6360279], [33.5644254, 68.63605630000002], [33.56451859999999, 68.63609579999999], [33.5645662, 68.6361384], [33.5141951, 68.5374336], [33.7541628, 68.51270329999998], [33.746674, 68.4518393], [33.7413096, 68.3880945], [33.7421425, 68.38785069999999], [33.74196009999999, 68.38758989999998], [33.7438591, 68.3871552], [33.7440236, 68.3870611], [33.744270799999995, 68.3868537], [33.7463522, 68.38657700000002], [33.7458332, 68.38613559999999], [33.7451037, 68.3859854], [33.74488899999999, 68.38573249999999], [33.7441849, 68.38505159999998], [33.74398779999999, 68.3840568], [33.743627, 68.3831861], [33.7439918, 68.3825695], [33.7440093, 68.38207269999998], [33.7435198, 68.3815813], [33.7439704, 68.3811702], [33.7439449, 68.3806576], [33.7439449, 68.3790289], [33.7445283, 68.3784426], [33.7447214, 68.3778101], [33.745772800000005, 68.3771459], [33.7458332, 68.37659359999999], [33.7440133, 68.3755723], [33.7433052, 68.3749634], [33.7426829, 68.374742], [33.74220689999999, 68.37450599999998], [33.7510903, 68.3426715], [33.751148, 68.34258159999999], [33.752049199999995, 68.34256969999998], [33.7540301, 68.3428061], [33.7561758, 68.3422676], [33.7584074, 68.3421726], [33.7605531, 68.342426], [33.7620123, 68.3427744], [33.7655314, 68.3429328], [33.7676771, 68.3425527], [33.76922209999999, 68.3424577], [33.771282, 68.34286939999998], [33.7782343, 68.3439464], [33.7793501, 68.3441048], [33.779950899999996, 68.3445166], [33.7784957, 68.344688], [33.77763349999999, 68.3450867], [33.779435899999996, 68.34530839999998], [33.7793501, 68.34578349999998], [33.7860449, 68.3470503], [33.787675699999994, 68.3465119], [33.7904222, 68.3467653], [33.79153809999999, 68.3463853], [33.79368379999999, 68.3467336], [33.7939413, 68.347177], [33.7974604, 68.3478104], [33.7999963, 68.3477126], [33.8010652, 68.347842], [33.8020134, 68.34848849999999], [33.80321099999999, 68.3483804], [33.80475599999999, 68.3487287], [33.8061293, 68.3488554], [33.8105066, 68.3486021], [33.8114937, 68.3489663], [33.8132532, 68.34891879999999], [33.8147124, 68.3492038], [33.81608560000001, 68.3488554], [33.820978, 68.3488554], [33.8235529, 68.3484105], [33.8283634, 68.34814009999998], [33.832908499999995, 68.34765050000001], [33.834199899999994, 68.3477284], [33.8357409, 68.3483155], [33.9153528, 68.2756502], [33.9147949, 68.2757535], [33.9145374, 68.27595999999998], [33.9140546, 68.2759997], [33.9136469, 68.2761268], [33.913346499999996, 68.2761744], [33.9132607, 68.2760871], [33.91328210000001, 68.27601559999998], [33.9130461, 68.275952], [33.9125097, 68.2760315], [33.9121449, 68.2760553], [33.9120805, 68.2759759], [33.911930299999995, 68.2759441], [33.91180159999999, 68.2760394], [33.9120161, 68.2761982], [33.9115763, 68.27624989999998], [33.910750099999994, 68.276234], [33.9103961, 68.27619429999999], [33.90969869999999, 68.2762141], [33.9090335, 68.2761665], [33.9088619, 68.2760394], [33.9087546, 68.2760076], [33.9086473, 68.2760632], [33.9082181, 68.2761029], [33.9075959, 68.2762419], [33.907048700000004, 68.2763531], [33.9065337, 68.2763611], [33.9063406, 68.27629750000001], [33.9059973, 68.2762658], [33.905847099999995, 68.2763134], [33.9045811, 68.27628159999999], [33.903701299999994, 68.2766073], [33.9028644, 68.2765914], [33.90269279999999, 68.27652779999998], [33.9024997, 68.2766152], [33.90234949999999, 68.2765755], [33.902446, 68.2764524], [33.9021671, 68.27644449999998], [33.9020383, 68.27648419999998], [33.9016735, 68.27644449999998], [33.90156629999999, 68.27655559999998], [33.9012873, 68.27653980000001], [33.9013088, 68.2764127], [33.901459, 68.276238], [33.9013088, 68.2760871], [33.9008582, 68.2760871], [33.90043969999999, 68.276091], [33.8998175, 68.27608309999998], [33.8996243, 68.2757892], [33.899731599999996, 68.275678], [33.8987875, 68.2753127], [33.8983476, 68.27522529999999], [33.8978112, 68.2751459], [33.8973284, 68.2749831], [33.8971996, 68.274848], [33.8969207, 68.2747448], [33.8966203, 68.2747448], [33.896191099999996, 68.27457], [33.8960624, 68.2743794], [33.8959765, 68.2743318], [33.89479639999999, 68.27452239999998], [33.8945389, 68.2745144], [33.89464619999999, 68.2744509], [33.8945603, 68.2743318], [33.894259899999994, 68.27428409999999], [33.8940239, 68.2744032], [33.8926613, 68.27420069999998], [33.8924682, 68.2743516], [33.8921034, 68.2743913], [33.891803, 68.2742722], [33.891566999999995, 68.27424040000001], [33.8911378, 68.2742762], [33.8908267, 68.2742126], [33.890537, 68.27420069999998], [33.889668, 68.2743913], [33.8893354, 68.2743675], [33.8881445, 68.2740538], [33.8877582, 68.2738512], [33.887929899999996, 68.27372409999998], [33.88750069999999, 68.2735732], [33.8873686, 68.2733579], [33.8548476, 68.2778799], [33.8555123, 68.2777136], [33.8567845, 68.2773693], [33.85724489999999, 68.2766151], [33.8579711, 68.27583309999999], [33.85992559999999, 68.2745051], [33.8601208, 68.2739545], [33.8611056, 68.2732743], [33.861460099999995, 68.2729727], [33.861258, 68.2725962], [33.8606572, 68.2721911], [33.86022799999999, 68.27183359999998], [33.8594619, 68.2716886], [33.8583776, 68.2718134], [33.85695609999999, 68.2715458], [33.856194, 68.2715397], [33.85502249999999, 68.2713298], [33.8535643, 68.2704693], [33.854041200000005, 68.2702582], [33.8534903, 68.2700224], [33.8528071, 68.26984159999999], [33.851688, 68.2697063], [33.8506602, 68.2692919], [33.8486165, 68.2688607], [33.8485278, 68.2682745], [33.8483057, 68.2681544], [33.848474599999996, 68.2677309], [33.84884749999999, 68.2674528], [33.8482462, 68.2672193], [33.8485542, 68.2670384], [33.8496954, 68.26723189999998], [33.8501215, 68.2671543], [33.8505077, 68.2667888], [33.851360699999994, 68.2669159], [33.8510783, 68.2663957], [33.8511944, 68.2661452], [33.8506374, 68.26597689999998], [33.8491347, 68.265845], [33.8485012, 68.2656085], [33.8478899, 68.2652314], [33.8471892, 68.2649052], [33.8463364, 68.2648816], [33.8442426, 68.2640911], [33.84306399999999, 68.2640252], [33.8423302, 68.26370399999999], [33.84191909999999, 68.2637282], [33.841523499999994, 68.26399109999998], [33.8415964, 68.2642311], [33.8412406, 68.26447809999999], [33.8407069, 68.2645358], [33.8398619, 68.2643711], [33.839706299999996, 68.2640499], [33.8390614, 68.263877], [33.837415899999996, 68.26386869999999], [33.8358593, 68.2629629], [33.8352144, 68.2627817], [33.8345251, 68.2629052], [33.8338802, 68.2627323], [33.8333688, 68.263037], [33.832546, 68.26295459999999], [33.831323, 68.2623946], [33.830522499999994, 68.26253459999998], [33.8296775, 68.2623123], [33.8289436, 68.26234519999998], [33.82849890000001, 68.2620981], [33.8289659, 68.2618758], [33.8288877, 68.2616692], [33.82940729999999, 68.2611801], [33.8291475, 68.2607471], [33.82949390000001, 68.2600414], [33.8298187, 68.2598249], [33.82906090000001, 68.2592956], [33.82890939999999, 68.259031], [33.827199, 68.2581649], [33.82693919999999, 68.2574511], [33.825618600000006, 68.2571624], [33.8255103, 68.2567533], [33.8263357, 68.25646359999999], [33.8257666, 68.2559794], [33.82515529999999, 68.2559248], [33.8240592, 68.2552063], [33.8227313, 68.2546363], [33.8219514, 68.2543864], [33.8202018, 68.2544176], [33.81919, 68.2539178], [33.81919, 68.2536366], [33.81988559999999, 68.25340239999998], [33.82077089999999, 68.2532774], [33.82077089999999, 68.2530587], [33.819674799999994, 68.2527541], [33.81963269999999, 68.25235580000002], [33.8202229, 68.2522074], [33.8197802, 68.2514342], [33.8201057, 68.2509163], [33.8206393, 68.2504372], [33.8202904, 68.2494486], [33.8197979, 68.2492813], [33.8196337, 68.2488326], [33.8182177, 68.2478895], [33.8173762, 68.2475929], [33.8173147, 68.2473799], [33.8178072, 68.2472735], [33.8176225, 68.24677149999998], [33.8166374, 68.2459957], [33.81553949999999, 68.2457258], [33.8140009, 68.2458887], [33.8133016, 68.2456221], [33.8134015, 68.2452963], [33.8126822, 68.2452296], [33.8125023, 68.2448519], [33.8131817, 68.2444446], [33.8109438, 68.243978], [33.810764, 68.2436225], [33.80976489999999, 68.24348179999998], [33.809784900000004, 68.24395579999998], [33.8083063, 68.2438595], [33.8077868, 68.2436225], [33.8071673, 68.2435855], [33.8057487, 68.24390389999999], [33.80452979999999, 68.2438225], [33.8046297, 68.2435707], [33.80552889999999, 68.2436595], [33.8058686, 68.24340770000002], [33.8050893, 68.2429263], [33.8042101, 68.2431781], [33.8031311, 68.24299299999998], [33.8021321, 68.2431633], [33.80203219999999, 68.2428745], [33.8027515, 68.2427115], [33.8025317, 68.242393], [33.80295129999999, 68.2420745], [33.801992199999994, 68.2418375], [33.80119299999999, 68.24064499999999], [33.8007534, 68.2394672], [33.8010531, 68.2392672], [33.8006135, 68.2387783], [33.801133, 68.2383487], [33.80099319999999, 68.2378005], [33.7990949, 68.2377042], [33.7975964, 68.23703], [33.7975764, 68.23662989999998], [33.7981758, 68.2363781], [33.79799599999999, 68.23612619999999], [33.79725669999999, 68.2360521], [33.7976963, 68.2355557], [33.798615399999996, 68.2356372], [33.79871529999999, 68.23528899999998], [33.7984755, 68.2350371], [33.7971168, 68.2351704], [33.7965973, 68.2346888], [33.794779, 68.2341035], [33.792641, 68.23404419999999], [33.7916619, 68.2332218], [33.78864479999999, 68.2334218], [33.7877057, 68.2339257], [33.78694639999999, 68.234185], [33.7857275, 68.234185], [33.7849682, 68.2337849], [33.78354960000001, 68.23368120000002], [33.7826105, 68.2333477], [33.7812317, 68.2335774], [33.7793136, 68.23365889999998], [33.77875409999999, 68.2331551], [33.7780348, 68.2328513], [33.77739540000001, 68.2328809], [33.7769158, 68.2335404], [33.775697, 68.2339701], [33.7743582, 68.2341702], [33.7734391, 68.233733], [33.7726998, 68.234059], [33.7731793, 68.2344517], [33.77479780000001, 68.2344814], [33.77461799999999, 68.23478509999998], [33.773339199999995, 68.2350148], [33.7720404, 68.2346444], [33.769103199999996, 68.2345184], [33.7675047, 68.2348518], [33.7654666, 68.2358002], [33.7644875, 68.2361336], [33.763148799999996, 68.2361113], [33.7624294, 68.23594829999999], [33.7611906, 68.23594829999999], [33.759951799999996, 68.2361484], [33.7580935, 68.23593349999999], [33.7574341, 68.23574089999998], [33.7563152, 68.2357261], [33.7556758, 68.2361558], [33.7557158, 68.2366448], [33.7550764, 68.2368744], [33.754397, 68.2368966], [33.75381749999999, 68.2366818], [33.7528784, 68.2365929], [33.75215909999999, 68.2361113], [33.7524988, 68.2357557], [33.75207919999999, 68.2354075], [33.7510601, 68.2353408], [33.7496415, 68.2350148], [33.7483427, 68.2346296], [33.7481229, 68.2343258], [33.7486025, 68.23420720000001], [33.7484426, 68.2339701], [33.7490021, 68.233896], [33.7489621, 68.2335774], [33.7493018, 68.2333107], [33.7489222, 68.233081], [33.7484426, 68.23306619999998], [33.74684409999999, 68.23229559999999], [33.7469041, 68.23209549999999], [33.7458051, 68.2316435], [33.7443664, 68.2313174], [33.7434873, 68.230732], [33.742508199999996, 68.2305245], [33.7422684, 68.23028739999998], [33.7429877, 68.22940549999998], [33.7428079, 68.2290794], [33.743287499999994, 68.2288645], [33.743547199999995, 68.2281234], [33.7431476, 68.22799], [33.7429877, 68.2277676], [33.7440467, 68.22791589999999], [33.7441067, 68.2277676], [33.743287499999994, 68.2275305], [33.7415691, 68.2275824], [33.7403702, 68.2282568], [33.7392712, 68.22848649999999], [33.73811229999999, 68.2291461], [33.7380724, 68.2296723], [33.7375728, 68.2304059], [33.7366537, 68.2307765], [33.7358744, 68.23083579999998], [33.73461559999999, 68.23070979999999], [33.7321779, 68.23066529999998], [33.7306394, 68.2308654], [33.7280618, 68.2311618], [33.7258838, 68.2311173], [33.72526439999999, 68.2313026], [33.725084599999995, 68.2321103], [33.72426539999999, 68.23234], [33.7230265, 68.2323104], [33.722507, 68.2324734], [33.7224271, 68.2327994], [33.7222073, 68.2329476], [33.7222073, 68.2331477], [33.7230465, 68.2331551], [33.7233662, 68.233207], [33.7233063, 68.2334218], [33.7226868, 68.2335774], [33.72174770000001, 68.2334811], [33.72094849999999, 68.2334737], [33.7205688, 68.2337034], [33.719849499999995, 68.233696], [33.71929, 68.23366629999998], [33.7159732, 68.2345036], [33.714334699999995, 68.2352741], [33.712936, 68.2356446], [33.71183709999999, 68.2357187], [33.71171720000001, 68.23593349999999], [33.71205679999999, 68.23609649999999], [33.7131358, 68.2361039], [33.7134156, 68.2358743], [33.7138751, 68.2359854], [33.7140949, 68.2364744], [33.7148742, 68.2367337], [33.7146544, 68.2370152], [33.714914199999996, 68.23736340000002], [33.7156335, 68.23760779999999], [33.7160131, 68.2379264], [33.7156734, 68.2382672], [33.7138951, 68.23868199999998], [33.7132757, 68.23925979999999], [33.7127762, 68.2402746], [33.71297599999999, 68.24050429999998], [33.71279609999999, 68.24072339999998], [33.7123868, 68.24072339999998], [33.7118718, 68.2405324], [33.7118718, 68.2396416], [33.71221510000001, 68.23951429999998], [33.71204350000001, 68.2389416], [33.7096402, 68.2397052], [33.7086102, 68.2397052], [33.7082669, 68.2398324], [33.7068936, 68.2391961], [33.70620699999999, 68.2390688], [33.705177000000006, 68.2390688], [33.704662, 68.2388779], [33.704662, 68.2384961], [33.7044112, 68.23816829999998], [33.703475999999995, 68.2379954], [33.7029562, 68.2379884], [33.7027204, 68.2380645], [33.7026021, 68.23824149999999], [33.7026021, 68.2391325], [33.70157209999999, 68.24015059999999], [33.70157209999999, 68.2406597], [33.7008855, 68.2414234], [33.7001988, 68.2416779], [33.6998555, 68.2425688], [33.6936757, 68.2446049], [33.6923024, 68.2456229], [33.6923024, 68.2463864], [33.6919591, 68.2466408], [33.6911008, 68.2469589], [33.6904141, 68.2469589], [33.6898991, 68.2471498], [33.689980399999996, 68.24751809999998], [33.6911329, 68.24780309999998], [33.6921307, 68.247595], [33.6928174, 68.247595], [33.6936757, 68.2479131], [33.694142, 68.248411], [33.694893, 68.2485966], [33.6953923, 68.248931], [33.6953923, 68.24969430000002], [33.6957356, 68.250076], [33.6971089, 68.2505849], [33.6974522, 68.2514754], [33.697774499999994, 68.2516705], [33.6983105, 68.25166620000002], [33.6984219, 68.2519658], [33.6977052, 68.25248909999999], [33.69694629999999, 68.25279369999998], [33.69696739999999, 68.25325439999999], [33.6979581, 68.25351999999998], [33.6973047, 68.25380889999998], [33.696999399999996, 68.2542124], [33.6964247, 68.2546686], [33.6960553, 68.2552845], [33.6953986, 68.2556494], [33.6955012, 68.2561132], [33.6965053, 68.2567177], [33.6966505, 68.25680510000001], [33.696096399999995, 68.25747409999998], [33.69414669999999, 68.2582343], [33.6932642, 68.2604844], [33.692197, 68.2609481], [33.6897343, 68.26076569999998], [33.6875178, 68.2605072], [33.6868459, 68.26070169999998], [33.6855878, 68.2611863], [33.6850745, 68.2611789], [33.6843427, 68.2610221], [33.6837449, 68.2608805], [33.68252, 68.2608805], [33.68111869999999, 68.2606809], [33.6804523, 68.2606664], [33.680236699999995, 68.2608588], [33.679345, 68.26114909999998], [33.6785218, 68.2611528], [33.6779143, 68.2613342], [33.6777575, 68.26150120000001], [33.67774769999999, 68.26187859999999], [33.6772497, 68.2626146], [33.6770287, 68.2627111], [33.67650549999999, 68.26293969999999], [33.6757613, 68.2633425], [33.6757613, 68.2635686], [33.6754179, 68.2641304], [33.6748931, 68.26463559999999], [33.6753419, 68.2650331], [33.676085, 68.26582769999999], [33.67589, 68.2661373], [33.6760014, 68.26628519999998], [33.6769396, 68.2665673], [33.6768839, 68.2669594], [33.6766052, 68.2673308], [33.6760014, 68.26771950000001], [33.67590849999999, 68.26787429999999], [33.6760236, 68.26808589999999], [33.6759332, 68.2684275], [33.6756076, 68.2689097], [33.6757523, 68.2695258], [33.6761231, 68.2697601], [33.67649109999999, 68.27040289999998], [33.6767201, 68.2707712], [33.6764471, 68.2710744], [33.6764823, 68.2711787], [33.6771251, 68.2716449], [33.677627, 68.2722349], [33.6773812, 68.272564], [33.6769097, 68.27326849999999], [33.6769231, 68.2735974], [33.677332099999994, 68.2738878], [33.677332099999994, 68.2740608], [33.67675620000001, 68.27458609999998], [33.6761886, 68.27490739999999], [33.6747947, 68.2751144], [33.6726866, 68.27520209999999], [33.67150829999999, 68.2753044], [33.66967979999999, 68.2757766], [33.6679001, 68.2762128], [33.66739619999999, 68.2762399], [33.6668599, 68.2761586], [33.6658847, 68.2756172], [33.666031, 68.2750367], [33.6659172, 68.27475389999998], [33.6656653, 68.2746607], [33.6648957, 68.2746961], [33.66394619999999, 68.2746669], [33.6624429, 68.2746844], [33.66102659999999, 68.2749392], [33.6611136, 68.2753493], [33.6606388, 68.2755982], [33.6599584, 68.2756304], [33.6586845, 68.2759555], [33.6577667, 68.2759819], [33.657284, 68.2758618], [33.6568172, 68.275566], [33.6560682, 68.2753738], [33.65524390000001, 68.2752569], [33.6546585, 68.2752911], [33.65450439999999, 68.27540229999998], [33.6535029, 68.2756048], [33.653094599999996, 68.2758015], [33.652370499999996, 68.2758928], [33.6518697, 68.2758757], [33.6517157, 68.2757274], [33.6519468, 68.2754936], [33.651916, 68.2751742], [33.6511918, 68.2747721], [33.6502289, 68.2746096], [33.6494893, 68.2744642], [33.6489886, 68.2744813], [33.6487729, 68.27472939999998], [33.648364599999994, 68.27472939999998], [33.6475249, 68.2746609], [33.64633849999999, 68.274718], [33.6452446, 68.2746524], [33.6440814, 68.2749632], [33.6436577, 68.274986], [33.6428719, 68.2748434], [33.6427872, 68.2744499], [33.6425407, 68.2741277], [33.6422325, 68.2740763], [33.640502899999994, 68.27445929999999], [33.6393801, 68.27443919999999], [33.6387109, 68.2744291], [33.6379421, 68.2742249], [33.6371101, 68.2742015], [33.635853, 68.2743756], [33.634008, 68.2744693], [33.6338, 68.2745664], [33.63359189999999, 68.2747171], [33.63332059999999, 68.2751857], [33.6325802, 68.275838], [33.306711799999995, 68.3120959], [32.9245429, 68.3226701]], [[32.9039328, 69.2986094], [32.8973879, 69.2937028], [32.88696089999999, 69.2863513], [32.885245100000006, 69.2820561], [32.885707, 69.27832019999998], [32.8840216, 69.2750446], [32.8771141, 69.2701006], [32.9159335, 69.2672351], [32.926150799999995, 69.2700054], [32.925354999999996, 69.27083819999999], [32.924161299999994, 69.27130360000001], [32.9241786, 69.2718363], [32.927102299999994, 69.2724424], [32.9276385, 69.27282819999999], [32.92834779999999, 69.27282819999999], [32.9286419, 69.2729567], [32.9280364, 69.2733608], [32.928417, 69.2740343], [32.9283305, 69.274469], [32.927898, 69.2748608], [32.92698119999999, 69.2749404], [32.9256145, 69.27643410000002], [32.92464569999999, 69.2769912], [32.9235385, 69.2783256], [32.9225005, 69.2786133], [32.921376, 69.2788032], [32.9207705, 69.2791643], [32.9190925, 69.2793908], [32.9168608, 69.280517], [32.9161861, 69.2809699], [32.9160996, 69.2816431], [32.9168262, 69.2821143], [32.9304579, 69.2861134], [32.93238379999999, 69.285468], [32.9370129, 69.2870336], [32.9364723, 69.2880255], [32.9335664, 69.2890173], [32.9347031, 69.3062477], [32.9169765, 69.3041821], [32.9141032, 69.3037447], [32.9039328, 69.2986094]]], [[[32.4243912, 69.555521], [32.4346218, 69.5542194], [32.43207029999999, 69.5517722], [32.4140131, 69.5355673], [32.4243912, 69.555521]]]]}}, {"type": "Feature", "properties": {"id": "mo-47730000", "name": "ГО ЗАТО город Североморск", "region": "Мурманская область", "isCity": false, "sourceOktmo": "47-730-000-000", "sourceAgg": "Мурманск", "excelNames": ["(ЗАТО) город Североморск"], "oktmo": "47730000", "vgp": [{"year": 2019, "value": 0.0}, {"year": 2020, "value": 0.0}, {"year": 2021, "value": 0.0}, {"year": 2022, "value": 0.0}, {"year": 2023, "value": 0.0}, {"year": 2024, "value": 0.0}], "population": [{"year": 2019, "value": 62604.0}, {"year": 2020, "value": 63870.0}, {"year": 2021, "value": 65080.0}, {"year": 2022, "value": 65725.0}, {"year": 2023, "value": 50949.0}, {"year": 2024, "value": 52013.0}, {"year": 2025, "value": 52247.0}], "shipments": [{"year": 2019, "value": 0.0}, {"year": 2020, "value": 0.0}, {"year": 2021, "value": 0.0}, {"year": 2022, "value": 0.0}, {"year": 2023, "value": 0.0}, {"year": 2024, "value": 0.0}], "employees": [{"year": 2019, "value": 0.0}, {"year": 2020, "value": 0.0}, {"year": 2021, "value": 0.0}, {"year": 2022, "value": 0.0}, {"year": 2023, "value": 0.0}, {"year": 2024, "value": 0.0}], "investments": [{"year": 2019, "value": 0.0}, {"year": 2020, "value": 0.0}, {"year": 2021, "value": 0.0}, {"year": 2022, "value": 0.0}, {"year": 2023, "value": 0.0}, {"year": 2024, "value": 0.0}], "vgp2024": 0.0, "pop2024": 52013.0, "ship2024": 0.0, "emp2024": 0.0, "inv2024": 0.0}, "geometry": {"type": "MultiPolygon", "coordinates": [[[[33.2658949, 69.0640502], [33.28231739999999, 69.0694795], [33.28898079999999, 69.0748744], [33.3513945, 69.0847088], [33.5141595, 69.1241315], [33.5380193, 69.1484654], [33.5870468, 69.1300325], [33.639688699999994, 69.0999611], [33.6398112, 69.093361], [33.63907619999999, 69.0904756], [33.6615732, 69.0882019], [33.7000956, 69.0637632], [33.6890892, 69.06102709999999], [33.692678199999996, 69.0588038], [33.70655579999999, 69.0589748], [33.7130161, 69.06119809999998], [33.71038409999999, 69.05777750000001], [33.709187799999995, 69.05392879999998], [33.6977029, 69.0535011], [33.71804079999999, 69.0433197], [33.7240225, 69.0455446], [33.726175899999994, 69.0507637], [33.814562499999994, 69.0017233], [33.84212629999999, 69.0017233], [33.8370267, 68.92932839999999], [33.8274119, 68.7921869], [33.7560246, 68.793912], [33.642726, 68.79664949999999], [33.64272919999999, 68.7996577], [33.642761899999996, 68.8306116], [33.6364452, 68.8387669], [33.6454417, 68.84415599999998], [33.6481215, 68.84919849999999], [33.654246799999996, 68.8541017], [33.6578837, 68.84933659999999], [33.6670717, 68.8424289], [33.6748284, 68.8411437], [33.678748, 68.8404943], [33.679246199999994, 68.84117369999998], [33.6804707, 68.8428434], [33.6619034, 68.85237530000002], [33.6559696, 68.8585896], [33.65003569999999, 68.8608678], [33.6454417, 68.8654923], [33.6504185, 68.8691499], [33.64888719999999, 68.871427], [33.6540554, 68.8741867], [33.6544382, 68.8770151], [33.6442932, 68.8810846], [33.6454417, 68.88880759999999], [33.6354881, 68.8898418], [33.6310856, 68.8926681], [33.62610879999999, 68.89439139999999], [33.6238118, 68.901214], [33.624386, 68.8867392], [33.6157723, 68.8864634], [33.5977793, 68.8881182], [33.5996966, 68.89126699999998], [33.6066522, 68.9154395], [33.60671, 68.9156405], [33.6090728, 68.92384569999999], [33.5962097, 68.92494710000001], [33.5935806, 68.9250243], [33.5812177, 68.9253875], [33.54935119999999, 68.9263237], [33.5492093, 68.9269967], [33.54914269999999, 68.9273125], [33.5487086, 68.9293716], [33.548173, 68.9319117], [33.548095999999994, 68.9322766], [33.547982499999996, 68.9328149], [33.5465529, 68.9395928], [33.5521607, 68.946477], [33.55029139999999, 68.9555407], [33.5488895, 68.9580577], [33.4488824, 68.9592322], [33.4502844, 68.9684584], [33.4329935, 68.9659426], [33.4268231, 68.96487589999998], [33.4043035, 68.9609826], [33.4007482, 68.9602389], [33.4007482, 68.9545338], [33.2624857, 68.93926669999999], [33.2656075, 68.95290909999999], [33.2941369, 68.95349019999999], [33.29269889999999, 68.9648703], [33.2886108, 68.9971897], [33.23897, 68.9974515], [33.20793419999999, 68.9976151], [33.1673581, 69.0146338], [33.1424027, 69.0250943], [33.13237039999999, 69.0246323], [33.1305929, 69.0245505], [33.1259945, 69.0243387], [33.1205448, 69.0227931], [33.115657, 69.0240057], [33.1125684, 69.0244637], [33.1128794, 69.0260035], [33.1151039, 69.0280236], [33.1164905, 69.0293455], [33.1167909, 69.02998629999999], [33.1165667, 69.03102979999998], [33.11625959999999, 69.0322062], [33.117135, 69.0339786], [33.1214603, 69.0361065], [33.12522589999999, 69.037992], [33.1343798, 69.0397243], [33.1381506, 69.0403928], [33.1420847, 69.0409023], [33.1475609, 69.0411575], [33.1517524, 69.04093619999999], [33.1569797, 69.0407096], [33.158777099999995, 69.0404616], [33.1626468, 69.039701], [33.1635107, 69.0393678], [33.164569199999995, 69.0384766], [33.165191799999995, 69.0370146], [33.1659436, 69.0363527], [33.1672537, 69.035959], [33.168740899999996, 69.0357369], [33.170376499999996, 69.0356943], [33.1720809, 69.0358669], [33.17317249999999, 69.0361925], [33.1738027, 69.03647249999999], [33.1764856, 69.0384893], [33.17769379999999, 69.03921209999999], [33.180154300000005, 69.04008540000001], [33.1829559, 69.0406523], [33.1879142, 69.0414462], [33.191031, 69.0394073], [33.20316629999999, 69.0398284], [33.2059058, 69.0420231], [33.23765819999999, 69.0468007], [33.2503528, 69.0460675], [33.253761, 69.04587069999998], [33.26308329999999, 69.0466153], [33.2643638, 69.0468289], [33.2686445, 69.05280579999999], [33.2597065, 69.0561711], [33.2668962, 69.0617749], [33.2658949, 69.0640502]]]]}}]}