{"type": "FeatureCollection", "features": [{"type": "Feature", "properties": {"id": "city-53723000", "name": "ГО Орск", "region": "Оренбургская область", "isCity": true, "sourceOktmo": "53-723-000-000", "sourceAgg": "Орск", "excelNames": ["ГО Орск"], "oktmo": "53723000", "vgp": [{"year": 2019, "value": 135975928.6066372}, {"year": 2020, "value": 127178635.49403232}, {"year": 2021, "value": 160283013.0803009}, {"year": 2022, "value": 191928219.98114958}, {"year": 2023, "value": 224563085.03277785}, {"year": 2024, "value": 293174728.8878957}], "population": [{"year": 2019, "value": 231901.0}, {"year": 2020, "value": 230449.0}, {"year": 2021, "value": 228682.0}, {"year": 2022, "value": 227131.0}, {"year": 2023, "value": 190980.0}, {"year": 2024, "value": 190318.0}, {"year": 2025, "value": 188136.0}], "shipments": [{"year": 2019, "value": 50366214.0}, {"year": 2020, "value": 52572316.2}, {"year": 2021, "value": 53148199.7}, {"year": 2022, "value": 73724395.0}, {"year": 2023, "value": 95066040.4}, {"year": 2024, "value": 119764516.3}], "employees": [{"year": 2019, "value": 42447.0}, {"year": 2020, "value": 40289.0}, {"year": 2021, "value": 38578.0}, {"year": 2022, "value": 37930.0}, {"year": 2023, "value": 39364.0}, {"year": 2024, "value": 40175.0}], "investments": [{"year": 2019, "value": 6165917.0}, {"year": 2020, "value": 3697220.0}, {"year": 2021, "value": 6630528.0}, {"year": 2022, "value": 15131727.0}, {"year": 2023, "value": 22725329.0}, {"year": 2024, "value": 37063644.0}], "vgp2024": 293174728.8878957, "pop2024": 190318.0, "ship2024": 119764516.3, "emp2024": 40175.0, "inv2024": 37063644.0}, "geometry": {"type": "MultiPolygon", "coordinates": [[[[58.373428399999995, 51.110622899999996], [58.4610951, 51.1185642], [58.479520499999985, 51.133621700000006], [58.48337540000001, 51.1331737], [58.48694030000001, 51.14006409999999], [58.486483400000004, 51.141640699999996], [58.49048109999999, 51.14543859999999], [58.4911664, 51.15160050000001], [58.38608399999999, 51.15246029999999], [58.378573799999984, 51.16210660000001], [58.3748642, 51.1719405], [58.3775281, 51.17568409999999], [58.391690200000006, 51.1765181], [58.38722700000001, 51.18452150000001], [58.3840513, 51.1901433], [58.388729100000006, 51.192133600000005], [58.39480160000001, 51.19214699999999], [58.3946728, 51.1889195], [58.396861499999986, 51.186929], [58.3989, 51.185220900000004], [58.404500500000005, 51.18372800000001], [58.407847899999986, 51.18298819999999], [58.409070899999996, 51.1832438], [58.4111309, 51.1830689], [58.4125685, 51.1826116], [58.41336249999999, 51.1819929], [58.41413500000001, 51.181777600000004], [58.4151435, 51.18214079999999], [58.4155941, 51.182773000000005], [58.4157872, 51.183741399999995], [58.4151649, 51.1843601], [58.41413500000001, 51.185194], [58.412933300000006, 51.1873594], [58.4129119, 51.1893633], [58.4141564, 51.19219410000001], [58.415336599999996, 51.19281939999999], [58.41676350000001, 51.193404400000006], [58.4177074, 51.1934569], [58.4173107, 51.2012099], [58.415594, 51.2080665], [58.411396100000005, 51.214829800000004], [58.404095099999985, 51.223231299999995], [58.395355900000006, 51.23195749999999], [58.3891074, 51.23819569999999], [58.3777184, 51.2392915], [58.367130800000005, 51.2415168], [58.3671826, 51.24300989999999], [58.3675713, 51.2542201], [58.366139, 51.2570641], [58.3641887, 51.26093610000001], [58.3624832, 51.2618668], [58.3565214, 51.26512019999999], [58.35831859999998, 51.267458], [58.35491660000001, 51.277670199999996], [58.3518854, 51.282744999999984], [58.35130449999999, 51.2883473], [58.3482572, 51.2905252], [58.340682599999994, 51.2917231], [58.345558199999985, 51.2944998], [58.3529262, 51.29521199999999], [58.35130439999999, 51.33798039999999], [58.382559400000005, 51.337829000000006], [58.3821762, 51.3178709], [58.4221894, 51.3180088], [58.48119620000001, 51.31460549999999], [58.4892867, 51.3143704], [58.4954564, 51.315692600000006], [58.5130119, 51.3157583], [58.52489479999999, 51.3158028], [58.5451555, 51.316290499999994], [58.6271894, 51.31826490000001], [58.6281151, 51.3243048], [58.65645850000001, 51.319737399999994], [58.6837777, 51.3216725], [58.69743869999999, 51.3385106], [58.7425011, 51.3286351], [58.7425011, 51.32622949999999], [58.74670100000001, 51.3240971], [58.743813599999996, 51.32212859999999], [58.74412469999999, 51.32012790000001], [58.753187600000004, 51.3231834], [58.755853599999995, 51.32487329999999], [58.75615109999999, 51.326806], [58.7643988, 51.33280969999999], [58.77055859999999, 51.3321537], [58.77223850000001, 51.330448000000004], [58.7760183, 51.329792000000005], [58.7748284, 51.32078130000001], [58.7764193, 51.3190875], [58.781571099999994, 51.32001139999999], [58.781078300000004, 51.317939499999994], [58.777628899999996, 51.3135995], [58.779286400000004, 51.3108553], [58.784127899999994, 51.3103561], [58.783729999999984, 51.2868518], [58.7896422, 51.2868758], [58.7943303, 51.28272690000001], [58.7978784, 51.2802585], [58.785607600000006, 51.273651400000006], [58.81305609999999, 51.2525116], [58.78465370000001, 51.19571940000001], [58.7786464, 51.1849243], [58.78377340000001, 51.1831484], [58.78892080000001, 51.18039290000001], [58.794667099999984, 51.1771334], [58.7941267, 51.17623240000001], [58.791111, 51.1730673], [58.79582700000001, 51.1702543], [58.79795300000001, 51.166863], [58.7901778, 51.1595499], [58.7909241, 51.1541146], [58.79740609999999, 51.1546727], [58.803041900000004, 51.15895419999999], [58.82244479999999, 51.1616707], [58.8277785, 51.162055399999986], [58.83850790000001, 51.1622397], [58.842150100000005, 51.157813399999995], [58.8476835, 51.15808820000001], [58.85529590000001, 51.1564802], [58.86219379999999, 51.1550558], [58.8670279, 51.152348399999994], [58.8745516, 51.14693219999999], [58.89994799999999, 51.230846799999995], [58.916120500000005, 51.23102630000001], [59.016140499999985, 51.233939400000004], [58.9880841, 51.146934699999996], [59.00190150000001, 51.143690599999985], [59.01491859999999, 51.141806], [59.0275287, 51.1361261], [59.02121189999999, 51.125936800000005], [59.02556760000001, 51.1226998], [59.03895020000001, 51.1233745], [59.043623100000005, 51.121489], [59.05345710000001, 51.121807399999994], [59.061113, 51.1248278], [59.06282149999999, 51.1206781], [59.0667585, 51.10393200000001], [59.07808000000001, 51.105944], [59.08363400000001, 51.102993100000006], [59.0774392, 51.0970909], [59.067826499999995, 51.09293199999999], [59.0671857, 51.080453299999995], [59.07679830000001, 51.0791113], [59.0849157, 51.0753534], [59.081711500000004, 51.0444741], [59.054368800000006, 51.0487715], [59.04666869999999, 51.0128803], [59.03393969999999, 51.01340950000001], [59.0121944, 51.01083740000001], [58.99923419999999, 51.0101807], [58.98601300000001, 51.01012589999999], [58.9854042, 51.0112752], [58.942192500000004, 51.01226779999999], [58.84945059999999, 51.04551250000001], [58.7637905, 51.0485354], [58.7324968, 51.0376008], [58.71643579999999, 51.0516277], [58.6809947, 51.05569139999999], [58.65625849999999, 51.0585013], [58.61417350000001, 51.04740240000001], [58.59483959999999, 51.0517554], [58.57839289999999, 51.05546090000001], [58.57646489999999, 51.05589520000001], [58.56197399999999, 51.0634669], [58.54429189999998, 51.0727043], [58.5205865, 51.08488419999999], [58.515024499999996, 51.085951699999995], [58.486957000000004, 51.091338500000006], [58.48114459999999, 51.08359269999999], [58.462264499999996, 51.080162900000005], [58.44535450000001, 51.07901789999999], [58.4167944, 51.07709349999999], [58.3840191, 51.07486990000001], [58.37892029999999, 51.0772637], [58.37720629999998, 51.08056399999999], [58.377691500000005, 51.0846644], [58.37696219999999, 51.0890558], [58.373428399999995, 51.110622899999996]]], [[[58.7792484, 51.77319969999999], [58.73280690000001, 51.7786658], [58.708684500000004, 51.77892769999998], [58.6951421, 51.7880909], [58.68879399999999, 51.80772009999998], [58.6765212, 51.82027829999999], [58.66340199999999, 51.82864849999999], [58.65832359999999, 51.8380632], [58.6680572, 51.8438156], [58.6769444, 51.85087430000001], [58.66974999999999, 51.859761600000006], [58.65536119999999, 51.8647272], [58.61441279999999, 51.8847545], [58.639321899999985, 51.885012399999994], [58.6556414, 51.893000699999995], [58.65813189999999, 51.90644290000001], [58.659161999999995, 51.925167599999995], [58.66019270000001, 51.9259407], [58.65967710000001, 51.9353459], [58.6577875, 51.9347447], [58.6572712, 51.966159999999995], [58.65881719999999, 51.96719079999998], [58.6576999, 51.9924433], [58.6584617, 51.9993822], [58.658609099999985, 52.0054464], [58.658266299999994, 52.0107736], [58.65856120000001, 52.0168369], [58.659186099999985, 52.03055479999999], [58.690291299999984, 52.0299399], [58.704570600000004, 52.0336385], [58.710545499999995, 52.033669399999994], [58.71768310000001, 52.033579], [58.72646369999999, 52.035656599999996], [58.73443369999999, 52.037651], [58.7479423, 52.037651], [58.7542673, 52.036828], [58.767639300000006, 52.03892200000001], [58.7684895, 52.04227860000001], [58.7686193, 52.04279110000001], [58.76952649999999, 52.0435315], [58.776620799999996, 52.0493206], [58.7827542, 52.04944499999999], [58.7850719, 52.043491800000005], [58.786017499999986, 52.0357641], [58.783585900000006, 52.032606099999995], [58.77615620000001, 52.0290324], [58.7720853, 52.0234949], [58.77750710000001, 52.0156492], [58.78615260000001, 52.0134875], [58.7873683, 52.00583780000001], [58.785207, 52.00126399999999], [58.785224, 51.996125], [58.78885429999998, 51.9920318], [58.78993500000001, 51.985959099999995], [58.801552300000004, 51.9789703], [58.80649470000001, 51.96553250000001], [58.81805520000001, 51.939051600000006], [58.8178894, 51.9235729], [58.8177815, 51.89392110000001], [58.803332899999994, 51.8867301], [58.7923144, 51.88352869999999], [58.78970959999999, 51.8727853], [58.793365399999985, 51.855207099999994], [58.798293499999986, 51.8423268], [58.800199600000006, 51.8355582], [58.795663100000006, 51.830909899999995], [58.789007099999985, 51.8276416], [58.78645989999998, 51.8182451], [58.7894534, 51.81146009999999], [58.78913330000001, 51.8033775], [58.7865876, 51.793980899999994], [58.78844019999999, 51.7858653], [58.7876201, 51.7847893], [58.7792484, 51.77319969999999]]]]}}, {"type": "Feature", "properties": {"id": "mo-53720000", "name": "ГО Новотроицк", "region": "Оренбургская область", "isCity": false, "sourceOktmo": "53-720-000-000", "sourceAgg": "Орск", "excelNames": ["ГО Новотроицк"], "oktmo": "53720000", "vgp": [{"year": 2019, "value": 96105588.37117401}, {"year": 2020, "value": 98288608.38266905}, {"year": 2021, "value": 124868583.15754524}, {"year": 2022, "value": 149429165.04328364}, {"year": 2023, "value": 157069718.41400012}, {"year": 2024, "value": 175961649.01152518}], "population": [{"year": 2019, "value": 91531.0}, {"year": 2020, "value": 90209.0}, {"year": 2021, "value": 88930.0}, {"year": 2022, "value": 87591.0}, {"year": 2023, "value": 79946.0}, {"year": 2024, "value": 79410.0}, {"year": 2025, "value": 78871.0}], "shipments": [{"year": 2019, "value": 113629214.2}, {"year": 2020, "value": 106014596.7}, {"year": 2021, "value": 193356326.7}, {"year": 2022, "value": 198771545.4}, {"year": 2023, "value": 214167037.3}, {"year": 2024, "value": 201568197.6}], "employees": [{"year": 2019, "value": 25606.0}, {"year": 2020, "value": 25224.0}, {"year": 2021, "value": 25000.0}, {"year": 2022, "value": 25173.0}, {"year": 2023, "value": 24601.0}, {"year": 2024, "value": 24044.0}], "investments": [{"year": 2019, "value": 7647792.0}, {"year": 2020, "value": 6532411.0}, {"year": 2021, "value": 7868561.0}, {"year": 2022, "value": 5525967.0}, {"year": 2023, "value": 14656459.0}, {"year": 2024, "value": 19858454.0}], "vgp2024": 175961649.01152518, "pop2024": 79410.0, "ship2024": 201568197.6, "emp2024": 24044.0, "inv2024": 19858454.0}, "geometry": {"type": "MultiPolygon", "coordinates": [[[[58.0909413, 51.0788016], [58.15820750000001, 51.115128199999994], [58.191533099999994, 51.14096260000001], [58.19145089999999, 51.1459335], [58.1782823, 51.1472307], [58.167943399999984, 51.145865199999996], [58.1659844, 51.14962019999999], [58.1619576, 51.1500298], [58.15665889999998, 51.15303769999999], [58.15784930000001, 51.1563441], [58.152828099999994, 51.1588847], [58.1588696, 51.1666884], [58.163678, 51.166553300000004], [58.176431799999996, 51.21088660000001], [58.1906617, 51.21212440000001], [58.19138399999999, 51.228087899999984], [58.19773500000001, 51.22838550000001], [58.1944017, 51.2363207], [58.1982471, 51.256040799999994], [58.1912798, 51.253728200000005], [58.1692752, 51.26036990000001], [58.14474080000001, 51.27091910000001], [58.13122609999999, 51.2751686], [58.1262906, 51.2779166], [58.1192973, 51.2807479], [58.11740449999999, 51.2841564], [58.114642800000006, 51.28782269999999], [58.11591459999999, 51.291401799999996], [58.1190941, 51.29398649999999], [58.122883499999986, 51.29430610000001], [58.1243157, 51.2944269], [58.1302398, 51.2923732], [58.142848199999996, 51.289937200000004], [58.15506750000001, 51.28966799999999], [58.158469200000006, 51.2930255], [58.16084839999999, 51.29537369999999], [58.1659156, 51.30113630000001], [58.1733035, 51.303528799999995], [58.1804717, 51.30743], [58.184259600000004, 51.308185599999995], [58.1889327, 51.3074484], [58.19045100000001, 51.3089072], [58.18840470000001, 51.3114655], [58.18994140000001, 51.3138188], [58.1905809, 51.313783799999996], [58.19338930000001, 51.31363009999999], [58.19406959999999, 51.3126468], [58.19524030000001, 51.310954599999995], [58.1966822, 51.310980099999995], [58.2103193, 51.31122119999999], [58.2156575, 51.317621700000004], [58.2181546, 51.31627370000001], [58.2170663, 51.3215451], [58.2214195, 51.3223952], [58.2204673, 51.32673079999999], [58.2259088, 51.3241805], [58.228357499999994, 51.3271559], [58.22855779999999, 51.336792100000004], [58.257192399999994, 51.338066099999985], [58.33288610000001, 51.3366927], [58.35130439999999, 51.33798039999999], [58.3529262, 51.29521199999999], [58.345558199999985, 51.2944998], [58.340682599999994, 51.2917231], [58.3482572, 51.2905252], [58.35130449999999, 51.2883473], [58.3518854, 51.282744999999984], [58.35491660000001, 51.277670199999996], [58.35831859999998, 51.267458], [58.3565214, 51.26512019999999], [58.3624832, 51.2618668], [58.3641887, 51.26093610000001], [58.366139, 51.2570641], [58.3675713, 51.2542201], [58.3671826, 51.24300989999999], [58.367130800000005, 51.2415168], [58.3777184, 51.2392915], [58.3891074, 51.23819569999999], [58.395355900000006, 51.23195749999999], [58.404095099999985, 51.223231299999995], [58.411396100000005, 51.214829800000004], [58.415594, 51.2080665], [58.4173107, 51.2012099], [58.4177074, 51.1934569], [58.41676350000001, 51.193404400000006], [58.415336599999996, 51.19281939999999], [58.4141564, 51.19219410000001], [58.4129119, 51.1893633], [58.412933300000006, 51.1873594], [58.41413500000001, 51.185194], [58.4151649, 51.1843601], [58.4157872, 51.183741399999995], [58.4155941, 51.182773000000005], [58.4151435, 51.18214079999999], [58.41413500000001, 51.181777600000004], [58.41336249999999, 51.1819929], [58.4125685, 51.1826116], [58.4111309, 51.1830689], [58.409070899999996, 51.1832438], [58.407847899999986, 51.18298819999999], [58.404500500000005, 51.18372800000001], [58.3989, 51.185220900000004], [58.396861499999986, 51.186929], [58.3946728, 51.1889195], [58.39480160000001, 51.19214699999999], [58.388729100000006, 51.192133600000005], [58.3840513, 51.1901433], [58.38722700000001, 51.18452150000001], [58.391690200000006, 51.1765181], [58.3775281, 51.17568409999999], [58.3748642, 51.1719405], [58.378573799999984, 51.16210660000001], [58.38608399999999, 51.15246029999999], [58.4911664, 51.15160050000001], [58.49048109999999, 51.14543859999999], [58.486483400000004, 51.141640699999996], [58.48694030000001, 51.14006409999999], [58.48337540000001, 51.1331737], [58.479520499999985, 51.133621700000006], [58.4610951, 51.1185642], [58.373428399999995, 51.110622899999996], [58.3604579, 51.10983679999999], [58.35928380000001, 51.1197165], [58.3589029, 51.122903], [58.348209000000004, 51.1262413], [58.34204789999999, 51.1281653], [58.335581100000006, 51.1360349], [58.3404842, 51.1457273], [58.329512, 51.1550446], [58.32166239999999, 51.161740999999985], [58.32103159999999, 51.1622791], [58.320331599999996, 51.161520799999984], [58.31902579999999, 51.1606784], [58.316001400000005, 51.159858199999995], [58.3140294, 51.15910589999999], [58.3136893, 51.158589799999994], [58.31358529999999, 51.1582005], [58.31364619999999, 51.1576292], [58.31449289999998, 51.156605000000006], [58.3152007, 51.15627129999999], [58.315910200000005, 51.154795299999996], [58.31664070000001, 51.1538979], [58.3169545, 51.1530585], [58.316765299999986, 51.152362600000004], [58.3163147, 51.15180939999999], [58.3156173, 51.151435899999996], [58.3147229, 51.15112040000001], [58.3136122, 51.1509903], [58.31214800000001, 51.15122809999999], [58.31066030000001, 51.15213729999999], [58.3092297, 51.1534892], [58.3085845, 51.1548168], [58.30916919999999, 51.1557374], [58.309309799999994, 51.1563067], [58.3088517, 51.15688339999999], [58.30813289999998, 51.1574919], [58.30720269999999, 51.157865799999996], [58.305531099999996, 51.157758099999995], [58.30471769999998, 51.15733749999998], [58.3041482, 51.15686589999999], [58.30319329999998, 51.15520850000001], [58.30310240000001, 51.15451939999999], [58.30340139999999, 51.1535786], [58.3030499, 51.1530585], [58.3016766, 51.1525202], [58.2991017, 51.15208950000001], [58.2968701, 51.15176639999999], [58.2946385, 51.151551100000006], [58.29263399999999, 51.152104800000004], [58.29172029999999, 51.15338159999999], [58.2906524, 51.154916400000005], [58.28988849999999, 51.1564958], [58.28982030000001, 51.15803220000001], [58.289901500000006, 51.158829499999996], [58.289801000000004, 51.159246200000005], [58.28963099999999, 51.15950019999998], [58.2891467, 51.1597596], [58.288426699999995, 51.1598215], [58.28799750000001, 51.15971099999999], [58.28758879999999, 51.15943999999998], [58.2870625, 51.15871239999999], [58.28613339999999, 51.158174], [58.28495749999998, 51.1573133], [58.2843492, 51.1564527], [58.28455760000001, 51.1553056], [58.284915, 51.154785], [58.285218599999986, 51.1541891], [58.285057599999995, 51.153233500000006], [58.2846177, 51.1525942], [58.283982499999986, 51.152351200000005], [58.283383999999984, 51.1519414], [58.28300009999999, 51.151241399999996], [58.28286889999998, 51.1500907], [58.28206429999999, 51.14897349999999], [58.28124890000001, 51.1479236], [58.280808999999984, 51.146570800000006], [58.28011159999999, 51.1456891], [58.2792369, 51.145167300000004], [58.2785093, 51.14502329999999], [58.27776080000001, 51.1450456], [58.27705619999998, 51.1452442], [58.276454, 51.14559749999999], [58.27592739999999, 51.14649], [58.274543400000006, 51.14718319999999], [58.27386490000001, 51.14783789999999], [58.27337269999999, 51.1482139], [58.27311649999999, 51.1486639], [58.2727409, 51.150158000000005], [58.272563700000006, 51.15053699999999], [58.272805299999995, 51.15167900000001], [58.272758100000004, 51.1522642], [58.2724942, 51.1527355], [58.2717328, 51.153306], [58.2712551, 51.15355280000001], [58.271013599999996, 51.1536776], [58.26922189999999, 51.1538998], [58.2680364, 51.153967], [58.26685090000001, 51.1537786], [58.2666566, 51.1536034], [58.26661420000001, 51.15303370000001], [58.2672064, 51.1527233], [58.2675789, 51.15236800000001], [58.2676877, 51.151551100000006], [58.2673765, 51.15027909999999], [58.267001, 51.14896679999999], [58.267380599999996, 51.1473281], [58.2674409, 51.145648699999995], [58.2672478, 51.14462559999999], [58.266486, 51.1436429], [58.26538099999999, 51.1430371], [58.2641257, 51.142983199999996], [58.262022800000004, 51.14368999999999], [58.259705399999994, 51.14403999999998], [58.25789230000001, 51.14456509999999], [58.25546750000001, 51.1447804], [58.25283889999999, 51.14481409999999], [58.2489557, 51.1449762], [58.24813979999999, 51.145157299999994], [58.2471661, 51.1453987], [58.24641239999999, 51.1454011], [58.244727000000005, 51.144772899999985], [58.242310899999985, 51.1431764], [58.241904, 51.1425192], [58.24181790000001, 51.1419517], [58.2404082, 51.141068600000004], [58.239009499999995, 51.1399474], [58.2381619, 51.1388435], [58.2378865, 51.1381828], [58.2380975, 51.1372952], [58.237915199999996, 51.136218], [58.23615559999999, 51.1351948], [58.2352481, 51.134523999999985], [58.23354590000001, 51.133861800000005], [58.2293643, 51.1328923], [58.2261686, 51.132206599999996], [58.224064600000005, 51.131931599999994], [58.2219927, 51.1319192], [58.21898530000001, 51.1314899], [58.2179372, 51.1313403], [58.21496539999998, 51.13063330000001], [58.213281699999996, 51.1303205], [58.21018109999999, 51.1302262], [58.208656, 51.1300053], [58.2079495, 51.12990299999999], [58.20578229999999, 51.12937109999999], [58.204012000000006, 51.1286372], [58.203016099999985, 51.128184000000005], [58.2024778, 51.127573299999995], [58.202585, 51.1264893], [58.2028904, 51.125274399999995], [58.20349549999999, 51.123957], [58.2053746, 51.1222537], [58.2074345, 51.11956], [58.208979500000005, 51.11697389999999], [58.21052439999998, 51.1158963], [58.2139576, 51.11427989999999], [58.216189199999995, 51.11266340000001], [58.218249199999995, 51.11083130000001], [58.2189358, 51.1094303], [58.219107499999986, 51.1074903], [58.218249199999995, 51.1047957], [58.217219199999995, 51.1002685], [58.21601760000001, 51.0967111], [58.2144726, 51.095417399999995], [58.2124019, 51.093989], [58.21163979999999, 51.0925153], [58.21107920000001, 51.09087229999999], [58.209581, 51.0896548], [58.208464500000005, 51.0889485], [58.2076842, 51.0885037], [58.2057729, 51.08824799999999], [58.2017697, 51.0877624], [58.19284329999999, 51.087223300000005], [58.1882065, 51.0870966], [58.1849469, 51.08700759999999], [58.179110400000006, 51.0864685], [58.17629720000001, 51.08615129999999], [58.1737263, 51.0858614], [58.171339800000005, 51.08459329999999], [58.170630299999985, 51.0832141], [58.1701708, 51.0805375], [58.170699, 51.077841400000004], [58.1715573, 51.07590009999999], [58.173273900000005, 51.0739587], [58.17550549999999, 51.071369999999995], [58.1768788, 51.06910479999999], [58.1775654, 51.0674868], [58.17722209999999, 51.06597649999999], [58.176847200000005, 51.065662399999994], [58.17485909999999, 51.06453630000001], [58.17206059999999, 51.063219700000005], [58.17019369999999, 51.06262370000001], [58.1684839, 51.0623425], [58.165892499999984, 51.062416500000005], [58.16460049999999, 51.0625132], [58.163495, 51.0627256], [58.1629462, 51.0629383], [58.1625967, 51.0631566], [58.16173760000001, 51.0638588], [58.160056, 51.06532930000001], [58.1592066, 51.0657751], [58.158177099999996, 51.0661164], [58.1573648, 51.0662617], [58.1566817, 51.0661913], [58.1557729, 51.0658372], [58.1548044, 51.065457300000006], [58.15422839999999, 51.0652533], [58.153219, 51.06505740000001], [58.15139729999999, 51.0649993], [58.149856099999994, 51.0651414], [58.13671, 51.066947400000004], [58.13118000000001, 51.068473], [58.1296719, 51.06888909999999], [58.12794470000001, 51.069633100000004], [58.1276827, 51.070230699999996], [58.1264103, 51.0708307], [58.125531300000006, 51.0710005], [58.124598799999994, 51.07090250000001], [58.12359360000001, 51.07061989999999], [58.122411, 51.07061499999999], [58.121947099999986, 51.07061499999999], [58.120136699999996, 51.07059019999999], [58.1185729, 51.0702058], [58.11750489999999, 51.0700896], [58.116797299999995, 51.070183500000006], [58.11218639999999, 51.070694200000005], [58.10928349999999, 51.070830599999994], [58.107192199999986, 51.070889400000006], [58.10621679999999, 51.0702814], [58.10426600000001, 51.0698599], [58.10268829999998, 51.0700896], [58.1012954, 51.0705748], [58.0960007, 51.0725173], [58.0943156, 51.0736094], [58.09398310000001, 51.07410229999999], [58.094162, 51.075020699999996], [58.0940925, 51.0753386], [58.09391219999999, 51.075734800000006], [58.09276800000001, 51.0774125], [58.0909413, 51.0788016]]], [[[58.1150598, 51.49433690000001], [58.1219654, 51.5075694], [58.1300058, 51.51622890000001], [58.13822710000001, 51.51826079999998], [58.141006100000006, 51.52149259999999], [58.14546319999999, 51.5211775], [58.1459933, 51.5185633], [58.1926354, 51.5158717], [58.197028800000005, 51.51407999999999], [58.199177999999996, 51.514784], [58.1968478, 51.51659999999998], [58.20587429999999, 51.5169661], [58.2063477, 51.5182082], [58.2078834, 51.518247999999986], [58.20909909999999, 51.5198009], [58.2226643, 51.52071659999999], [58.2254797, 51.524737699999996], [58.229830699999994, 51.5254543], [58.2312384, 51.52843990000001], [58.234245800000004, 51.528360299999996], [58.234693699999994, 51.532818599999985], [58.23168640000001, 51.534370900000006], [58.2326461, 51.53612220000001], [58.2325822, 51.5392663], [58.251714099999994, 51.5393857], [58.2519701, 51.5464692], [58.2502424, 51.548816900000006], [58.24793889999999, 51.54929440000001], [58.25190609999999, 51.55016969999999], [58.2549774, 51.544201], [58.25408159999999, 51.5394255], [58.2563212, 51.53612220000001], [58.2625278, 51.5334554], [58.2625918, 51.53238069999999], [58.2448036, 51.529196299999995], [58.24307590000001, 51.52816129999999], [58.235205599999986, 51.52740489999999], [58.2337979, 51.52577269999999], [58.2336699, 51.5249367], [58.23194230000001, 51.524180300000005], [58.2297668, 51.5239415], [58.22957480000001, 51.5208759], [58.223624099999995, 51.5203583], [58.2205527, 51.5188851], [58.22087260000001, 51.512991899999996], [58.2230482, 51.512633599999994], [58.22278180000001, 51.5069699], [58.222408300000005, 51.505903199999985], [58.2204887, 51.50574389999999], [58.21965689999999, 51.5053456], [58.2187611, 51.5055448], [58.2183132, 51.5045889], [58.2171614, 51.504509199999994], [58.21664949999999, 51.504150800000005], [58.2155618, 51.5047482], [58.2140862, 51.497051], [58.21386549999998, 51.4957316], [58.21291790000001, 51.495064299999996], [58.21172440000001, 51.49534390000001], [58.2108499, 51.4959518], [58.2086795, 51.4979682], [58.20728959999998, 51.4991929], [58.2056382, 51.4983338], [58.205547700000004, 51.49784089999999], [58.1998694, 51.496066299999995], [58.1960688, 51.496080400000004], [58.1959783, 51.494559300000006], [58.19079769999999, 51.494080399999994], [58.18586599999998, 51.49275639999999], [58.1789435, 51.4847553], [58.171296999999996, 51.482783000000005], [58.15760089999999, 51.4803092], [58.15081180000001, 51.48057399999998], [58.147764300000006, 51.4806062], [58.144525099999996, 51.478421299999994], [58.144525099999996, 51.47577239999999], [58.139050399999995, 51.4718551], [58.134706800000004, 51.471263199999996], [58.1345711, 51.46788099999999], [58.12900589999999, 51.4675992], [58.1265174, 51.47106589999999], [58.1100029, 51.4712068], [58.1086455, 51.4739969], [58.10489019999999, 51.4753778], [58.10059189999999, 51.47602599999999], [58.0982683, 51.476619199999995], [58.096460199999996, 51.477952], [58.10455649999999, 51.490214999999985], [58.1150598, 51.49433690000001]]]]}}, {"type": "Feature", "properties": {"id": "mo-53713000", "name": "ГО Гайский", "region": "Оренбургская область", "isCity": false, "sourceOktmo": "53-713-000-000", "sourceAgg": "Орск", "excelNames": ["ГО Гайский"], "oktmo": "53713000", "vgp": [{"year": 2019, "value": 58033515.768990256}, {"year": 2020, "value": 52761844.44882777}, {"year": 2021, "value": 71560824.34118436}, {"year": 2022, "value": 81936296.50518076}, {"year": 2023, "value": 92251375.13278538}, {"year": 2024, "value": 106564813.03578877}], "population": [{"year": 2019, "value": 43395.0}, {"year": 2020, "value": 42784.0}, {"year": 2021, "value": 42311.0}, {"year": 2022, "value": 41341.0}, {"year": 2023, "value": 39585.0}, {"year": 2024, "value": 39040.0}, {"year": 2025, "value": 38570.0}], "shipments": [{"year": 2019, "value": 28466528.9}, {"year": 2020, "value": 35770919.7}, {"year": 2021, "value": 48400757.5}, {"year": 2022, "value": 48862247.3}, {"year": 2023, "value": 60588120.4}, {"year": 2024, "value": 66866308.4}], "employees": [{"year": 2019, "value": 13911.0}, {"year": 2020, "value": 13915.0}, {"year": 2021, "value": 13373.0}, {"year": 2022, "value": 12859.0}, {"year": 2023, "value": 13195.0}, {"year": 2024, "value": 12961.0}], "investments": [{"year": 2019, "value": 9534304.0}, {"year": 2020, "value": 8437393.0}, {"year": 2021, "value": 5659367.0}, {"year": 2022, "value": 7736738.0}, {"year": 2023, "value": 8843257.0}, {"year": 2024, "value": 10733993.0}], "vgp2024": 106564813.03578877, "pop2024": 39040.0, "ship2024": 66866308.4, "emp2024": 12961.0, "inv2024": 10733993.0}, "geometry": {"type": "MultiPolygon", "coordinates": [[[[58.22278180000001, 51.5069699], [58.2230482, 51.512633599999994], [58.22087260000001, 51.512991899999996], [58.2205527, 51.5188851], [58.223624099999995, 51.5203583], [58.22957480000001, 51.5208759], [58.2297668, 51.5239415], [58.23194230000001, 51.524180300000005], [58.2336699, 51.5249367], [58.2337979, 51.52577269999999], [58.235205599999986, 51.52740489999999], [58.24307590000001, 51.52816129999999], [58.2448036, 51.529196299999995], [58.2625918, 51.53238069999999], [58.2625278, 51.5334554], [58.2563212, 51.53612220000001], [58.25408159999999, 51.5394255], [58.2549774, 51.544201], [58.25190609999999, 51.55016969999999], [58.24793889999999, 51.54929440000001], [58.2502424, 51.548816900000006], [58.2519701, 51.5464692], [58.251714099999994, 51.5393857], [58.2325822, 51.5392663], [58.2326461, 51.53612220000001], [58.23168640000001, 51.534370900000006], [58.234693699999994, 51.532818599999985], [58.234245800000004, 51.528360299999996], [58.2312384, 51.52843990000001], [58.229830699999994, 51.5254543], [58.2254797, 51.524737699999996], [58.2226643, 51.52071659999999], [58.20909909999999, 51.5198009], [58.2078834, 51.518247999999986], [58.2063477, 51.5182082], [58.20587429999999, 51.5169661], [58.1968478, 51.51659999999998], [58.199177999999996, 51.514784], [58.197028800000005, 51.51407999999999], [58.1926354, 51.5158717], [58.1459933, 51.5185633], [58.14546319999999, 51.5211775], [58.141006100000006, 51.52149259999999], [58.13822710000001, 51.51826079999998], [58.1300058, 51.51622890000001], [58.1219654, 51.5075694], [58.1150598, 51.49433690000001], [58.107305999999994, 51.4963586], [58.09390869999999, 51.5234351], [58.09608789999999, 51.57082189999999], [58.09526989999999, 51.57345920000001], [58.0945832, 51.5783293], [58.0996129, 51.5816896], [58.1042907, 51.587070800000006], [58.1061618, 51.60144590000001], [58.09436, 51.60392480000001], [58.092574799999994, 51.610683900000005], [58.0993382, 51.61748459999999], [58.0987717, 51.6220196], [58.102411000000004, 51.62496629999999], [58.104078200000004, 51.6425064], [58.104110399999996, 51.648282800000004], [58.103252100000006, 51.65333129999999], [58.1054494, 51.6555358], [58.14298310000001, 51.6818276], [58.1450952, 51.7172014], [58.1455077, 51.72410709999998], [58.1474158, 51.72357100000001], [58.15059389999999, 51.7221108], [58.15402970000001, 51.7191046], [58.157379500000005, 51.7192764], [58.159355099999985, 51.7181599], [58.16150240000001, 51.7187611], [58.164657500000004, 51.71836590000001], [58.1657111, 51.71979189999999], [58.16863149999999, 51.71962009999999], [58.17009169999999, 51.72065089999998], [58.17515929999998, 51.72297], [58.1814295, 51.7245162], [58.184178, 51.72614819999999], [58.18469329999999, 51.72786599999999], [58.18392020000001, 51.7299704], [58.18563880000001, 51.73493640000001], [58.1883007, 51.73340619999999], [58.193024799999996, 51.7332345], [58.199638599999986, 51.7337499], [58.205049800000005, 51.7350383], [58.22669489999999, 51.73478089999998], [58.257273, 51.7334929], [58.2577022, 51.74045019999999], [58.258561, 51.744830799999995], [58.25873269999999, 51.7507788], [58.2668066, 51.7511225], [58.27780099999998, 51.7510367], [58.2872492, 51.7516381], [58.3134466, 51.7522611], [58.31988779999998, 51.778909500000005], [58.3207468, 51.779424899999995], [58.323753100000005, 51.77848009999999], [58.32907840000001, 51.778566], [58.3291646, 51.77023439999999], [58.34393819999999, 51.77040639999999], [58.36022330000001, 51.77005379999999], [58.36773069999999, 51.76989129999999], [58.3854247, 51.770406799999996], [58.395903600000004, 51.7712659], [58.4034622, 51.77135189999999], [58.403290199999994, 51.778566899999994], [58.42304570000001, 51.778567100000004], [58.446752200000006, 51.7794263], [58.48851270000001, 51.7805922], [58.4898709, 51.7708375], [58.49846019999999, 51.77015039999999], [58.52989720000001, 51.7706661], [58.57490520000001, 51.77169740000001], [58.573873999999996, 51.79012139999999], [58.57473180000001, 51.827033899999996], [58.615445300000005, 51.82651899999999], [58.6169048, 51.84724070000001], [58.6191372, 51.875112999999985], [58.61578730000001, 51.8772603], [58.61363989999999, 51.8803524], [58.61441279999999, 51.8847545], [58.65536119999999, 51.8647272], [58.66974999999999, 51.859761600000006], [58.6769444, 51.85087430000001], [58.6680572, 51.8438156], [58.65832359999999, 51.8380632], [58.66340199999999, 51.82864849999999], [58.6765212, 51.82027829999999], [58.68879399999999, 51.80772009999998], [58.6951421, 51.7880909], [58.708684500000004, 51.77892769999998], [58.73280690000001, 51.7786658], [58.7792484, 51.77319969999999], [58.7723783, 51.74736719999999], [58.7702658, 51.7452532], [58.77047249999998, 51.74348340000001], [58.76756559999998, 51.7407392], [58.767012699999995, 51.7390323], [58.7591454, 51.7348093], [58.7435939, 51.729477], [58.73115959999999, 51.730941], [58.7293894, 51.73021000000001], [58.72893569999998, 51.7295954], [58.72874749999998, 51.728947399999996], [58.72841849999999, 51.7287047], [58.7268419, 51.72793479999999], [58.725206099999994, 51.728318599999994], [58.7228733, 51.729157], [58.722540899999984, 51.72848220000001], [58.72149289999999, 51.7282505], [58.7196116, 51.72869239999999], [58.7185561, 51.72829110000001], [58.718034599999996, 51.72639590000001], [58.716558799999994, 51.725873599999986], [58.7159909, 51.725355799999996], [58.7139522, 51.7245506], [58.71275640000001, 51.7227], [58.7141402, 51.7208941], [58.71818929999999, 51.7180753], [58.7216485, 51.7150432], [58.7391344, 51.7061879], [58.7500017, 51.7075957], [58.752035, 51.70538779999999], [58.74648009999999, 51.6997776], [58.74982329999999, 51.69336959999999], [58.75476100000001, 51.6948681], [58.7590816, 51.6923494], [58.768699799999986, 51.6937841], [58.7805298, 51.6992676], [58.786373000000005, 51.7034416], [58.77709350000001, 51.68514450000001], [58.78169840000001, 51.6838597], [58.7821688, 51.68221809999999], [58.7813206, 51.6794477], [58.77844360000001, 51.6731179], [58.78538660000001, 51.6721499], [58.78426350000001, 51.6535857], [58.7835327, 51.6424711], [58.783007499999975, 51.63325709999999], [58.798388200000005, 51.621176399999996], [58.79596490000001, 51.60147680000001], [58.772578199999984, 51.6027883], [58.76763330000001, 51.5590547], [58.743730500000005, 51.5560425], [58.74138929999999, 51.5513595], [58.72510589999999, 51.54957819999999], [58.715331400000004, 51.5483735], [58.705280299999984, 51.53975849999999], [58.7138966, 51.53895889999998], [58.714748900000004, 51.5328807], [58.7102268, 51.527554899999984], [58.69945270000001, 51.5283855], [58.68870319999999, 51.5298887], [58.6843584, 51.52927720000001], [58.69581239999999, 51.51765460000001], [58.6975961, 51.5075192], [58.70841569999999, 51.5080361], [58.72753169999999, 51.497453], [58.736852999999996, 51.4938138], [58.74376389999998, 51.4909756], [58.7454734, 51.490519400000004], [58.746857299999995, 51.4899365], [58.7475664, 51.48932899999999], [58.7481157, 51.488043699999984], [58.748315500000004, 51.48648359999999], [58.74762359999999, 51.484532], [58.7461176, 51.48311259999999], [58.7434313, 51.482732399999996], [58.741233400000006, 51.4829351], [58.7386285, 51.48275769999999], [58.737651599999985, 51.4820733], [58.7377331, 51.4806031], [58.738831999999995, 51.47903149999999], [58.7437162, 51.478118899999984], [58.7459548, 51.476927499999995], [58.746606099999994, 51.4759135], [58.74700690000001, 51.4748513], [58.74827479999999, 51.4740882], [58.749658700000005, 51.4735558], [58.75201940000001, 51.473479699999984], [58.75364750000001, 51.473910700000005], [58.75566920000001, 51.4739668], [58.7638618, 51.4741939], [58.76837810000001, 51.46670829999999], [58.7705089, 51.46600219999999], [58.7778745, 51.46117280000001], [58.7702742, 51.45993979999999], [58.7637526, 51.4586902], [58.76267429999999, 51.458706400000004], [58.7636747, 51.4566694], [58.76359679999999, 51.4546486], [58.762363, 51.4506233], [58.75905110000001, 51.44865099999999], [58.751504899999986, 51.448764100000005], [58.746114799999994, 51.44884449999999], [58.7450111, 51.4481869], [58.74164890000001, 51.44486699999999], [58.7425473, 51.44013579999999], [58.745652299999996, 51.436719599999996], [58.7445489, 51.436062099999994], [58.7423422, 51.4347469], [58.743240400000005, 51.430015699999984], [58.748602600000005, 51.42926179999999], [58.75722309999999, 51.4291329], [58.764636200000005, 51.425651499999994], [58.76763469999999, 51.4195405], [58.76647940000001, 51.41753589999999], [58.7632476, 51.4175846], [58.756809699999984, 51.418355299999995], [58.7513716, 51.41708870000001], [58.75229429999999, 51.41303099999999], [58.768425999999984, 51.41211460000001], [58.7704242, 51.40804049999999], [58.767089099999986, 51.405394900000005], [58.7615229, 51.40076080000001], [58.7646499, 51.3980178], [58.772135500000005, 51.3965568], [58.77418479999999, 51.3938298], [58.7783611, 51.3903965], [58.7813294, 51.3836115], [58.75831000000001, 51.3731754], [58.76044, 51.35961340000001], [58.766194099999986, 51.3541849], [58.7648595, 51.3474651], [58.749749099999995, 51.34634380000001], [58.7484683, 51.340971], [58.75615109999999, 51.326806], [58.755853599999995, 51.32487329999999], [58.753187600000004, 51.3231834], [58.74412469999999, 51.32012790000001], [58.743813599999996, 51.32212859999999], [58.74670100000001, 51.3240971], [58.7425011, 51.32622949999999], [58.7425011, 51.3286351], [58.69743869999999, 51.3385106], [58.6837777, 51.3216725], [58.65645850000001, 51.319737399999994], [58.6281151, 51.3243048], [58.6271894, 51.31826490000001], [58.5451555, 51.316290499999994], [58.52489479999999, 51.3158028], [58.5130119, 51.3157583], [58.4954564, 51.315692600000006], [58.4892867, 51.3143704], [58.48119620000001, 51.31460549999999], [58.4221894, 51.3180088], [58.3821762, 51.3178709], [58.382559400000005, 51.337829000000006], [58.35130439999999, 51.33798039999999], [58.33288610000001, 51.3366927], [58.257192399999994, 51.338066099999985], [58.22855779999999, 51.336792100000004], [58.228357499999994, 51.3271559], [58.2259088, 51.3241805], [58.2204673, 51.32673079999999], [58.2214195, 51.3223952], [58.2170663, 51.3215451], [58.2181546, 51.31627370000001], [58.2156575, 51.317621700000004], [58.2103193, 51.31122119999999], [58.1966822, 51.310980099999995], [58.19524030000001, 51.310954599999995], [58.19406959999999, 51.3126468], [58.19338930000001, 51.31363009999999], [58.1905809, 51.313783799999996], [58.18994140000001, 51.3138188], [58.18840470000001, 51.3114655], [58.19045100000001, 51.3089072], [58.1889327, 51.3074484], [58.184259600000004, 51.308185599999995], [58.1804717, 51.30743], [58.1733035, 51.303528799999995], [58.1659156, 51.30113630000001], [58.16084839999999, 51.29537369999999], [58.158469200000006, 51.2930255], [58.15506750000001, 51.28966799999999], [58.142848199999996, 51.289937200000004], [58.1302398, 51.2923732], [58.1243157, 51.2944269], [58.122883499999986, 51.29430610000001], [58.1190941, 51.29398649999999], [58.11591459999999, 51.291401799999996], [58.114642800000006, 51.28782269999999], [58.11740449999999, 51.2841564], [58.1192973, 51.2807479], [58.1262906, 51.2779166], [58.13122609999999, 51.2751686], [58.14474080000001, 51.27091910000001], [58.1692752, 51.26036990000001], [58.1912798, 51.253728200000005], [58.1982471, 51.256040799999994], [58.1944017, 51.2363207], [58.19773500000001, 51.22838550000001], [58.19138399999999, 51.228087899999984], [58.1906617, 51.21212440000001], [58.176431799999996, 51.21088660000001], [58.163678, 51.166553300000004], [58.1588696, 51.1666884], [58.152828099999994, 51.1588847], [58.15784930000001, 51.1563441], [58.15665889999998, 51.15303769999999], [58.1619576, 51.1500298], [58.1659844, 51.14962019999999], [58.167943399999984, 51.145865199999996], [58.1782823, 51.1472307], [58.19145089999999, 51.1459335], [58.191533099999994, 51.14096260000001], [58.15820750000001, 51.115128199999994], [58.0909413, 51.0788016], [58.086413199999996, 51.0828022], [58.08383119999999, 51.083261400000005], [58.0827408, 51.08353209999999], [58.0817565, 51.083998400000006], [58.081015699999995, 51.084437099999995], [58.0806996, 51.08504479999999], [58.0807265, 51.086047199999996], [58.08075809999999, 51.087042699999984], [58.08128440000001, 51.0884854], [58.082166799999996, 51.08953120000001], [58.082826199999985, 51.0909119], [58.08332209999999, 51.0923423], [58.08373159999998, 51.093451399999985], [58.08641279999999, 51.09626490000001], [58.08868739999999, 51.09950390000001], [58.09052230000001, 51.1049102], [58.09048359999999, 51.1066748], [58.0909353, 51.1082289], [58.090855, 51.1095245], [58.09070659999999, 51.1117083], [58.09079059999999, 51.1127914], [58.0908228, 51.11408459999999], [58.090305699999995, 51.1173261], [58.0896211, 51.1190953], [58.088816499999986, 51.120745299999996], [58.08839350000001, 51.1210622], [58.08797049999999, 51.1212107], [58.08733449999998, 51.121307900000005], [58.0860699, 51.1213007], [58.084899300000004, 51.121397699999996], [58.08383829999999, 51.1214995], [58.0816552, 51.1221126], [58.0806948, 51.122428799999994], [58.07759409999999, 51.12296750000001], [58.0756307, 51.12307409999999], [58.0737425, 51.1229271], [58.07069549999999, 51.1219641], [58.0684424, 51.1208935], [58.066200099999996, 51.11988329999999], [58.0649644, 51.118645], [58.0636765, 51.116728599999995], [58.061555000000006, 51.11525919999999], [58.059895999999995, 51.113741899999994], [58.057818, 51.1124567], [58.05632599999999, 51.1116025], [58.054237699999995, 51.111002], [58.0506214, 51.1106246], [58.0461203, 51.110107799999994], [58.0416738, 51.10973090000001], [58.03903049999999, 51.110244900000005], [58.03719310000001, 51.1100592], [58.03528109999999, 51.1093744], [58.03266560000001, 51.10743060000001], [58.03260099999999, 51.107017400000004], [58.032500099999986, 51.1063721], [58.0314505, 51.1052489], [58.029292600000005, 51.1039128], [58.0272597, 51.10207830000001], [58.02410020000001, 51.0977891], [58.02049529999999, 51.094986199999994], [58.0150021, 51.0936924], [58.009484, 51.09224590000001], [58.0072119, 51.091765], [58.005869700000005, 51.0913717], [58.004046599999995, 51.09148309999999], [58.00205669999999, 51.091614], [58.0011529, 51.091976900000006], [58.00009060000001, 51.0928977], [57.99923409999999, 51.09350520000001], [57.998527999999986, 51.093844999999995], [57.997836, 51.0940159], [57.9960255, 51.0940183], [57.9949547, 51.0939169], [57.993786199999995, 51.093677], [57.992341, 51.09300460000001], [57.991214199999995, 51.0927647], [57.9898493, 51.0925853], [57.98868779999999, 51.0925899], [57.983416399999996, 51.0919674], [57.9807138, 51.0921007], [57.9781607, 51.09193489999999], [57.9762168, 51.0916994], [57.9744875, 51.091147199999995], [57.9718048, 51.09092830000001], [57.9708367, 51.0903646], [57.969628, 51.0899431], [57.9666372, 51.0896557], [57.9642679, 51.08908970000001], [57.95713059999999, 51.0874739], [57.9545665, 51.0868391], [57.951559, 51.086254999999994], [57.948740799999996, 51.0862528], [57.94664110000001, 51.0864435], [57.945135900000004, 51.08700759999999], [57.94170269999999, 51.0890563], [57.9385896, 51.09111570000001], [57.93483620000001, 51.094986199999994], [57.92968640000001, 51.1011308], [57.927009000000005, 51.1041102], [57.92631610000001, 51.106129499999994], [57.92500199999999, 51.1079291], [57.92373980000001, 51.1100138], [57.9226271, 51.11225569999999], [57.9220537, 51.115430800000006], [57.9213016, 51.11667], [57.920068099999995, 51.117687000000004], [57.9190434, 51.11805149999999], [57.917973599999996, 51.118282], [57.916932100000004, 51.118219200000006], [57.91584379999999, 51.1177771], [57.9148828, 51.1163873], [57.909158099999985, 51.11379219999999], [57.90649620000001, 51.11310459999999], [57.90470919999999, 51.1128381], [57.90121860000001, 51.11262700000001], [57.897328200000004, 51.11269029999999], [57.89355869999999, 51.1121223], [57.88987169999999, 51.1111951], [57.888947300000005, 51.11091030000001], [57.88696419999999, 51.1102992], [57.8859986, 51.1085748], [57.88519389999999, 51.10588709999999], [57.8834559, 51.1035764], [57.8816856, 51.10170349999999], [57.8789927, 51.1004167], [57.87780399999999, 51.09982459999999], [57.87636859999999, 51.09940100000001], [57.874715299999984, 51.09924399999999], [57.8737248, 51.0992983], [57.8690913, 51.0989694], [57.8669383, 51.0993919], [57.86484289999999, 51.1009492], [57.86153679999999, 51.1028555], [57.858803099999996, 51.1039789], [57.856781700000006, 51.104562099999995], [57.854498699999986, 51.1046879], [57.85158049999999, 51.106089099999984], [57.850733, 51.10674329999999], [57.85061019999999, 51.1081471], [57.850209, 51.11004749999999], [57.8487861, 51.1118937], [57.8479159, 51.1123798], [57.847060899999995, 51.1125216], [57.8458708, 51.1123029], [57.8448622, 51.111825], [57.8414618, 51.111260099999996], [57.8388775, 51.1115857], [57.83705269999999, 51.11214199999999], [57.83546899999999, 51.1121645], [57.83338440000001, 51.11255559999999], [57.830509000000006, 51.11294629999999], [57.829241899999985, 51.1131785], [57.828496599999994, 51.11398079999999], [57.827521, 51.1155057], [57.82722880000001, 51.116554300000004], [57.82628330000001, 51.1175352], [57.82564619999999, 51.1187468], [57.82358909999999, 51.1212785], [57.82336780000001, 51.12260359999999], [57.82347399999999, 51.12497840000001], [57.82257680000001, 51.12743399999999], [57.8210248, 51.1302262], [57.8169049, 51.1327038], [57.814989, 51.13401820000001], [57.81411539999999, 51.134747100000006], [57.8131241, 51.13589379999999], [57.81289650000001, 51.1364717], [57.81254029999999, 51.1380735], [57.81223289999999, 51.138808], [57.811411699999994, 51.139166599999996], [57.809781, 51.1394364], [57.80805110000001, 51.1394575], [57.8067435, 51.139292000000005], [57.80532259999998, 51.13898], [57.8026849, 51.13831220000001], [57.79923729999999, 51.138718700000005], [57.79176369999999, 51.1380799], [57.7884638, 51.13833209999999], [57.7861284, 51.14225799999999], [57.79075770000001, 51.149529699999995], [57.7945219, 51.15827170000001], [57.7388307, 51.1631828], [57.7390751, 51.16637430000001], [57.725001199999994, 51.23633079999999], [57.7100221, 51.2377215], [57.711889599999985, 51.2581672], [57.79511999999998, 51.2530855], [57.87069429999999, 51.254496], [57.878080000000004, 51.26190940000001], [57.901132, 51.2779532], [57.9282522, 51.280456799999996], [57.9353853, 51.281271700000005], [57.950341599999994, 51.28146489999999], [57.94728649999999, 51.3327254], [57.970707999999995, 51.3391454], [57.9400407, 51.349117500000006], [57.94003260000001, 51.39550879999999], [57.94003229999999, 51.3970752], [57.94006799999998, 51.397991999999995], [57.940032099999996, 51.398227799999994], [58.0151984, 51.398863899999995], [58.0148894, 51.4046415], [58.012915299999996, 51.4237737], [58.01244319999999, 51.43835559999999], [58.011971199999984, 51.453093300000006], [58.03995200000001, 51.4587036], [58.056542999999984, 51.46447369999999], [58.07115999999999, 51.4711198], [58.08517, 51.475659399999984], [58.096460199999996, 51.477952], [58.0982683, 51.476619199999995], [58.10059189999999, 51.47602599999999], [58.10489019999999, 51.4753778], [58.1086455, 51.4739969], [58.1100029, 51.4712068], [58.1265174, 51.47106589999999], [58.12900589999999, 51.4675992], [58.1345711, 51.46788099999999], [58.134706800000004, 51.471263199999996], [58.139050399999995, 51.4718551], [58.144525099999996, 51.47577239999999], [58.144525099999996, 51.478421299999994], [58.147764300000006, 51.4806062], [58.15081180000001, 51.48057399999998], [58.15760089999999, 51.4803092], [58.171296999999996, 51.482783000000005], [58.1789435, 51.4847553], [58.18586599999998, 51.49275639999999], [58.19079769999999, 51.494080399999994], [58.1959783, 51.494559300000006], [58.1960688, 51.496080400000004], [58.1998694, 51.496066299999995], [58.205547700000004, 51.49784089999999], [58.2056382, 51.4983338], [58.20728959999998, 51.4991929], [58.2086795, 51.4979682], [58.2108499, 51.4959518], [58.21172440000001, 51.49534390000001], [58.21291790000001, 51.495064299999996], [58.21386549999998, 51.4957316], [58.2140862, 51.497051], [58.2155618, 51.5047482], [58.21664949999999, 51.504150800000005], [58.2171614, 51.504509199999994], [58.2183132, 51.5045889], [58.2187611, 51.5055448], [58.21965689999999, 51.5053456], [58.2204887, 51.50574389999999], [58.222408300000005, 51.505903199999985], [58.22278180000001, 51.5069699]]]]}}, {"type": "Feature", "properties": {"id": "city-53630000", "name": "Новоорский муниципальный район", "region": "Оренбургская область", "isCity": true, "sourceOktmo": "53-630-000-000", "sourceAgg": "Орск", "excelNames": ["Новоорский муниципальный район"], "oktmo": "53630000", "vgp": [{"year": 2019, "value": 15279092.24228836}, {"year": 2020, "value": 13799582.605552541}, {"year": 2021, "value": 16988256.55297217}, {"year": 2022, "value": 20663177.738813005}, {"year": 2023, "value": 20925552.24535439}, {"year": 2024, "value": 21280805.815539863}], "population": [{"year": 2019, "value": 26589.0}, {"year": 2020, "value": 26304.0}, {"year": 2021, "value": 25856.0}, {"year": 2022, "value": 25380.0}, {"year": 2023, "value": 23850.0}, {"year": 2024, "value": 23447.0}, {"year": 2025, "value": 23185.0}], "shipments": [{"year": 2019, "value": 10596851.8}, {"year": 2020, "value": 11034045.4}, {"year": 2021, "value": 12960744.4}, {"year": 2022, "value": 11044349.6}, {"year": 2023, "value": 19722784.0}, {"year": 2024, "value": 20156834.3}], "employees": [{"year": 2019, "value": 4456.0}, {"year": 2020, "value": 4044.0}, {"year": 2021, "value": 3968.0}, {"year": 2022, "value": 3614.0}, {"year": 2023, "value": 3450.0}, {"year": 2024, "value": 3293.0}], "investments": [{"year": 2019, "value": 401721.0}, {"year": 2020, "value": 1181562.0}, {"year": 2021, "value": 1474964.0}, {"year": 2022, "value": 948619.0}, {"year": 2023, "value": 3585365.0}, {"year": 2024, "value": 2751148.0}], "vgp2024": 21280805.815539863, "pop2024": 23447.0, "ship2024": 20156834.3, "emp2024": 3293.0, "inv2024": 2751148.0}, "geometry": {"type": "MultiPolygon", "coordinates": [[[[59.16919200000001, 51.783833800000004], [59.176302299999996, 51.78330689999999], [59.18974419999999, 51.7831494], [59.2011275, 51.7894208], [59.21085029999999, 51.7924595], [59.219899999999996, 51.7936711], [59.22685280000001, 51.7966861], [59.2345692, 51.80399689999999], [59.24475420000001, 51.8095842], [59.252543499999994, 51.8170763], [59.26621630000001, 51.8168435], [59.281559099999996, 51.8180627], [59.321951600000006, 51.81713020000001], [59.3259442, 51.8182581], [59.3643102, 51.77996480000001], [59.367499200000005, 51.7798081], [59.3729336, 51.7758524], [59.39101060000001, 51.78088739999999], [59.423257599999985, 51.74940129999999], [59.407617, 51.7295921], [59.39587089999998, 51.7165313], [59.3902496, 51.7016286], [59.384618599999996, 51.6995977], [59.372915, 51.7002639], [59.34804020000001, 51.68660479999999], [59.33832449999999, 51.6722105], [59.321221800000004, 51.6751243], [59.3056625, 51.6677078], [59.294806799999996, 51.671352999999996], [59.2921543, 51.659820100000005], [59.30056119999999, 51.652854399999995], [59.291135, 51.6472509], [59.2874397, 51.6449204], [59.28005360000001, 51.6379344], [59.276925399999996, 51.63316269999999], [59.2718621, 51.6302554], [59.272583199999985, 51.62610639999999], [59.239923399999995, 51.6065239], [59.2467715, 51.602319], [59.24640060000001, 51.578140600000005], [59.204359700000005, 51.55251019999999], [59.26860409999999, 51.51600119999999], [59.25337499999999, 51.501052400000006], [59.27389849999999, 51.488213300000005], [59.30486369999999, 51.471328699999994], [59.346992400000005, 51.43522099999999], [59.35609089999999, 51.4348048], [59.3805291, 51.44524], [59.397493700000005, 51.4420969], [59.41769420000001, 51.44184839999999], [59.469524500000006, 51.44333939999999], [59.4739247, 51.440624299999996], [59.46910119999999, 51.371161], [59.47671859999999, 51.36546920000001], [59.568720400000004, 51.3528719], [59.5969574, 51.34323789999999], [59.594959199999984, 51.3321255], [59.582139100000006, 51.3233978], [59.57892210000001, 51.31488670000001], [59.5493434, 51.300087100000006], [59.5499266, 51.285914], [59.5345511, 51.26800829999999], [59.495341799999984, 51.2726137], [59.487676599999986, 51.253419], [59.43697949999999, 51.2612585], [59.4357456, 51.25224759999999], [59.392097299999996, 51.256800199999994], [59.37925649999998, 51.25923540000001], [59.36824239999999, 51.259329099999995], [59.37363549999999, 51.237702399999996], [59.382250400000004, 51.2456801], [59.39605730000001, 51.2350998], [59.3885855, 51.22280889999999], [59.383013899999995, 51.22077709999999], [59.386710199999996, 51.212978], [59.3782997, 51.208858400000004], [59.37644749999998, 51.186154], [59.3508833, 51.1802343], [59.3046561, 51.18415809999998], [59.30104330000001, 51.1679681], [59.2798663, 51.170260999999996], [59.23463399999999, 51.1742309], [59.215171700000006, 51.1103831], [59.0965427, 51.1233345], [59.0791773, 51.12793539999999], [59.0766139, 51.1236452], [59.06282149999999, 51.1206781], [59.061113, 51.1248278], [59.05345710000001, 51.121807399999994], [59.043623100000005, 51.121489], [59.03895020000001, 51.1233745], [59.02556760000001, 51.1226998], [59.02121189999999, 51.125936800000005], [59.0275287, 51.1361261], [59.01491859999999, 51.141806], [59.00190150000001, 51.143690599999985], [58.9880841, 51.146934699999996], [59.016140499999985, 51.233939400000004], [58.916120500000005, 51.23102630000001], [58.89994799999999, 51.230846799999995], [58.8745516, 51.14693219999999], [58.8670279, 51.152348399999994], [58.86219379999999, 51.1550558], [58.85529590000001, 51.1564802], [58.8476835, 51.15808820000001], [58.842150100000005, 51.157813399999995], [58.83850790000001, 51.1622397], [58.8277785, 51.162055399999986], [58.82244479999999, 51.1616707], [58.803041900000004, 51.15895419999999], [58.79740609999999, 51.1546727], [58.7909241, 51.1541146], [58.7901778, 51.1595499], [58.79795300000001, 51.166863], [58.79582700000001, 51.1702543], [58.791111, 51.1730673], [58.7941267, 51.17623240000001], [58.794667099999984, 51.1771334], [58.78892080000001, 51.18039290000001], [58.78377340000001, 51.1831484], [58.7786464, 51.1849243], [58.78465370000001, 51.19571940000001], [58.81305609999999, 51.2525116], [58.785607600000006, 51.273651400000006], [58.7978784, 51.2802585], [58.7943303, 51.28272690000001], [58.7896422, 51.2868758], [58.783729999999984, 51.2868518], [58.784127899999994, 51.3103561], [58.779286400000004, 51.3108553], [58.777628899999996, 51.3135995], [58.781078300000004, 51.317939499999994], [58.781571099999994, 51.32001139999999], [58.7764193, 51.3190875], [58.7748284, 51.32078130000001], [58.7760183, 51.329792000000005], [58.77223850000001, 51.330448000000004], [58.77055859999999, 51.3321537], [58.7643988, 51.33280969999999], [58.75615109999999, 51.326806], [58.7484683, 51.340971], [58.749749099999995, 51.34634380000001], [58.7648595, 51.3474651], [58.766194099999986, 51.3541849], [58.76044, 51.35961340000001], [58.75831000000001, 51.3731754], [58.7813294, 51.3836115], [58.7783611, 51.3903965], [58.77418479999999, 51.3938298], [58.772135500000005, 51.3965568], [58.7646499, 51.3980178], [58.7615229, 51.40076080000001], [58.767089099999986, 51.405394900000005], [58.7704242, 51.40804049999999], [58.768425999999984, 51.41211460000001], [58.75229429999999, 51.41303099999999], [58.7513716, 51.41708870000001], [58.756809699999984, 51.418355299999995], [58.7632476, 51.4175846], [58.76647940000001, 51.41753589999999], [58.76763469999999, 51.4195405], [58.764636200000005, 51.425651499999994], [58.75722309999999, 51.4291329], [58.748602600000005, 51.42926179999999], [58.743240400000005, 51.430015699999984], [58.7423422, 51.4347469], [58.7445489, 51.436062099999994], [58.745652299999996, 51.436719599999996], [58.7425473, 51.44013579999999], [58.74164890000001, 51.44486699999999], [58.7450111, 51.4481869], [58.746114799999994, 51.44884449999999], [58.751504899999986, 51.448764100000005], [58.75905110000001, 51.44865099999999], [58.762363, 51.4506233], [58.76359679999999, 51.4546486], [58.7636747, 51.4566694], [58.76267429999999, 51.458706400000004], [58.7637526, 51.4586902], [58.7702742, 51.45993979999999], [58.7778745, 51.46117280000001], [58.7705089, 51.46600219999999], [58.76837810000001, 51.46670829999999], [58.7638618, 51.4741939], [58.75566920000001, 51.4739668], [58.75364750000001, 51.473910700000005], [58.75201940000001, 51.473479699999984], [58.749658700000005, 51.4735558], [58.74827479999999, 51.4740882], [58.74700690000001, 51.4748513], [58.746606099999994, 51.4759135], [58.7459548, 51.476927499999995], [58.7437162, 51.478118899999984], [58.738831999999995, 51.47903149999999], [58.7377331, 51.4806031], [58.737651599999985, 51.4820733], [58.7386285, 51.48275769999999], [58.741233400000006, 51.4829351], [58.7434313, 51.482732399999996], [58.7461176, 51.48311259999999], [58.74762359999999, 51.484532], [58.748315500000004, 51.48648359999999], [58.7481157, 51.488043699999984], [58.7475664, 51.48932899999999], [58.746857299999995, 51.4899365], [58.7454734, 51.490519400000004], [58.74376389999998, 51.4909756], [58.736852999999996, 51.4938138], [58.72753169999999, 51.497453], [58.70841569999999, 51.5080361], [58.6975961, 51.5075192], [58.69581239999999, 51.51765460000001], [58.6843584, 51.52927720000001], [58.68870319999999, 51.5298887], [58.69945270000001, 51.5283855], [58.7102268, 51.527554899999984], [58.714748900000004, 51.5328807], [58.7138966, 51.53895889999998], [58.705280299999984, 51.53975849999999], [58.715331400000004, 51.5483735], [58.72510589999999, 51.54957819999999], [58.74138929999999, 51.5513595], [58.743730500000005, 51.5560425], [58.76763330000001, 51.5590547], [58.772578199999984, 51.6027883], [58.79596490000001, 51.60147680000001], [58.798388200000005, 51.621176399999996], [58.783007499999975, 51.63325709999999], [58.7835327, 51.6424711], [58.78426350000001, 51.6535857], [58.78538660000001, 51.6721499], [58.77844360000001, 51.6731179], [58.7813206, 51.6794477], [58.7821688, 51.68221809999999], [58.78169840000001, 51.6838597], [58.77709350000001, 51.68514450000001], [58.786373000000005, 51.7034416], [58.7805298, 51.6992676], [58.768699799999986, 51.6937841], [58.7590816, 51.6923494], [58.75476100000001, 51.6948681], [58.74982329999999, 51.69336959999999], [58.74648009999999, 51.6997776], [58.752035, 51.70538779999999], [58.7500017, 51.7075957], [58.7391344, 51.7061879], [58.7216485, 51.7150432], [58.71818929999999, 51.7180753], [58.7141402, 51.7208941], [58.71275640000001, 51.7227], [58.7139522, 51.7245506], [58.7159909, 51.725355799999996], [58.716558799999994, 51.725873599999986], [58.718034599999996, 51.72639590000001], [58.7185561, 51.72829110000001], [58.7196116, 51.72869239999999], [58.72149289999999, 51.7282505], [58.722540899999984, 51.72848220000001], [58.7228733, 51.729157], [58.725206099999994, 51.728318599999994], [58.7268419, 51.72793479999999], [58.72841849999999, 51.7287047], [58.72874749999998, 51.728947399999996], [58.72893569999998, 51.7295954], [58.7293894, 51.73021000000001], [58.73115959999999, 51.730941], [58.7435939, 51.729477], [58.7591454, 51.7348093], [58.767012699999995, 51.7390323], [58.76756559999998, 51.7407392], [58.77047249999998, 51.74348340000001], [58.7702658, 51.7452532], [58.7723783, 51.74736719999999], [58.7792484, 51.77319969999999], [58.7876201, 51.7847893], [58.81078779999999, 51.7740659], [58.82267639999999, 51.7725343], [58.8311982, 51.76835799999999], [58.8372604, 51.77445079999998], [58.840052699999994, 51.7748417], [58.8424314, 51.776336500000006], [58.8461055, 51.77636329999999], [58.878187499999996, 51.76926309999999], [58.8940385, 51.7663391], [58.90717480000001, 51.7716795], [58.9179003, 51.7766485], [58.931677199999996, 51.78316410000001], [58.9410609, 51.7876306], [58.9466752, 51.7898649], [58.960899399999995, 51.7906638], [58.970694, 51.790642000000005], [58.972258700000005, 51.78779569999998], [58.991030200000004, 51.78442809999999], [58.9953803, 51.7779825], [59.02158149999999, 51.7699059], [59.02976480000001, 51.77371289999999], [59.03627639999999, 51.77600479999999], [59.073460100000005, 51.7679567], [59.1095709, 51.76955800000001], [59.1448183, 51.769208299999995], [59.15579859999998, 51.7706128], [59.15873519999999, 51.7752426], [59.16839230000001, 51.7773602], [59.16919200000001, 51.783833800000004]]]]}}]}