{"type": "FeatureCollection", "features": [{"type": "Feature", "properties": {"id": "city-80745000", "name": "ГО Стерлитамак", "region": "Республика Башкортостан", "isCity": true, "sourceOktmo": "80-745-000-000", "sourceAgg": "Стерлитамак", "excelNames": ["ГО Стерлитамак"], "oktmo": "80745000", "vgp": [{"year": 2019, "value": 146477346.33517805}, {"year": 2020, "value": 142199700.3498}, {"year": 2021, "value": 137301506.46687496}, {"year": 2022, "value": 187182388.75655955}, {"year": 2023, "value": 205696117.85550937}, {"year": 2024, "value": 236826032.67656562}], "population": [{"year": 2019, "value": 278127.0}, {"year": 2020, "value": 276394.0}, {"year": 2021, "value": 274134.0}, {"year": 2022, "value": 275022.0}, {"year": 2023, "value": 279174.0}, {"year": 2024, "value": 280497.0}, {"year": 2025, "value": 280487.0}], "shipments": [{"year": 2019, "value": 122598588.0}, {"year": 2020, "value": 120879781.6}, {"year": 2021, "value": 149747638.5}, {"year": 2022, "value": 144753065.0}, {"year": 2023, "value": 170447200.3}, {"year": 2024, "value": 186815055.0}], "employees": [{"year": 2019, "value": 53810.0}, {"year": 2020, "value": 53063.0}, {"year": 2021, "value": 52047.0}, {"year": 2022, "value": 50947.0}, {"year": 2023, "value": 50418.0}, {"year": 2024, "value": 49654.0}], "investments": [{"year": 2019, "value": 6038877.0}, {"year": 2020, "value": 8130273.0}, {"year": 2021, "value": 7640170.0}, {"year": 2022, "value": 11709125.0}, {"year": 2023, "value": 13923391.0}, {"year": 2024, "value": 16034185.0}], "vgp2024": 236826032.67656562, "pop2024": 280497.0, "ship2024": 186815055.0, "emp2024": 49654.0, "inv2024": 16034185.0}, "geometry": {"type": "MultiPolygon", "coordinates": [[[[56.0236019, 53.6019541], [56.0208037, 53.59723660000001], [56.0166545, 53.596596999999996], [56.014516199999996, 53.594958399999996], [56.0123884, 53.5945918], [56.01032550000001, 53.59467059999999], [56.008343399999994, 53.595368199999996], [56.004003399999995, 53.5952756], [55.99954449999999, 53.59615999999999], [55.9972194, 53.5959971], [55.9943881, 53.5967507], [55.9961868, 53.5985363], [55.996888899999995, 53.601118299999996], [55.996358199999996, 53.602073499999996], [55.995570099999995, 53.60243030000001], [55.99326899999999, 53.60287379999999], [55.9916974, 53.60274429999998], [55.98857410000001, 53.601042], [55.9841016, 53.5995711], [55.9836011, 53.597920699999996], [55.98349429999999, 53.597568700000004], [55.9822851, 53.5955583], [55.9802639, 53.5944544], [55.978631899999996, 53.5945274], [55.9771604, 53.59444079999999], [55.9756633, 53.5940106], [55.9739173, 53.59392400000001], [55.97269039999999, 53.59367700000001], [55.97217129999999, 53.59302780000001], [55.9726003, 53.59247529999999], [55.9724759, 53.59195840000001], [55.971802399999994, 53.59142880000001], [55.97054539999999, 53.59103410000001], [55.96906969999999, 53.590283], [55.96693340000001, 53.5901531], [55.965384699999994, 53.5899341], [55.962570799999995, 53.5891583], [55.96021129999999, 53.58933909999998], [55.9591689, 53.58895460000001], [55.958864299999995, 53.58848349999999], [55.95915599999999, 53.5875031], [55.959863799999994, 53.5866985], [55.960189899999996, 53.58617129999999], [55.95873559999999, 53.5855474], [55.957929099999994, 53.585909], [55.95698099999999, 53.58600839999999], [55.9554281, 53.585201099999985], [55.9552651, 53.58523929999999], [55.95510639999999, 53.5853946], [55.95482319999999, 53.5861841], [55.95443279999999, 53.58632159999999], [55.9540146, 53.58727739999999], [55.94677879999999, 53.5887645], [55.94601769999999, 53.58899079999999], [55.9455081, 53.58870989999999], [55.944390899999995, 53.58856629999999], [55.943458899999996, 53.5885486], [55.94257439999999, 53.588258499999995], [55.9421621, 53.5876118], [55.94299639999999, 53.5869165], [55.943591, 53.5866572], [55.944161199999996, 53.58678689999999], [55.94467089999999, 53.5865204], [55.945047, 53.586081], [55.94493779999999, 53.58564880000001], [55.944625099999996, 53.5852089], [55.94461019999999, 53.5851879], [55.9439792, 53.5850942], [55.943433199999994, 53.5852887], [55.943245999999995, 53.585746900000004], [55.941899, 53.5860831], [55.93916589999999, 53.586032100000004], [55.9378065, 53.5860067], [55.934794999999994, 53.5848556], [55.934872199999994, 53.583460099999996], [55.93402629999999, 53.581752599999994], [55.9333315, 53.5811431], [55.93274579999999, 53.5809032], [55.9324436, 53.58059260000001], [55.9319875, 53.5805393], [55.931588, 53.5805905], [55.93116229999999, 53.5806927], [55.9305389, 53.5805787], [55.929857999999996, 53.5803187], [55.929424299999994, 53.5797494], [55.9305569, 53.57845749999999], [55.930875099999994, 53.5772194], [55.9299482, 53.57691609999999], [55.9288198, 53.5768408], [55.927958399999994, 53.5769443], [55.92571619999999, 53.5767653], [55.92320819999999, 53.57865429999999], [55.92220210000001, 53.5782615], [55.9216001, 53.5782816], [55.921072599999995, 53.57859880000001], [55.92022719999999, 53.5769765], [55.91843479999999, 53.577109], [55.91850449999999, 53.577391600000006], [55.9187189, 53.5782615], [55.9135584, 53.5787153], [55.91427279999999, 53.5815902], [55.91648699999999, 53.590499099999995], [55.90694789999999, 53.60091109999999], [55.909505, 53.60195199999999], [55.91020979999999, 53.602566899999985], [55.9128031, 53.604829], [55.9125572, 53.6058706], [55.91283529999999, 53.6064996], [55.9120229, 53.6069902], [55.91019, 53.6074718], [55.90869529999999, 53.60719089999999], [55.90833009999999, 53.60683770000001], [55.9080054, 53.6063482], [55.9082151, 53.6057342], [55.9082827, 53.6052767], [55.90749139999999, 53.60495160000001], [55.90688269999999, 53.60465469999999], [55.905902, 53.6047229], [55.9047996, 53.60430549999999], [55.90454929999999, 53.60397640000001], [55.903967599999994, 53.603242], [55.90307489999999, 53.60329420000001], [55.90263519999999, 53.6041169], [55.9020942, 53.6043737], [55.9014111, 53.6041891], [55.9008903, 53.6037316], [55.89979459999999, 53.6037758], [55.8982525, 53.6039804], [55.89787379999999, 53.6037758], [55.89754239999999, 53.6038079], [55.8972921, 53.604145], [55.8967443, 53.6040727], [55.8964061, 53.6045824], [55.8965414, 53.6051483], [55.89623029999999, 53.60603509999999], [55.8959732, 53.606560800000004], [55.893950999999994, 53.6076002], [55.8928079, 53.607523900000004], [55.8919046, 53.60798], [55.891416899999996, 53.6082262], [55.891514599999994, 53.60855639999999], [55.891194199999994, 53.6087925], [55.8909096, 53.6094197], [55.89072749999999, 53.60999739999999], [55.890569, 53.6103025], [55.88978829999999, 53.61054029999999], [55.8872161, 53.61191509999999], [55.887083399999995, 53.612710699999994], [55.8869386, 53.61357869999999], [55.8859914, 53.6146625], [55.8827429, 53.61561520000001], [55.883439599999996, 53.6237689], [55.88406559999999, 53.632343], [55.883649999999996, 53.63323040000001], [55.8826531, 53.6353588], [55.8924596, 53.6388736], [55.89582059999999, 53.63205140000001], [55.90349749999999, 53.6319406], [55.898300899999995, 53.641539699999996], [55.8897802, 53.644476700000006], [55.8869493, 53.6454456], [55.89182129999999, 53.650141299999994], [55.8964745, 53.648625900000006], [55.899005499999994, 53.6591719], [55.899747, 53.660823300000004], [55.908107199999996, 53.659868800000005], [55.9154704, 53.6598537], [55.915403399999995, 53.663021500000006], [55.9154143, 53.665972499999995], [55.9181157, 53.6659596], [55.9179824, 53.675226300000006], [55.91934739999999, 53.675200700000005], [55.9196951, 53.6805471], [55.921518899999995, 53.6901227], [55.9323202, 53.689338600000006], [55.93897799999999, 53.68958550000001], [55.93802929999999, 53.6948507], [55.9377784, 53.6965332], [55.9450025, 53.696812900000005], [55.946611499999996, 53.6972196], [55.9461964, 53.70487000000001], [55.9522588, 53.704786], [55.9508654, 53.71491699999999], [55.959647499999996, 53.71531800000001], [55.9625493, 53.71501539999999], [55.98148909999999, 53.72528779999999], [55.99714749999999, 53.734420799999995], [56.0018924, 53.72982059999999], [55.9856678, 53.7217136], [56.01070789999999, 53.7212817], [56.01144839999999, 53.709831699999995], [56.0082087, 53.7053406], [56.0158315, 53.70418999999998], [56.0145944, 53.69925740000001], [56.0167118, 53.69744839999999], [56.0338278, 53.696545400000005], [56.0301158, 53.693530499999994], [56.02996129999999, 53.6893401], [56.05068909999999, 53.6899267], [56.0502319, 53.6836087], [56.0525942, 53.6803139], [56.05986829999999, 53.677364299999994], [56.062932, 53.67774750000001], [56.064991899999995, 53.67786190000001], [56.066107699999996, 53.6775823], [56.0673952, 53.676908700000006], [56.0683393, 53.6758156], [56.0687899, 53.6742521], [56.0689401, 53.6725234], [56.0686397, 53.6712904], [56.0687041, 53.6696251], [56.0689616, 53.6684301], [56.069809199999995, 53.667177900000006], [56.07043149999999, 53.666396], [56.0720622, 53.6655824], [56.0737789, 53.66492759999999], [56.07577439999999, 53.664508000000005], [56.0767682, 53.66456869999999], [56.0767306, 53.66416499999999], [56.0759783, 53.65767369999998], [56.0759997, 53.655499299999995], [56.0741329, 53.65500329999999], [56.0722017, 53.6542403], [56.07097859999999, 53.653439099999986], [56.0703349, 53.6525107], [56.070528, 53.6521801], [56.0699916, 53.651251699999996], [56.0698414, 53.65038690000001], [56.070806999999995, 53.64973820000001], [56.07172959999999, 53.6490514], [56.0724377, 53.6484536], [56.07314579999999, 53.6477668], [56.0741329, 53.647410699999995], [56.0747766, 53.6471817], [56.07522719999999, 53.646914599999995], [56.0763645, 53.6456045], [56.076943899999996, 53.645095799999986], [56.0779094, 53.644739599999994], [56.0779738, 53.6441672], [56.07829569999999, 53.6436584], [56.078402999999994, 53.642895200000005], [56.0762357, 53.642551700000006], [56.075420400000006, 53.6425008], [56.07202999999999, 53.643416699999996], [56.0694766, 53.64397640000001], [56.0669875, 53.644230799999995], [56.0658663, 53.644408899999995], [56.064273099999994, 53.644676000000004], [56.059091099999996, 53.651824], [56.0588872, 53.6526125], [56.05975629999999, 53.653477300000006], [56.0615158, 53.6548126], [56.0617518, 53.6566437], [56.0612154, 53.659568400000005], [56.0608506, 53.659949899999994], [56.05887649999999, 53.66076360000001], [56.0576319, 53.6614121], [56.0566449, 53.662454700000005], [56.0550999, 53.6630904], [56.0539557, 53.6629695], [56.055119999999995, 53.66216049999999], [56.05542179999999, 53.6610561], [56.05499270000001, 53.65996260000001], [56.05359789999999, 53.658958], [56.0519671, 53.658601999999995], [56.04941159999999, 53.65842179999999], [56.0455955, 53.6590367], [56.0400732, 53.6601689], [56.0261089, 53.65737229999999], [56.0192926, 53.6575518], [56.013536699999996, 53.6591675], [56.00725059999999, 53.661232], [55.9944446, 53.660933099999994], [55.993070599999996, 53.659678], [55.99278499999999, 53.65678880000001], [55.9955115, 53.653602], [55.9945281, 53.6470416], [55.99392099999999, 53.6444442], [55.9952085, 53.6423341], [56.00187329999999, 53.6402687], [56.00608879999999, 53.636997699999995], [56.006796099999995, 53.634386299999996], [56.0102745, 53.632329399999996], [56.0141425, 53.6325451], [56.018048099999994, 53.63138380000001], [56.021186, 53.6281439], [56.02283179999999, 53.6234641], [56.027017699999995, 53.6224395], [56.0298957, 53.62302340000001], [56.0365604, 53.62630240000001], [56.0397413, 53.625448999999996], [56.04200769999999, 53.62172830000001], [56.0376969, 53.62006629999999], [56.035379899999995, 53.617765], [56.03473319999999, 53.6088144], [56.0328473, 53.6074077], [56.021181899999995, 53.6072942], [56.01945489999999, 53.605438], [56.0196971, 53.60388150000001], [56.02213859999999, 53.602677], [56.0236019, 53.6019541]]], [[[55.9351153, 53.5799897], [55.9353495, 53.5801864], [55.936263499999995, 53.57971439999999], [55.93758299999999, 53.579688700000005], [55.93758559999999, 53.5778601], [55.935490099999996, 53.5778647], [55.935589500000006, 53.57974910000001], [55.9351153, 53.5799897]]]]}}, {"type": "Feature", "properties": {"id": "mo-80739000", "name": "ГО Салават", "region": "Республика Башкортостан", "isCity": false, "sourceOktmo": "80-739-000-000", "sourceAgg": "Стерлитамак", "excelNames": ["ГО Салават"], "oktmo": "80739000", "vgp": [{"year": 2019, "value": 123170613.80391902}, {"year": 2020, "value": 117650485.96894395}, {"year": 2021, "value": 112718528.41092135}, {"year": 2022, "value": 154321036.86273324}, {"year": 2023, "value": 155310526.25276306}, {"year": 2024, "value": 165786116.8066691}], "population": [{"year": 2019, "value": 151571.0}, {"year": 2020, "value": 150500.0}, {"year": 2021, "value": 148947.0}, {"year": 2022, "value": 147739.0}, {"year": 2023, "value": 147296.0}, {"year": 2024, "value": 146633.0}, {"year": 2025, "value": 144970.0}], "shipments": [{"year": 2019, "value": 282374885.2}, {"year": 2020, "value": 227142831.8}, {"year": 2021, "value": 356141569.5}, {"year": 2022, "value": 334723020.7}, {"year": 2023, "value": 334402225.7}, {"year": 2024, "value": 380537049.8}], "employees": [{"year": 2019, "value": 38091.0}, {"year": 2020, "value": 37682.0}, {"year": 2021, "value": 36385.0}, {"year": 2022, "value": 34737.0}, {"year": 2023, "value": 32996.0}, {"year": 2024, "value": 30845.0}], "investments": [{"year": 2019, "value": 28501856.0}, {"year": 2020, "value": 19770905.0}, {"year": 2021, "value": 18681709.0}, {"year": 2022, "value": 20210837.0}, {"year": 2023, "value": 18837463.0}, {"year": 2024, "value": 23891667.0}], "vgp2024": 165786116.8066691, "pop2024": 146633.0, "ship2024": 380537049.8, "emp2024": 30845.0, "inv2024": 23891667.0}, "geometry": {"type": "MultiPolygon", "coordinates": [[[[55.99003629999999, 53.3216126], [55.982819799999994, 53.31914259999999], [55.978342999999995, 53.31426659999999], [55.954357599999994, 53.3275997], [55.951442199999995, 53.3299909], [55.9506515, 53.336147199999985], [55.934609699999996, 53.3338819], [55.9196065, 53.3339434], [55.9180985, 53.333540899999996], [55.89875419999999, 53.333573799999996], [55.8987448, 53.3317678], [55.89540660000001, 53.3317445], [55.895621899999995, 53.33051179999999], [55.893483999999994, 53.32997100000001], [55.8956512, 53.32628029999999], [55.885703400000004, 53.3243502], [55.87795289999999, 53.32180479999999], [55.86842969999999, 53.3208407], [55.865957699999996, 53.322665799999996], [55.8615804, 53.3189283], [55.8582501, 53.311324], [55.856061499999996, 53.31436480000001], [55.8540101, 53.3162569], [55.85631889999999, 53.317928499999994], [55.8530574, 53.327418099999996], [55.852653999999994, 53.33720789999999], [55.8472295, 53.3457145], [55.844989299999995, 53.349751999999995], [55.8330074, 53.353046299999995], [55.82422689999999, 53.35554119999998], [55.8274369, 53.367409], [55.8392142, 53.3695037], [55.8492809, 53.3792479], [55.8561229, 53.3777479], [55.8598994, 53.38276530000001], [55.8471639, 53.393388699999996], [55.8508534, 53.39440819999999], [55.84913989999999, 53.40208259999999], [55.8437427, 53.4002055], [55.84273069999999, 53.4012782], [55.84228099999999, 53.41207], [55.855281299999994, 53.41146030000001], [55.8557961, 53.414242099999996], [55.855998799999995, 53.414817799999994], [55.865218999999996, 53.4201788], [55.8649267, 53.420490599999994], [55.854649499999994, 53.4258742], [55.867467899999994, 53.435521], [55.8615363, 53.43824010000001], [55.86791759999999, 53.442152], [55.87423919999999, 53.4438087], [55.8838133, 53.44272790000001], [55.88788079999999, 53.44082699999999], [55.8921985, 53.44369689999999], [55.8965838, 53.4414412], [55.89445380000001, 53.43900409999999], [55.89692749999999, 53.43726259999999], [55.9009491, 53.440105299999985], [55.9084111, 53.445433599999994], [55.906836899999995, 53.44697380000001], [55.90796129999999, 53.4488823], [55.91209349999999, 53.44909989999999], [55.9151294, 53.4511423], [55.91684419999999, 53.4482462], [55.91274, 53.4451992], [55.91327619999999, 53.44108760000001], [55.919387300000004, 53.4418392], [55.918081, 53.41714890000001], [55.9278634, 53.4151385], [55.9288754, 53.42033200000001], [55.935284599999996, 53.421471100000005], [55.94941879999999, 53.421430300000004], [55.957357, 53.4265103], [55.9684871, 53.415994799999986], [55.972602699999996, 53.41671859999999], [55.97584499999999, 53.4168772], [55.9761429, 53.42268659999999], [55.9778021, 53.4221163], [55.9792709, 53.4211001], [55.9795284, 53.42081969999999], [55.979949, 53.42076539999999], [55.9804409, 53.42070269999999], [55.98102829999999, 53.42052079999999], [55.9812649, 53.42027589999999], [55.9813636, 53.419993299999994], [55.9814886, 53.4197299], [55.9817568, 53.419488799999996], [55.9825953, 53.4193482], [55.9833398, 53.41941920000001], [55.98373519999999, 53.41948500000001], [55.983996399999995, 53.4194422], [55.98466379999999, 53.41912570000001], [55.9848263, 53.4189793], [55.9849556, 53.41883409999999], [55.984937900000006, 53.4186791], [55.9847448, 53.418569100000006], [55.9843661, 53.4185074], [55.983879, 53.41837279999999], [55.9835871, 53.41812689999999], [55.9835313, 53.41780239999999], [55.9837271, 53.417452399999995], [55.98438589999999, 53.41699259999999], [55.98478229999999, 53.416838799999994], [55.98758839999999, 53.4171786], [55.991497499999994, 53.41386219999999], [55.988053799999996, 53.4087545], [55.984128399999996, 53.403512500000005], [55.98455979999999, 53.403070699999994], [55.985537199999996, 53.4027183], [55.98643309999999, 53.402691999999995], [55.9871423, 53.40270159999998], [55.989052, 53.4023198], [55.990021899999995, 53.402402899999984], [55.994591299999996, 53.4008665], [55.994130999999996, 53.4000355], [55.9936364, 53.399333199999994], [55.99207429999999, 53.398278899999994], [55.99079119999999, 53.397941800000005], [55.9861518, 53.394991499999996], [55.9892526, 53.3941008], [55.98812449999999, 53.3894619], [55.99392079999999, 53.38408020000001], [55.99167409999999, 53.38334939999999], [55.989479, 53.38326239999999], [55.984762399999994, 53.380202399999995], [55.982639199999994, 53.3778539], [55.98811729999999, 53.37572519999999], [55.9900342, 53.37133260000001], [55.9900128, 53.369956299999984], [55.9899535, 53.36817620000001], [55.98947209999999, 53.365090200000004], [55.9995748, 53.34894799999999], [55.99582339999999, 53.34833089999999], [55.99152959999999, 53.347425099999995], [55.9846659, 53.34645739999999], [55.9834164, 53.3453182], [55.981875, 53.3451538], [55.9740702, 53.3436691], [55.9715789, 53.3424311], [55.9809712, 53.33380499999999], [55.9918116, 53.328992], [55.993747899999995, 53.3240035], [55.991762800000004, 53.32242240000001], [55.99003629999999, 53.3216126]]]]}}, {"type": "Feature", "properties": {"id": "mo-80631000", "name": "Ишимбайский муниципальный район", "region": "Республика Башкортостан", "isCity": false, "sourceOktmo": "80-631-000-000", "sourceAgg": "Стерлитамак", "excelNames": ["Ишимбайский муниципальный район"], "oktmo": "80631000", "vgp": [{"year": 2019, "value": 35489908.27615348}, {"year": 2020, "value": 34017283.90652665}, {"year": 2021, "value": 33378182.527607985}, {"year": 2022, "value": 44826283.32750208}, {"year": 2023, "value": 50111023.82490649}, {"year": 2024, "value": 58409366.65832555}], "population": [{"year": 2019, "value": 86245.0}, {"year": 2020, "value": 85939.0}, {"year": 2021, "value": 85165.0}, {"year": 2022, "value": 83888.0}, {"year": 2023, "value": 83847.0}, {"year": 2024, "value": 82948.0}, {"year": 2025, "value": 81884.0}], "shipments": [{"year": 2019, "value": 18462286.2}, {"year": 2020, "value": 19732223.0}, {"year": 2021, "value": 20830584.2}, {"year": 2022, "value": 22353457.0}, {"year": 2023, "value": 27483076.2}, {"year": 2024, "value": 28372395.8}], "employees": [{"year": 2019, "value": 13831.0}, {"year": 2020, "value": 13535.0}, {"year": 2021, "value": 13736.0}, {"year": 2022, "value": 13141.0}, {"year": 2023, "value": 12850.0}, {"year": 2024, "value": 12838.0}], "investments": [{"year": 2019, "value": 1297993.0}, {"year": 2020, "value": 1803124.0}, {"year": 2021, "value": 1458276.0}, {"year": 2022, "value": 1851397.0}, {"year": 2023, "value": 3381827.0}, {"year": 2024, "value": 2762037.0}], "vgp2024": 58409366.65832555, "pop2024": 82948.0, "ship2024": 28372395.8, "emp2024": 12838.0, "inv2024": 2762037.0}, "geometry": {"type": "MultiPolygon", "coordinates": [[[[56.0798841, 53.66513649999999], [56.081940700000004, 53.667547400000004], [56.082108399999996, 53.669409800000004], [56.081371299999994, 53.673155999999985], [56.08351679999999, 53.67756440000001], [56.0854534, 53.68116070000001], [56.08486039999999, 53.6822508], [56.07602909999999, 53.6833418], [56.070490199999995, 53.6842033], [56.0682069, 53.6849814], [56.0667543, 53.686721199999994], [56.06781209999999, 53.68939149999999], [56.0686725, 53.689989000000004], [56.070490199999995, 53.6927694], [56.073974099999994, 53.6949219], [56.0757385, 53.6997185], [56.07503249999999, 53.70753469999999], [56.07223210000001, 53.7111517], [56.065039199999994, 53.7130816], [56.0631619, 53.715113800000005], [56.06374, 53.7171362], [56.064867, 53.71850539999999], [56.068443099999996, 53.7191603], [56.07139209999999, 53.7188482], [56.07465890000001, 53.718780200000005], [56.0789756, 53.7172997], [56.0791533, 53.717238800000004], [56.0794202, 53.71708770000001], [56.0810461, 53.7175781], [56.08244049999999, 53.7169234], [56.0838951, 53.7172475], [56.08839259999999, 53.7152973], [56.0945469, 53.71474630000001], [56.09503039999999, 53.7144595], [56.09631509999999, 53.7125023], [56.1011309, 53.713368], [56.10316459999999, 53.7137404], [56.106477, 53.7148132], [56.11152539999999, 53.7154023], [56.116120599999995, 53.7177215], [56.12154339999999, 53.71817829999999], [56.12297459999999, 53.71639040000001], [56.1277451, 53.716155199999996], [56.12670959999999, 53.709611499999994], [56.124338599999994, 53.6874775], [56.145014499999995, 53.68716349999999], [56.159025699999994, 53.68339589999999], [56.1592529, 53.68626650000001], [56.1575035, 53.69016469999999], [56.15647800000001, 53.69657440000001], [56.16493309999999, 53.7016925], [56.16390990000001, 53.696360799999994], [56.16184, 53.69090210000001], [56.1612946, 53.68613320000001], [56.165913999999994, 53.6857155], [56.1842715, 53.68456470000001], [56.1876292, 53.684380799999985], [56.1811753, 53.665034000000006], [56.178153099999996, 53.6567223], [56.22528719999999, 53.6504565], [56.2284036, 53.64994839999999], [56.2397753, 53.6578095], [56.243648400000005, 53.65857660000001], [56.2484114, 53.6594115], [56.254659399999994, 53.66012199999999], [56.26559110000001, 53.662554799999995], [56.26430979999999, 53.6662648], [56.2752728, 53.6760256], [56.2805356, 53.683705200000006], [56.281795100000004, 53.68710659999999], [56.3065864, 53.6945961], [56.320730499999996, 53.6978705], [56.342742099999995, 53.7029685], [56.3421921, 53.7052417], [56.34064800000001, 53.7109493], [56.3404169, 53.71442189999999], [56.3402695, 53.7166371], [56.3402867, 53.71962430000001], [56.3416173, 53.7203151], [56.34230029999999, 53.7218575], [56.343775799999996, 53.7230377], [56.344434899999996, 53.725761299999995], [56.3450235, 53.7268157], [56.34743769999999, 53.73417989999999], [56.375955499999996, 53.733242999999995], [56.37558949999999, 53.73268130000001], [56.3723646, 53.7322506], [56.371929699999995, 53.7308997], [56.3751918, 53.729420099999984], [56.375952999999996, 53.727297199999995], [56.378019, 53.72658949999999], [56.379374799999994, 53.72668720000001], [56.3808462, 53.7271685], [56.381129099999995, 53.7292716], [56.3825861, 53.7292915], [56.3833967, 53.728010600000005], [56.3867181, 53.7271685], [56.3887842, 53.726460900000006], [56.3914238, 53.7271003], [56.3910677, 53.728308], [56.39095819999999, 53.7294446], [56.3931567, 53.729850199999994], [56.39518259999999, 53.730435400000005], [56.3967221, 53.7299991], [56.39867939999999, 53.7292915], [56.4016154, 53.729613099999995], [56.40400759999999, 53.728648199999995], [56.40359479999999, 53.72769839999999], [56.40077279999999, 53.72719049999999], [56.400131, 53.7260262], [56.40328439999999, 53.724633299999994], [56.4035441, 53.72375410000001], [56.40265409999999, 53.72312469999999], [56.3998755, 53.7225363], [56.399658099999996, 53.721313800000004], [56.39813569999999, 53.7195765], [56.39585219999999, 53.71854700000001], [56.3966134, 53.71713140000001], [56.3946561, 53.715072099999986], [56.3967221, 53.7135277], [56.400093, 53.7123693], [56.400419199999995, 53.7105029], [56.3967221, 53.7096662], [56.392263799999995, 53.70979499999999], [56.389327900000005, 53.7125624], [56.3871531, 53.712819800000005], [56.3847608, 53.7119188], [56.3847608, 53.7106316], [56.3871531, 53.70973060000001], [56.387888999999994, 53.7075186], [56.3917306, 53.7061345], [56.392343, 53.7048822], [56.391452199999996, 53.70356399999999], [56.3925756, 53.702642600000004], [56.3940075, 53.70201680000001], [56.395009099999996, 53.70194320000001], [56.3958993, 53.70108650000001], [56.3954929, 53.700171499999996], [56.3941517, 53.6997473], [56.39299, 53.70001169999999], [56.3917702, 53.700816700000004], [56.38727909999999, 53.699784699999995], [56.38736329999999, 53.6987695], [56.39008929999999, 53.69818149999999], [56.3923987, 53.697268699999995], [56.3916749, 53.6942361], [56.394011299999995, 53.6931642], [56.3962402, 53.6921263], [56.398133099999995, 53.6885988], [56.400972499999995, 53.68760969999999], [56.40152919999999, 53.68665360000001], [56.4039789, 53.6859612], [56.4069164, 53.68645119999999], [56.4082809, 53.6859897], [56.4103772, 53.684399400000004], [56.41171919999999, 53.6840648], [56.41237350000001, 53.6835413], [56.41983979999999, 53.6835307], [56.4300842, 53.69376069999999], [56.44763639999999, 53.6909236], [56.4491599, 53.69267080000001], [56.4579349, 53.6916808], [56.46700049999999, 53.69265910000001], [56.4744408, 53.7017153], [56.47149129999999, 53.7054727], [56.48014379999999, 53.71339249999998], [56.480627, 53.714891599999994], [56.48929549999999, 53.716339100000006], [56.48879469999999, 53.7172686], [56.49037529999999, 53.7173444], [56.491020899999995, 53.71792889999999], [56.4916929, 53.71881959999999], [56.4907252, 53.7198376], [56.4911284, 53.7204261], [56.4908596, 53.7209351], [56.4917198, 53.7209828], [56.4919886, 53.7213328], [56.4917467, 53.7216509], [56.49067139999999, 53.722080299999995], [56.4894081, 53.72246199999999], [56.4889242, 53.7228279], [56.48905859999999, 53.723336800000006], [56.489219899999995, 53.7247841], [56.4883328, 53.7252294], [56.4884941, 53.7255157], [56.4893005, 53.725801999999995], [56.48970369999999, 53.7258974], [56.49018759999999, 53.72697879999999], [56.4903757, 53.7271697], [56.4903757, 53.7275355], [56.49099399999999, 53.728092100000005], [56.49099399999999, 53.7283783], [56.49118219999999, 53.728585], [56.4908058, 53.729571], [56.490536999999996, 53.7303661], [56.48994569999999, 53.7315747], [56.4898381, 53.7338485], [56.48994569999999, 53.7342779], [56.49002629999999, 53.734739], [56.4900532, 53.7355499], [56.4901607, 53.7361223], [56.489461799999994, 53.7368537], [56.48932739999999, 53.7387775], [56.48959620000001, 53.739127299999986], [56.490402599999996, 53.7393816], [56.4911553, 53.73955649999999], [56.4918542, 53.739636000000004], [56.4918542, 53.7406694], [56.49233799999999, 53.74179819999999], [56.493332599999995, 53.743992], [56.493924, 53.7445325], [56.493708899999994, 53.744929899999995], [56.4930907, 53.745216000000006], [56.493440099999994, 53.74623340000001], [56.49376269999999, 53.7467898], [56.4943272, 53.747361999999995], [56.494461599999994, 53.7485224], [56.49494539999999, 53.7493966], [56.49507979999999, 53.7501913], [56.49623569999999, 53.7508589], [56.4956443, 53.751335700000006], [56.4963432, 53.751844299999995], [56.49709589999999, 53.7522894], [56.4972303, 53.752527799999996], [56.4972339, 53.7527706], [56.49604829999999, 53.753448], [56.49555109999999, 53.7542289], [56.49372389999999, 53.75441969999999], [56.495094699999996, 53.75798090000001], [56.4954291, 53.7603802], [56.49751719999999, 53.7629906], [56.5026211, 53.7641326], [56.5032559, 53.7664079], [56.512749899999996, 53.765397300000004], [56.5114074, 53.756936599999996], [56.5019501, 53.75380280000001], [56.50202, 53.75350250000001], [56.5031144, 53.7488011], [56.513060900000006, 53.7424495], [56.5246764, 53.7450361], [56.530294999999995, 53.746287200000005], [56.5336394, 53.7468727], [56.5390351, 53.71919189999999], [56.54055189999999, 53.718780200000005], [56.5414642, 53.7185454], [56.5421782, 53.717676899999994], [56.5439632, 53.717348300000005], [56.5461845, 53.716644099999996], [56.547374500000004, 53.716949299999996], [56.548842199999996, 53.716245099999995], [56.54872319999999, 53.7155174], [56.54856449999999, 53.7147427], [56.5494768, 53.714155799999986], [56.5486042, 53.71389760000001], [56.5490801, 53.71345159999999], [56.5482868, 53.7128882], [56.5476918, 53.7120665], [56.5467795, 53.7118787], [56.54673979999999, 53.71063439999999], [56.5472952, 53.7100006], [56.5467795, 53.7093901], [56.546819199999995, 53.7088971], [56.545827499999994, 53.70880319999999], [56.54562919999999, 53.7081458], [56.5446709, 53.7077954], [56.54453389999999, 53.7065424], [56.5438145, 53.7056723], [56.544421699999994, 53.70450029999999], [56.5442961, 53.7038005], [56.544194399999995, 53.70346169999999], [56.543840800000005, 53.703017], [56.56376749999999, 53.69931549999998], [56.6096396, 53.72795], [56.6247497, 53.725854099999985], [56.6399639, 53.7515647], [56.6476395, 53.7629936], [56.6151992, 53.769569799999985], [56.6174991, 53.77548639999999], [56.61327909999999, 53.7760593], [56.607923, 53.7732377], [56.599713599999994, 53.7742362], [56.5992506, 53.7717634], [56.55456759999999, 53.77957200000001], [56.5708216, 53.80448239999999], [56.578268699999995, 53.8010973], [56.5989775, 53.80230009999999], [56.610872699999994, 53.8058261], [56.6455302, 53.79668269999999], [56.657337899999995, 53.797995699999994], [56.6611457, 53.8039515], [56.6916506, 53.8113748], [56.7061163, 53.8152317], [56.71901969999999, 53.8186718], [56.742751299999995, 53.82456419999999], [56.7802397, 53.82917419999999], [56.863754799999995, 53.8170915], [56.901824299999994, 53.83691939999999], [56.9206122, 53.8467013], [56.928373199999996, 53.85102140000001], [56.9450567, 53.860829], [56.95484139999999, 53.85870289999999], [56.9829162, 53.838449499999996], [56.98263969999999, 53.8383407], [56.982349799999994, 53.8382039], [56.9819783, 53.838111], [56.9805376, 53.83781569999999], [56.980160299999994, 53.83780780000001], [56.9846642, 53.8204748], [56.97251279999999, 53.8177994], [56.9454015, 53.8013411], [56.947307099999996, 53.7989222], [56.94716999999999, 53.798746], [56.9467825, 53.7987395], [56.9461729, 53.79905490000001], [56.9460021, 53.7990831], [56.94579769999999, 53.7988444], [56.94584309999999, 53.7984233], [56.9460168, 53.7979875], [56.946258, 53.7976143], [56.946657699999996, 53.79741679999999], [56.94733339999999, 53.79713859999999], [56.9474532, 53.79693279999999], [56.94766059999999, 53.79676400000001], [56.94797669999999, 53.7966188], [56.9486745, 53.7958816], [56.9487169, 53.79539689999999], [56.9486536, 53.79495219999999], [56.9488524, 53.79459229999999], [56.9486753, 53.794009200000005], [56.948366199999995, 53.7933646], [56.9475599, 53.793135500000005], [56.9472225, 53.79280969999999], [56.947029699999995, 53.791883], [56.947035, 53.7915262], [56.94728009999999, 53.7912421], [56.9471193, 53.791015400000006], [56.94678239999999, 53.79070240000001], [56.94654549999999, 53.78975079999999], [56.946280699999996, 53.788659700000004], [56.946419, 53.78838999999999], [56.94637209999999, 53.787830299999996], [56.946431399999994, 53.7872434], [56.9463565, 53.787015399999994], [56.945931400000006, 53.786652800000006], [56.94572869999999, 53.7864522], [56.9457996, 53.78611990000001], [56.9455848, 53.7856521], [56.94522769999999, 53.7848935], [56.9448747, 53.7842241], [56.944338699999996, 53.7837869], [56.9443022, 53.78345629999998], [56.944212799999995, 53.78291000000001], [56.944071099999995, 53.782631999999985], [56.9430288, 53.781935399999995], [56.94178149999999, 53.7809872], [56.94139479999999, 53.7805221], [56.94122709999999, 53.78014269999999], [56.94142179999999, 53.77969379999999], [56.9420398, 53.779098000000005], [56.94249059999999, 53.778606799999984], [56.9426858, 53.778170700000004], [56.942748599999994, 53.777660199999985], [56.9427396, 53.776514], [56.9428337, 53.7762195], [56.9434291, 53.775598599999995], [56.9437399, 53.77486759999999], [56.9441325, 53.77451750000001], [56.9447243, 53.773820199999996], [56.945088500000004, 53.77331769999999], [56.9456146, 53.772596], [56.9463382, 53.7719603], [56.94695719999999, 53.77139], [56.94820219999999, 53.7704021], [56.948707899999995, 53.7697061], [56.948716999999995, 53.76902410000001], [56.94878359999999, 53.7680618], [56.94859679999999, 53.765848600000005], [56.948332699999995, 53.76477009999999], [56.9479571, 53.7645468], [56.9479438, 53.7642541], [56.948041999999994, 53.7640487], [56.94783880000001, 53.76383539999999], [56.947618199999994, 53.7637116], [56.9473547, 53.7635885], [56.9472514, 53.763208000000006], [56.9467597, 53.76279550000001], [56.946247099999994, 53.7623961], [56.9458978, 53.76180310000001], [56.9453992, 53.761237900000005], [56.9449296, 53.7608377], [56.94471560000001, 53.76038259999999], [56.944010999999996, 53.76001169999999], [56.943486799999995, 53.7598291], [56.9430997, 53.7593512], [56.9427063, 53.758733400000004], [56.9416488, 53.7581643], [56.940744099999996, 53.75764379999999], [56.9402439, 53.75704040000001], [56.940157, 53.756545], [56.939983, 53.7560256], [56.9386341, 53.7345187], [56.9944326, 53.7356443], [57.0024312, 53.739482], [57.0813192, 53.7423205], [57.0853202, 53.7422458], [57.086518899999994, 53.74209079999999], [57.0875984, 53.7415427], [57.08840279999999, 53.7410852], [57.089344999999994, 53.7407467], [57.090097, 53.74052480000001], [57.091277999999996, 53.74020519999999], [57.09229189999999, 53.739719699999995], [57.0932165, 53.73941059999999], [57.09384180000001, 53.7391245], [57.09499999999999, 53.738867899999995], [57.096198, 53.7387381], [57.0978652, 53.738624599999994], [57.0990634, 53.738482099999985], [57.100150299999996, 53.7385538], [57.1011065, 53.73873839999999], [57.10208159999999, 53.739037], [57.1033945, 53.73950270000001], [57.104498299999996, 53.73977699999999], [57.10581119999999, 53.74024269999999], [57.10680549999999, 53.740642599999994], [57.10733230000001, 53.740950299999994], [57.1075936, 53.74168619999999], [57.1080084, 53.74223340000001], [57.108404699999994, 53.742654], [57.10873939999999, 53.7429603], [57.1090111, 53.7432281], [57.1091335, 53.7434821], [57.1092097, 53.74390019999999], [57.109267, 53.7442043], [57.11044269999999, 53.744124799999994], [57.111424199999995, 53.744145], [57.11234819999999, 53.74413639999999], [57.17108019999999, 53.7379749], [57.1498405, 53.66402610000001], [57.1577566, 53.6621996], [57.155805199999996, 53.6195505], [57.164447599999995, 53.5999715], [57.20712429999999, 53.5995709], [57.1948967, 53.5679652], [57.20808379999999, 53.5465514], [57.207484099999995, 53.544834], [57.19945899999999, 53.5440562], [57.1920775, 53.5412256], [57.176780199999996, 53.53856940000001], [57.160936299999996, 53.52418929999999], [57.15743779999999, 53.51184899999999], [57.15496689999999, 53.51038259999999], [57.144180799999994, 53.512999199999996], [57.1455811, 53.5053976], [57.1440821, 53.4995208], [57.139149599999996, 53.49864490000001], [57.139625099999996, 53.493353600000006], [57.145029900000004, 53.4883504], [57.1405895, 53.48688599999999], [57.1302404, 53.4868978], [57.120848499999994, 53.47691399999999], [57.11296449999999, 53.4766278], [57.0962054, 53.47340919999999], [57.09964649999999, 53.4701732], [57.0917601, 53.46812200000001], [57.08288929999999, 53.4660709], [57.081899, 53.463426199999994], [57.0848519, 53.4622485], [57.090766099999996, 53.4640077], [57.094709099999996, 53.4651804], [57.09519449999999, 53.461946700000006], [57.0912315, 53.4513683], [57.09417489999999, 53.4463692], [57.109415799999994, 53.4378322], [57.10842079999999, 53.433718], [57.1064322, 53.425783599999995], [57.0946268, 53.428144999999994], [57.08280349999999, 53.42198119999999], [57.0734557, 53.4228692], [57.0604198, 53.43146579999999], [57.05976059999999, 53.42483459999999], [57.0657377, 53.4213944], [57.066953999999996, 53.411426199999994], [57.0638429, 53.410358799999976], [57.0608154, 53.40856700000001], [57.05423869999999, 53.40593940000001], [57.0402116, 53.4041313], [57.0347544, 53.40402350000001], [57.0270269, 53.4037295], [57.01602379999999, 53.4050206], [57.0071025, 53.407998500000005], [57.00421709999999, 53.4087774], [57.00521909999999, 53.37100409999999], [56.957802099999995, 53.3706004], [56.9582794, 53.3567443], [56.9165544, 53.35613529999999], [56.912743, 53.334697500000004], [56.924630099999995, 53.32806469999999], [56.922655, 53.32502929999999], [56.9198225, 53.3200051], [56.92419999999999, 53.318159300000005], [56.9226744, 53.3149747], [56.8836006, 53.3129465], [56.86331229999999, 53.2858664], [56.8502867, 53.2851922], [56.85184439999999, 53.2691145], [56.8569943, 53.26849849999999], [56.8597409, 53.26090069999999], [56.8484114, 53.2572038], [56.8531065, 53.25362569999999], [56.846447399999995, 53.2496279], [56.8101515, 53.253856999999996], [56.79656949999999, 53.2572039], [56.6590494, 53.262426299999994], [56.5745142, 53.2713734], [56.529467499999996, 53.27624749999999], [56.46598749999999, 53.2795385], [56.4443205, 53.280611099999994], [56.4400293, 53.280939999999994], [56.4335768, 53.2449532], [56.441500399999995, 53.24405990000001], [56.446414999999995, 53.24290859999999], [56.490128299999995, 53.2403288], [56.48731209999999, 53.224557000000004], [56.4736368, 53.17103929999999], [56.46461349999999, 53.17072340000001], [56.438484, 53.15109439999999], [56.4325609, 53.1422973], [56.4267472, 53.13032009999999], [56.4128208, 53.13037129999999], [56.3885512, 53.130550799999995], [56.365430499999995, 53.1200938], [56.3593433, 53.126150599999995], [56.345728599999994, 53.13201140000001], [56.34281039999999, 53.1311138], [56.3382338, 53.13029420000001], [56.339607099999995, 53.1265861], [56.33874079999999, 53.12167249999999], [56.333486, 53.1241592], [56.3309084, 53.122857700000004], [56.329429, 53.1237313], [56.3194445, 53.1231855], [56.29867879999999, 53.1380566], [56.29665130000001, 53.1429035], [56.2798527, 53.1541941], [56.2270039, 53.1697987], [56.2185001, 53.1705468], [56.210453, 53.17068050000001], [56.1960208, 53.16445159999999], [56.189441099999996, 53.169264399999996], [56.17560459999999, 53.17640569999999], [56.178061899999996, 53.1819515], [56.1921925, 53.1993845], [56.184264399999996, 53.20363429999998], [56.1856643, 53.2066096], [56.20113619999999, 53.204228799999996], [56.2080141, 53.211804699999995], [56.21665480000001, 53.219576], [56.2292215, 53.2182237], [56.2430892, 53.2171635], [56.24172889999999, 53.2226598], [56.2341428, 53.226625899999995], [56.22479649999999, 53.2277465], [56.2213442, 53.2278586], [56.219735400000005, 53.226374899999996], [56.219226199999994, 53.2252159], [56.216889, 53.224967], [56.21523379999999, 53.22455080000001], [56.2110654, 53.22422439999998], [56.20157489999999, 53.224824099999985], [56.1981789, 53.220355000000005], [56.1938315, 53.223175399999995], [56.20153340000001, 53.2330529], [56.096634099999996, 53.2326289], [55.965314799999994, 53.2314042], [55.9655008, 53.23475], [55.964220399999995, 53.2375815], [55.96030360000001, 53.2415496], [55.954763099999994, 53.24300459999999], [55.9543294, 53.2459082], [55.9561528, 53.24723590000001], [55.9718676, 53.249091], [55.9802596, 53.25608209999999], [55.9952897, 53.2686058], [56.0026555, 53.277748599999995], [55.998455799999995, 53.288473], [55.99058629999999, 53.3101591], [55.99003629999999, 53.3216126], [55.991762800000004, 53.32242240000001], [55.993747899999995, 53.3240035], [55.9918116, 53.328992], [55.9809712, 53.33380499999999], [55.9715789, 53.3424311], [55.9740702, 53.3436691], [55.981875, 53.3451538], [55.9834164, 53.3453182], [55.9846659, 53.34645739999999], [55.99152959999999, 53.347425099999995], [55.99582339999999, 53.34833089999999], [55.9995748, 53.34894799999999], [55.98947209999999, 53.365090200000004], [55.9899535, 53.36817620000001], [55.9900128, 53.369956299999984], [55.9900342, 53.37133260000001], [55.98811729999999, 53.37572519999999], [55.982639199999994, 53.3778539], [55.984762399999994, 53.380202399999995], [55.989479, 53.38326239999999], [55.99167409999999, 53.38334939999999], [55.99392079999999, 53.38408020000001], [55.98812449999999, 53.3894619], [55.9892526, 53.3941008], [55.9861518, 53.394991499999996], [55.99079119999999, 53.397941800000005], [55.99207429999999, 53.398278899999994], [55.9936364, 53.399333199999994], [55.994130999999996, 53.4000355], [55.994591299999996, 53.4008665], [55.990021899999995, 53.402402899999984], [55.989052, 53.4023198], [55.9871423, 53.40270159999998], [55.98643309999999, 53.402691999999995], [55.985537199999996, 53.4027183], [55.98455979999999, 53.403070699999994], [55.984128399999996, 53.403512500000005], [55.988053799999996, 53.4087545], [55.991497499999994, 53.41386219999999], [55.98758839999999, 53.4171786], [55.98478229999999, 53.416838799999994], [55.98438589999999, 53.41699259999999], [55.9837271, 53.417452399999995], [55.9835313, 53.41780239999999], [55.9835871, 53.41812689999999], [55.983879, 53.41837279999999], [55.9843661, 53.4185074], [55.9847448, 53.418569100000006], [55.984937900000006, 53.4186791], [55.9849556, 53.41883409999999], [55.9848263, 53.4189793], [55.98466379999999, 53.41912570000001], [55.983996399999995, 53.4194422], [55.98373519999999, 53.41948500000001], [55.9833398, 53.41941920000001], [55.9825953, 53.4193482], [55.9817568, 53.419488799999996], [55.9814886, 53.4197299], [55.9813636, 53.419993299999994], [55.9812649, 53.42027589999999], [55.98102829999999, 53.42052079999999], [55.9804409, 53.42070269999999], [55.979949, 53.42076539999999], [55.9795284, 53.42081969999999], [55.9792709, 53.4211001], [55.9778021, 53.4221163], [55.9761429, 53.42268659999999], [55.97630769999999, 53.4234977], [55.9766496, 53.42517999999999], [55.97672579999999, 53.4274239], [55.9711494, 53.42932410000001], [55.9648138, 53.431466999999984], [55.9686682, 53.4345022], [55.969837600000005, 53.436472], [55.9708553, 53.4382817], [55.9724, 53.44129499999998], [55.9739138, 53.4441694], [55.9745265, 53.4455879], [55.97513359999999, 53.4464269], [55.97683030000001, 53.44840619999999], [55.9773607, 53.449180600000005], [55.97740039999999, 53.456430000000005], [55.97776300000001, 53.45738120000001], [55.9784561, 53.4584014], [55.97820829999999, 53.4585828], [55.9802119, 53.460235299999994], [55.9807751, 53.46040940000001], [55.98101009999999, 53.46039919999999], [55.9828699, 53.45994249999998], [55.9825336, 53.4592756], [55.9952721, 53.459246], [56.002207399999996, 53.4610018], [55.99527009999999, 53.467488499999995], [55.99526769999999, 53.4675895], [55.99522640000001, 53.46930429999999], [55.9951359, 53.4730704], [56.0022367, 53.48315339999999], [56.0094193, 53.4844417], [56.0131637, 53.485793799999996], [56.018707600000006, 53.48657719999999], [56.019133499999995, 53.4867818], [56.0216373, 53.48872910000001], [56.02177679999999, 53.49144189999999], [56.020423199999996, 53.4939195], [56.0201807, 53.49464799999999], [56.0174781, 53.495287899999994], [56.014568399999995, 53.494958499999996], [56.0118755, 53.493959], [55.9934169, 53.4947466], [55.98689519999999, 53.4952483], [55.974864000000004, 53.507520899999996], [55.96957429999999, 53.5109802], [55.971858999999995, 53.513227400000005], [55.973251399999995, 53.51335480000001], [55.97649139999999, 53.5151062], [55.979543899999996, 53.51637989999999], [55.9814719, 53.51693720000001], [55.9821948, 53.517781], [55.99547609999999, 53.5175103], [55.9962259, 53.53018139999999], [56.02233319999999, 53.533523699999996], [56.0360429, 53.53131150000001], [56.03815829999999, 53.53268020000001], [56.0409163, 53.53331679999999], [56.04346, 53.5336987], [56.04514699999999, 53.5345104], [56.0462181, 53.53548119999999], [56.0472623, 53.53719980000001], [56.048012099999994, 53.5384888], [56.0481728, 53.53961859999999], [56.04785139999999, 53.54063699999999], [56.0466872, 53.54171300000001], [56.043406499999996, 53.54272149999999], [56.04174629999999, 53.54351700000001], [56.0381315, 53.544296599999996], [56.0367211, 53.54526619999999], [56.03564119999999, 53.5467309], [56.03540019999999, 53.54827420000001], [56.0364713, 53.54969010000001], [56.03818499999999, 53.5501514], [56.0422551, 53.55088320000001], [56.047503299999995, 53.55109000000001], [56.051627, 53.551265], [56.0552954, 53.552251299999995], [56.05797299999999, 53.5535557], [56.059874199999996, 53.555385], [56.0605168, 53.557389199999996], [56.0604901, 53.5586139], [56.05853539999999, 53.560443], [56.0565807, 53.5618426], [56.053019299999995, 53.56270140000001], [56.0502613, 53.5623992], [56.04712849999999, 53.5613655], [56.044718599999996, 53.559679599999996], [56.0428253, 53.558662], [56.03869379999999, 53.5580572], [56.0360161, 53.55813680000001], [56.0339275, 53.55870939999999], [56.03181219999999, 53.56055429999999], [56.0311427, 53.5625901], [56.03161339999999, 53.5644335], [56.0345702, 53.5673451], [56.0377298, 53.56856950000001], [56.039202499999995, 53.568951199999994], [56.044691799999995, 53.5699052], [56.048929599999994, 53.571609800000004], [56.0492974, 53.5730377], [56.04805749999999, 53.5755303], [56.0455754, 53.5778551], [56.0430584, 53.575438500000004], [56.03936319999999, 53.5743891], [56.0348524, 53.573755], [56.0309018, 53.570986500000004], [56.0283744, 53.569834300000004], [56.0256535, 53.56965079999999], [56.02432979999999, 53.5696941], [56.0221167, 53.5701364], [56.019816199999994, 53.57114550000001], [56.0183435, 53.573276199999995], [56.01913149999999, 53.5752843], [56.02262770000001, 53.576901199999995], [56.02602840000001, 53.5779187], [56.02812529999999, 53.5780452], [56.0329636, 53.57834789999998], [56.03797079999999, 53.578920200000006], [56.04058289999999, 53.5795984], [56.04244249999999, 53.5802238], [56.0431923, 53.58109820000001], [56.0449328, 53.58227449999999], [56.044943100000005, 53.5833703], [56.03961519999999, 53.590564], [56.0368997, 53.594068099999994], [56.0359626, 53.5977549], [56.03323970000001, 53.600092200000006], [56.029536099999994, 53.6015049], [56.02489859999999, 53.6016371], [56.02410929999999, 53.60180030000001], [56.0236019, 53.6019541], [56.02213859999999, 53.602677], [56.0196971, 53.60388150000001], [56.01945489999999, 53.605438], [56.021181899999995, 53.6072942], [56.0328473, 53.6074077], [56.0533286, 53.607445600000005], [56.0578087, 53.6175793], [56.05526989999999, 53.618897], [56.0558515, 53.619296600000006], [56.04746639999999, 53.6268414], [56.0397413, 53.625448999999996], [56.0365604, 53.62630240000001], [56.0298957, 53.62302340000001], [56.027017699999995, 53.6224395], [56.02283179999999, 53.6234641], [56.021186, 53.6281439], [56.018048099999994, 53.63138380000001], [56.0141425, 53.6325451], [56.0102745, 53.632329399999996], [56.006796099999995, 53.634386299999996], [56.00608879999999, 53.636997699999995], [56.00187329999999, 53.6402687], [55.9952085, 53.6423341], [55.99392099999999, 53.6444442], [55.9945281, 53.6470416], [55.9955115, 53.653602], [55.99278499999999, 53.65678880000001], [55.993070599999996, 53.659678], [55.9944446, 53.660933099999994], [56.00725059999999, 53.661232], [56.013536699999996, 53.6591675], [56.0192926, 53.6575518], [56.0261089, 53.65737229999999], [56.0400732, 53.6601689], [56.0455955, 53.6590367], [56.04941159999999, 53.65842179999999], [56.0519671, 53.658601999999995], [56.05359789999999, 53.658958], [56.05499270000001, 53.65996260000001], [56.05542179999999, 53.6610561], [56.055119999999995, 53.66216049999999], [56.0539557, 53.6629695], [56.0550999, 53.6630904], [56.0566449, 53.662454700000005], [56.0576319, 53.6614121], [56.05887649999999, 53.66076360000001], [56.0608506, 53.659949899999994], [56.0612154, 53.659568400000005], [56.0617518, 53.6566437], [56.0615158, 53.6548126], [56.05975629999999, 53.653477300000006], [56.0588872, 53.6526125], [56.059091099999996, 53.651824], [56.064273099999994, 53.644676000000004], [56.0658663, 53.644408899999995], [56.0669875, 53.644230799999995], [56.0694766, 53.64397640000001], [56.07202999999999, 53.643416699999996], [56.075420400000006, 53.6425008], [56.0762357, 53.642551700000006], [56.078402999999994, 53.642895200000005], [56.07829569999999, 53.6436584], [56.0779738, 53.6441672], [56.0779094, 53.644739599999994], [56.076943899999996, 53.645095799999986], [56.0763645, 53.6456045], [56.07522719999999, 53.646914599999995], [56.0747766, 53.6471817], [56.0741329, 53.647410699999995], [56.07314579999999, 53.6477668], [56.0724377, 53.6484536], [56.07172959999999, 53.6490514], [56.070806999999995, 53.64973820000001], [56.0698414, 53.65038690000001], [56.0699916, 53.651251699999996], [56.070528, 53.6521801], [56.0703349, 53.6525107], [56.07097859999999, 53.653439099999986], [56.0722017, 53.6542403], [56.0741329, 53.65500329999999], [56.0759997, 53.655499299999995], [56.0759783, 53.65767369999998], [56.0767306, 53.66416499999999], [56.0798841, 53.66513649999999]], [[56.1023228, 53.67949420000001], [56.10199589999999, 53.68090420000001], [56.103467599999995, 53.681984799999995], [56.101896999999994, 53.682846], [56.101664299999996, 53.68393699999999], [56.1010826, 53.6851427], [56.0992794, 53.6854183], [56.1013541, 53.68708329999999], [56.09850469999999, 53.68898279999999], [56.0963709, 53.689988299999996], [56.0939859, 53.688139699999994], [56.093792, 53.6872326], [56.0902631, 53.687025899999995], [56.088828199999995, 53.684614499999995], [56.08780049999999, 53.68421260000001], [56.08749219999999, 53.683846499999994], [56.09042629999999, 53.6826122], [56.0905909, 53.682043799999995], [56.0918386, 53.6820925], [56.0939455, 53.6816624], [56.0942471, 53.68211720000001], [56.0956251, 53.68190609999999], [56.0977023, 53.68164209999999], [56.097661099999996, 53.6808017], [56.098141, 53.6795105], [56.1023228, 53.67949420000001]]]]}}, {"type": "Feature", "properties": {"id": "city-80649000", "name": "Стерлитамакский муниципальный район", "region": "Республика Башкортостан", "isCity": true, "sourceOktmo": "80-649-000-000", "sourceAgg": "Стерлитамак", "excelNames": ["Стерлитамакский муниципальный район"], "oktmo": "80649000", "vgp": [{"year": 2019, "value": 12383929.228598231}, {"year": 2020, "value": 11005531.86545004}, {"year": 2021, "value": 11666610.976679882}, {"year": 2022, "value": 16641348.807911126}, {"year": 2023, "value": 17880186.197904546}, {"year": 2024, "value": 22513071.1411615}], "population": [{"year": 2019, "value": 43337.0}, {"year": 2020, "value": 43820.0}, {"year": 2021, "value": 44329.0}, {"year": 2022, "value": 44183.0}, {"year": 2023, "value": 47644.0}, {"year": 2024, "value": 47531.0}, {"year": 2025, "value": 47564.0}], "shipments": [{"year": 2019, "value": 4989404.9}, {"year": 2020, "value": 8677077.7}, {"year": 2021, "value": 13806336.0}, {"year": 2022, "value": 10295426.4}, {"year": 2023, "value": 11272145.6}, {"year": 2024, "value": 23065616.9}], "employees": [{"year": 2019, "value": 5605.0}, {"year": 2020, "value": 4980.0}, {"year": 2021, "value": 4824.0}, {"year": 2022, "value": 4636.0}, {"year": 2023, "value": 4525.0}, {"year": 2024, "value": 5380.0}], "investments": [{"year": 2019, "value": 780554.0}, {"year": 2020, "value": 942476.0}, {"year": 2021, "value": 1158370.0}, {"year": 2022, "value": 1454536.0}, {"year": 2023, "value": 1409079.0}, {"year": 2024, "value": 1747184.0}], "vgp2024": 22513071.1411615, "pop2024": 47531.0, "ship2024": 23065616.9, "emp2024": 5380.0, "inv2024": 1747184.0}, "geometry": {"type": "MultiPolygon", "coordinates": [[[[56.0558515, 53.619296600000006], [56.05526989999999, 53.618897], [56.0578087, 53.6175793], [56.0533286, 53.607445600000005], [56.0328473, 53.6074077], [56.03473319999999, 53.6088144], [56.035379899999995, 53.617765], [56.0376969, 53.62006629999999], [56.04200769999999, 53.62172830000001], [56.0397413, 53.625448999999996], [56.04746639999999, 53.6268414], [56.0558515, 53.619296600000006]]], [[[56.064867, 53.71850539999999], [56.06374, 53.7171362], [56.0631619, 53.715113800000005], [56.065039199999994, 53.7130816], [56.07223210000001, 53.7111517], [56.07503249999999, 53.70753469999999], [56.0757385, 53.6997185], [56.073974099999994, 53.6949219], [56.070490199999995, 53.6927694], [56.0686725, 53.689989000000004], [56.06781209999999, 53.68939149999999], [56.0667543, 53.686721199999994], [56.0682069, 53.6849814], [56.070490199999995, 53.6842033], [56.07602909999999, 53.6833418], [56.08486039999999, 53.6822508], [56.0854534, 53.68116070000001], [56.08351679999999, 53.67756440000001], [56.081371299999994, 53.673155999999985], [56.082108399999996, 53.669409800000004], [56.081940700000004, 53.667547400000004], [56.0798841, 53.66513649999999], [56.0767306, 53.66416499999999], [56.0767682, 53.66456869999999], [56.07577439999999, 53.664508000000005], [56.0737789, 53.66492759999999], [56.0720622, 53.6655824], [56.07043149999999, 53.666396], [56.069809199999995, 53.667177900000006], [56.0689616, 53.6684301], [56.0687041, 53.6696251], [56.0686397, 53.6712904], [56.0689401, 53.6725234], [56.0687899, 53.6742521], [56.0683393, 53.6758156], [56.0673952, 53.676908700000006], [56.066107699999996, 53.6775823], [56.064991899999995, 53.67786190000001], [56.062932, 53.67774750000001], [56.05986829999999, 53.677364299999994], [56.0525942, 53.6803139], [56.0502319, 53.6836087], [56.05068909999999, 53.6899267], [56.02996129999999, 53.6893401], [56.0301158, 53.693530499999994], [56.0338278, 53.696545400000005], [56.0167118, 53.69744839999999], [56.0145944, 53.69925740000001], [56.0158315, 53.70418999999998], [56.0082087, 53.7053406], [56.01144839999999, 53.709831699999995], [56.01070789999999, 53.7212817], [55.9856678, 53.7217136], [56.0018924, 53.72982059999999], [55.99714749999999, 53.734420799999995], [55.98148909999999, 53.72528779999999], [55.9625493, 53.71501539999999], [55.959647499999996, 53.71531800000001], [55.9508654, 53.71491699999999], [55.9522588, 53.704786], [55.9461964, 53.70487000000001], [55.946611499999996, 53.6972196], [55.9450025, 53.696812900000005], [55.9377784, 53.6965332], [55.93802929999999, 53.6948507], [55.93897799999999, 53.68958550000001], [55.9323202, 53.689338600000006], [55.921518899999995, 53.6901227], [55.9196951, 53.6805471], [55.91934739999999, 53.675200700000005], [55.9179824, 53.675226300000006], [55.9181157, 53.6659596], [55.9154143, 53.665972499999995], [55.915403399999995, 53.663021500000006], [55.9154704, 53.6598537], [55.908107199999996, 53.659868800000005], [55.899747, 53.660823300000004], [55.899005499999994, 53.6591719], [55.8964745, 53.648625900000006], [55.89182129999999, 53.650141299999994], [55.8869493, 53.6454456], [55.8897802, 53.644476700000006], [55.898300899999995, 53.641539699999996], [55.90349749999999, 53.6319406], [55.89582059999999, 53.63205140000001], [55.8924596, 53.6388736], [55.8826531, 53.6353588], [55.883649999999996, 53.63323040000001], [55.88406559999999, 53.632343], [55.883439599999996, 53.6237689], [55.8827429, 53.61561520000001], [55.8859914, 53.6146625], [55.8869386, 53.61357869999999], [55.887083399999995, 53.612710699999994], [55.8872161, 53.61191509999999], [55.88978829999999, 53.61054029999999], [55.890569, 53.6103025], [55.89072749999999, 53.60999739999999], [55.8909096, 53.6094197], [55.891194199999994, 53.6087925], [55.891514599999994, 53.60855639999999], [55.891416899999996, 53.6082262], [55.8919046, 53.60798], [55.8928079, 53.607523900000004], [55.893950999999994, 53.6076002], [55.8959732, 53.606560800000004], [55.89623029999999, 53.60603509999999], [55.8965414, 53.6051483], [55.8964061, 53.6045824], [55.8967443, 53.6040727], [55.8972921, 53.604145], [55.89754239999999, 53.6038079], [55.89787379999999, 53.6037758], [55.8982525, 53.6039804], [55.89979459999999, 53.6037758], [55.9008903, 53.6037316], [55.9014111, 53.6041891], [55.9020942, 53.6043737], [55.90263519999999, 53.6041169], [55.90307489999999, 53.60329420000001], [55.903967599999994, 53.603242], [55.90454929999999, 53.60397640000001], [55.9047996, 53.60430549999999], [55.905902, 53.6047229], [55.90688269999999, 53.60465469999999], [55.90749139999999, 53.60495160000001], [55.9082827, 53.6052767], [55.9082151, 53.6057342], [55.9080054, 53.6063482], [55.90833009999999, 53.60683770000001], [55.90869529999999, 53.60719089999999], [55.91019, 53.6074718], [55.9120229, 53.6069902], [55.91283529999999, 53.6064996], [55.9125572, 53.6058706], [55.9128031, 53.604829], [55.91020979999999, 53.602566899999985], [55.909505, 53.60195199999999], [55.90694789999999, 53.60091109999999], [55.91648699999999, 53.590499099999995], [55.91427279999999, 53.5815902], [55.9135584, 53.5787153], [55.9187189, 53.5782615], [55.91850449999999, 53.577391600000006], [55.91843479999999, 53.577109], [55.92022719999999, 53.5769765], [55.921072599999995, 53.57859880000001], [55.9216001, 53.5782816], [55.92220210000001, 53.5782615], [55.92320819999999, 53.57865429999999], [55.92571619999999, 53.5767653], [55.927958399999994, 53.5769443], [55.9288198, 53.5768408], [55.9299482, 53.57691609999999], [55.930875099999994, 53.5772194], [55.9305569, 53.57845749999999], [55.929424299999994, 53.5797494], [55.929857999999996, 53.5803187], [55.9305389, 53.5805787], [55.93116229999999, 53.5806927], [55.931588, 53.5805905], [55.9319875, 53.5805393], [55.9324436, 53.58059260000001], [55.93274579999999, 53.5809032], [55.9333315, 53.5811431], [55.93402629999999, 53.581752599999994], [55.934872199999994, 53.583460099999996], [55.934794999999994, 53.5848556], [55.9378065, 53.5860067], [55.93916589999999, 53.586032100000004], [55.941899, 53.5860831], [55.943245999999995, 53.585746900000004], [55.943433199999994, 53.5852887], [55.9439792, 53.5850942], [55.94461019999999, 53.5851879], [55.944625099999996, 53.5852089], [55.94493779999999, 53.58564880000001], [55.945047, 53.586081], [55.94467089999999, 53.5865204], [55.944161199999996, 53.58678689999999], [55.943591, 53.5866572], [55.94299639999999, 53.5869165], [55.9421621, 53.5876118], [55.94257439999999, 53.588258499999995], [55.943458899999996, 53.5885486], [55.944390899999995, 53.58856629999999], [55.9455081, 53.58870989999999], [55.94601769999999, 53.58899079999999], [55.94677879999999, 53.5887645], [55.9540146, 53.58727739999999], [55.95443279999999, 53.58632159999999], [55.95482319999999, 53.5861841], [55.95510639999999, 53.5853946], [55.9552651, 53.58523929999999], [55.9554281, 53.585201099999985], [55.95698099999999, 53.58600839999999], [55.957929099999994, 53.585909], [55.95873559999999, 53.5855474], [55.960189899999996, 53.58617129999999], [55.959863799999994, 53.5866985], [55.95915599999999, 53.5875031], [55.958864299999995, 53.58848349999999], [55.9591689, 53.58895460000001], [55.96021129999999, 53.58933909999998], [55.962570799999995, 53.5891583], [55.965384699999994, 53.5899341], [55.96693340000001, 53.5901531], [55.96906969999999, 53.590283], [55.97054539999999, 53.59103410000001], [55.971802399999994, 53.59142880000001], [55.9724759, 53.59195840000001], [55.9726003, 53.59247529999999], [55.97217129999999, 53.59302780000001], [55.97269039999999, 53.59367700000001], [55.9739173, 53.59392400000001], [55.9756633, 53.5940106], [55.9771604, 53.59444079999999], [55.978631899999996, 53.5945274], [55.9802639, 53.5944544], [55.9822851, 53.5955583], [55.98349429999999, 53.597568700000004], [55.9836011, 53.597920699999996], [55.9841016, 53.5995711], [55.98857410000001, 53.601042], [55.9916974, 53.60274429999998], [55.99326899999999, 53.60287379999999], [55.995570099999995, 53.60243030000001], [55.996358199999996, 53.602073499999996], [55.996888899999995, 53.601118299999996], [55.9961868, 53.5985363], [55.9943881, 53.5967507], [55.9972194, 53.5959971], [55.99954449999999, 53.59615999999999], [56.004003399999995, 53.5952756], [56.008343399999994, 53.595368199999996], [56.01032550000001, 53.59467059999999], [56.0123884, 53.5945918], [56.014516199999996, 53.594958399999996], [56.0166545, 53.596596999999996], [56.0208037, 53.59723660000001], [56.0236019, 53.6019541], [56.02410929999999, 53.60180030000001], [56.02489859999999, 53.6016371], [56.029536099999994, 53.6015049], [56.03323970000001, 53.600092200000006], [56.0359626, 53.5977549], [56.0368997, 53.594068099999994], [56.03961519999999, 53.590564], [56.044943100000005, 53.5833703], [56.0449328, 53.58227449999999], [56.0431923, 53.58109820000001], [56.04244249999999, 53.5802238], [56.04058289999999, 53.5795984], [56.03797079999999, 53.578920200000006], [56.0329636, 53.57834789999998], [56.02812529999999, 53.5780452], [56.02602840000001, 53.5779187], [56.02262770000001, 53.576901199999995], [56.01913149999999, 53.5752843], [56.0183435, 53.573276199999995], [56.019816199999994, 53.57114550000001], [56.0221167, 53.5701364], [56.02432979999999, 53.5696941], [56.0256535, 53.56965079999999], [56.0283744, 53.569834300000004], [56.0309018, 53.570986500000004], [56.0348524, 53.573755], [56.03936319999999, 53.5743891], [56.0430584, 53.575438500000004], [56.0455754, 53.5778551], [56.04805749999999, 53.5755303], [56.0492974, 53.5730377], [56.048929599999994, 53.571609800000004], [56.044691799999995, 53.5699052], [56.039202499999995, 53.568951199999994], [56.0377298, 53.56856950000001], [56.0345702, 53.5673451], [56.03161339999999, 53.5644335], [56.0311427, 53.5625901], [56.03181219999999, 53.56055429999999], [56.0339275, 53.55870939999999], [56.0360161, 53.55813680000001], [56.03869379999999, 53.5580572], [56.0428253, 53.558662], [56.044718599999996, 53.559679599999996], [56.04712849999999, 53.5613655], [56.0502613, 53.5623992], [56.053019299999995, 53.56270140000001], [56.0565807, 53.5618426], [56.05853539999999, 53.560443], [56.0604901, 53.5586139], [56.0605168, 53.557389199999996], [56.059874199999996, 53.555385], [56.05797299999999, 53.5535557], [56.0552954, 53.552251299999995], [56.051627, 53.551265], [56.047503299999995, 53.55109000000001], [56.0422551, 53.55088320000001], [56.03818499999999, 53.5501514], [56.0364713, 53.54969010000001], [56.03540019999999, 53.54827420000001], [56.03564119999999, 53.5467309], [56.0367211, 53.54526619999999], [56.0381315, 53.544296599999996], [56.04174629999999, 53.54351700000001], [56.043406499999996, 53.54272149999999], [56.0466872, 53.54171300000001], [56.04785139999999, 53.54063699999999], [56.0481728, 53.53961859999999], [56.048012099999994, 53.5384888], [56.0472623, 53.53719980000001], [56.0462181, 53.53548119999999], [56.04514699999999, 53.5345104], [56.04346, 53.5336987], [56.0409163, 53.53331679999999], [56.03815829999999, 53.53268020000001], [56.0360429, 53.53131150000001], [56.02233319999999, 53.533523699999996], [55.9962259, 53.53018139999999], [55.99547609999999, 53.5175103], [55.9821948, 53.517781], [55.9814719, 53.51693720000001], [55.979543899999996, 53.51637989999999], [55.97649139999999, 53.5151062], [55.973251399999995, 53.51335480000001], [55.971858999999995, 53.513227400000005], [55.96957429999999, 53.5109802], [55.974864000000004, 53.507520899999996], [55.98689519999999, 53.4952483], [55.9934169, 53.4947466], [56.0118755, 53.493959], [56.014568399999995, 53.494958499999996], [56.0174781, 53.495287899999994], [56.0201807, 53.49464799999999], [56.020423199999996, 53.4939195], [56.02177679999999, 53.49144189999999], [56.0216373, 53.48872910000001], [56.019133499999995, 53.4867818], [56.018707600000006, 53.48657719999999], [56.0131637, 53.485793799999996], [56.0094193, 53.4844417], [56.0022367, 53.48315339999999], [55.9951359, 53.4730704], [55.99522640000001, 53.46930429999999], [55.99526769999999, 53.4675895], [55.99527009999999, 53.467488499999995], [56.002207399999996, 53.4610018], [55.9952721, 53.459246], [55.9825336, 53.4592756], [55.9828699, 53.45994249999998], [55.98101009999999, 53.46039919999999], [55.9807751, 53.46040940000001], [55.9802119, 53.460235299999994], [55.97820829999999, 53.4585828], [55.9784561, 53.4584014], [55.97776300000001, 53.45738120000001], [55.97740039999999, 53.456430000000005], [55.9773607, 53.449180600000005], [55.97683030000001, 53.44840619999999], [55.97513359999999, 53.4464269], [55.9745265, 53.4455879], [55.9739138, 53.4441694], [55.9724, 53.44129499999998], [55.9708553, 53.4382817], [55.969837600000005, 53.436472], [55.9686682, 53.4345022], [55.9648138, 53.431466999999984], [55.9711494, 53.42932410000001], [55.97672579999999, 53.4274239], [55.9766496, 53.42517999999999], [55.97630769999999, 53.4234977], [55.9761429, 53.42268659999999], [55.97584499999999, 53.4168772], [55.972602699999996, 53.41671859999999], [55.9684871, 53.415994799999986], [55.957357, 53.4265103], [55.94941879999999, 53.421430300000004], [55.935284599999996, 53.421471100000005], [55.9288754, 53.42033200000001], [55.9278634, 53.4151385], [55.918081, 53.41714890000001], [55.919387300000004, 53.4418392], [55.91327619999999, 53.44108760000001], [55.91274, 53.4451992], [55.91684419999999, 53.4482462], [55.9151294, 53.4511423], [55.91209349999999, 53.44909989999999], [55.90796129999999, 53.4488823], [55.906836899999995, 53.44697380000001], [55.9084111, 53.445433599999994], [55.9009491, 53.440105299999985], [55.89692749999999, 53.43726259999999], [55.89445380000001, 53.43900409999999], [55.8965838, 53.4414412], [55.8921985, 53.44369689999999], [55.88788079999999, 53.44082699999999], [55.8838133, 53.44272790000001], [55.87423919999999, 53.4438087], [55.86791759999999, 53.442152], [55.8615363, 53.43824010000001], [55.867467899999994, 53.435521], [55.854649499999994, 53.4258742], [55.8649267, 53.420490599999994], [55.865218999999996, 53.4201788], [55.855998799999995, 53.414817799999994], [55.8557961, 53.414242099999996], [55.855281299999994, 53.41146030000001], [55.84228099999999, 53.41207], [55.84273069999999, 53.4012782], [55.8437427, 53.4002055], [55.84913989999999, 53.40208259999999], [55.8508534, 53.39440819999999], [55.8471639, 53.393388699999996], [55.8095826, 53.38683389999999], [55.8093478, 53.38662849999999], [55.8086782, 53.38613930000001], [55.80829609999999, 53.3855987], [55.8080118, 53.3851589], [55.807531999999995, 53.38484089999999], [55.8072476, 53.38461830000001], [55.8070077, 53.38452819999999], [55.8066967, 53.384496399999996], [55.806492399999996, 53.384575899999994], [55.8064213, 53.3847614], [55.8062436, 53.385105900000006], [55.80618139999999, 53.385301899999995], [55.806083599999994, 53.3854715], [55.8056838, 53.38552980000001], [55.805124, 53.385445], [55.80448979999999, 53.3852938], [55.802699999999994, 53.38449939999999], [55.8022136, 53.3840816], [55.8020637, 53.38381679999999], [55.7891036, 53.38392579999999], [55.7474927, 53.38424700000001], [55.7440071, 53.368215400000004], [55.72950709999999, 53.3711315], [55.71919679999999, 53.371454099999994], [55.7087009, 53.3709307], [55.7079162, 53.3719223], [55.7073866, 53.372184399999995], [55.7067605, 53.37228309999999], [55.70598369999999, 53.3726161], [55.7056518, 53.372863599999995], [55.7055538, 53.3730121], [55.705440599999996, 53.373426], [55.7055236, 53.373768], [55.70576499999999, 53.374218], [55.706240099999995, 53.374757899999985], [55.706368299999994, 53.3750774], [55.706240099999995, 53.37540129999999], [55.70586300000001, 53.37573429999999], [55.7053263, 53.37606480000001], [55.7049197, 53.3760438], [55.70410679999999, 53.3766588], [55.7024903, 53.377612], [55.7019778, 53.3775706], [55.6865731, 53.38974949999999], [55.6851937, 53.390639], [55.669138499999995, 53.4039547], [55.6601332, 53.4019689], [55.6395093, 53.39908579999999], [55.64005319999999, 53.3958989], [55.6412475, 53.391242999999996], [55.6424188, 53.38623499999999], [55.6321069, 53.385308499999994], [55.60398959999999, 53.400166], [55.6031639, 53.4006023], [55.5612083, 53.39224389999999], [55.5712194, 53.3813139], [55.582208699999995, 53.369222], [55.57489000000001, 53.3617892], [55.5666868, 53.3580164], [55.5651126, 53.3549294], [55.5598985, 53.35262569999998], [55.55212890000001, 53.35145409999999], [55.535374299999994, 53.35141380000001], [55.533122199999994, 53.3523391], [55.5269216, 53.3523741], [55.5269036, 53.369670500000005], [55.51908409999999, 53.37707659999999], [55.50074349999999, 53.3872274], [55.4995608, 53.38779490000001], [55.4981017, 53.3878588], [55.4966211, 53.388319499999994], [55.4954409, 53.3887291], [55.49460409999999, 53.38851150000001], [55.4935312, 53.38851150000001], [55.49235099999999, 53.38874179999999], [55.4916858, 53.3886395], [55.4890466, 53.3891769], [55.4879093, 53.3894201], [55.4863488, 53.389695200000006], [55.48520559999999, 53.3899064], [55.48505539999999, 53.3903798], [55.484519, 53.3910964], [55.483510499999994, 53.39163390000001], [55.48297399999999, 53.391787400000005], [55.4822659, 53.391761800000005], [55.4819441, 53.3922481], [55.481386199999996, 53.3926447], [55.48061369999999, 53.39278550000001], [55.4797983, 53.39299019999999], [55.47741229999999, 53.39438299999999], [55.4752707, 53.3945001], [55.4741175, 53.394990299999996], [55.4732537, 53.394973500000006], [55.4719877, 53.39484559999999], [55.4708934, 53.3943338], [55.469698699999995, 53.394285399999994], [55.4681897, 53.394679200000006], [55.4669587, 53.3946], [55.4528852, 53.39041590000001], [55.450743, 53.392855000000004], [55.43818079999999, 53.409354], [55.460335099999995, 53.416716900000004], [55.457985199999996, 53.420443899999995], [55.4871532, 53.4261323], [55.4822906, 53.433009], [55.4761875, 53.441189800000004], [55.49512649999999, 53.4460932], [55.5057332, 53.44893989999999], [55.5265277, 53.4742425], [55.4960699, 53.48315049999999], [55.4960229, 53.48343950000001], [55.496090699999996, 53.483555599999995], [55.496065599999994, 53.483622], [55.496426799999995, 53.4838519], [55.496527199999996, 53.4839384], [55.49669269999999, 53.48401309999999], [55.497063999999995, 53.4840668], [55.497069, 53.48425189999999], [55.4972446, 53.4842758], [55.4974954, 53.484207100000006], [55.497665999999995, 53.48395639999999], [55.497826499999995, 53.4839683], [55.497972, 53.4840549], [55.498122499999994, 53.48391159999999], [55.498258, 53.483890699999996], [55.49851889999999, 53.48393249999999], [55.499156, 53.4838996], [55.499462, 53.483825], [55.4998784, 53.483950400000005], [55.5000942, 53.4840698], [55.50016939999999, 53.48431159999999], [55.500039, 53.484610100000005], [55.50041019999999, 53.4852102], [55.5005055, 53.485517599999994], [55.50115769999999, 53.4859624], [55.501248, 53.48614150000001], [55.500681099999994, 53.48655649999999], [55.5006862, 53.4867684], [55.5010173, 53.486998299999996], [55.50126310000001, 53.48725199999999], [55.501268100000004, 53.4875684], [55.5012129, 53.48769080000001], [55.5014236, 53.4879773], [55.5017497, 53.488353499999995], [55.50191029999999, 53.488729600000006], [55.5016143, 53.4889564], [55.5015691, 53.489034], [55.501602999999996, 53.4890964], [55.5019333, 53.48936699999999], [55.5029239, 53.4898681], [55.502873699999995, 53.4901547], [55.502251599999994, 53.4905487], [55.5016396, 53.4907337], [55.50137869999999, 53.4909844], [55.500816799999996, 53.4913844], [55.500395399999995, 53.491444099999995], [55.4998134, 53.491933599999996], [55.4998235, 53.49235149999999], [55.499773299999994, 53.4925246], [55.49933179999999, 53.4926559], [55.4989907, 53.4927753], [55.4988602, 53.493593099999984], [55.499100999999996, 53.49385569999998], [55.499873599999994, 53.49418999999999], [55.5005961, 53.49414819999999], [55.500997399999996, 53.49401089999999], [55.501057599999996, 53.4938378], [55.50062619999999, 53.4936886], [55.500555899999995, 53.493593099999984], [55.5008569, 53.4935334], [55.50116799999999, 53.4935334], [55.5024423, 53.493407999999995], [55.5025928, 53.4935632], [55.50374669999999, 53.49364680000001], [55.50498079999999, 53.49398699999999], [55.5055628, 53.494315300000004], [55.50573339999999, 53.494882399999995], [55.50561629999999, 53.4953445], [55.505261499999996, 53.495631499999995], [55.5052048, 53.49585100000001], [55.505289899999994, 53.4961295], [55.50572979999999, 53.4964841], [55.50602779999999, 53.496509399999994], [55.5067231, 53.496526300000006], [55.50699269999999, 53.496425], [55.507616999999996, 53.49607040000001], [55.507815699999995, 53.496036700000005], [55.50825559999999, 53.4961464], [55.5102705, 53.4962477], [55.5115051, 53.4964081], [55.511732099999996, 53.4964841], [55.5122429, 53.496796399999994], [55.51254089999999, 53.49689769999999], [55.5128247, 53.49682169999999], [55.5131653, 53.4969652], [55.51342069999999, 53.497286], [55.51422949999999, 53.49789369999999], [55.51489719999999, 53.49847759999999], [55.5195118, 53.4935724], [55.5299076, 53.4992002], [55.53632749999999, 53.5030546], [55.5420621, 53.50793639999999], [55.54553539999999, 53.51117949999999], [55.528092599999994, 53.522466300000005], [55.5207744, 53.5240303], [55.50698119999999, 53.5174727], [55.4959977, 53.5209416], [55.4831427, 53.532671199999996], [55.48231080000001, 53.533274799999994], [55.470346199999994, 53.54195429999999], [55.4189933, 53.520248], [55.37233979999999, 53.55363559999999], [55.3807898, 53.5592498], [55.3894297, 53.5641154], [55.396277, 53.566067399999994], [55.3990408, 53.56744259999999], [55.4041949, 53.572617699999995], [55.41149029999999, 53.57514590000001], [55.414855, 53.5748782], [55.398097199999995, 53.5934922], [55.39576, 53.5931064], [55.3914999, 53.5919106], [55.4023009, 53.6185535], [55.342272099999995, 53.6256683], [55.3405118, 53.618183], [55.3185689, 53.620481], [55.31659179999999, 53.6050658], [55.2895268, 53.59607979999999], [55.28502799999999, 53.598601999999985], [55.2617972, 53.61367090000001], [55.2447911, 53.625353], [55.23067489999999, 53.63151770000001], [55.2338064, 53.6357093], [55.2365063, 53.636615], [55.2385513, 53.635662499999995], [55.2406168, 53.637048899999996], [55.2421342, 53.63715739999999], [55.2473536, 53.64169170000001], [55.25112039999999, 53.64362479999999], [55.2529195, 53.6455911], [55.25668629999999, 53.64685750000001], [55.260734199999995, 53.65118960000001], [55.2645009, 53.6523891], [55.2670152, 53.65382389999999], [55.26662759999999, 53.6567648], [55.27200659999999, 53.6600084], [55.2824883, 53.66104380000001], [55.2880906, 53.6641125], [55.292124199999996, 53.6671368], [55.302830799999995, 53.6687448], [55.30478870000001, 53.66946709999999], [55.3272811, 53.6772897], [55.33991689999999, 53.6919182], [55.32761649999999, 53.69394820000001], [55.33457709999999, 53.6992104], [55.33788870000001, 53.704841], [55.3416384, 53.7073296], [55.34401389999999, 53.709277199999995], [55.34466119999999, 53.71156140000001], [55.3469768, 53.7133003], [55.3473813, 53.7150547], [55.348993699999994, 53.7178829], [55.35081129999999, 53.7190616], [55.3509076, 53.721980300000006], [55.3546691, 53.72356820000001], [55.353350999999996, 53.7289469], [55.3544715, 53.73009579999999], [55.3542626, 53.7310351], [55.356737300000006, 53.73142150000001], [55.35783279999999, 53.7338371], [55.35972519999999, 53.7343379], [55.361468099999996, 53.7365913], [55.3634832, 53.7378028], [55.3646552, 53.73803459999999], [55.363634299999994, 53.741598399999994], [55.3654021, 53.7437778], [55.3642841, 53.744025199999996], [55.3645805, 53.745589], [55.3658752, 53.7453092], [55.3670455, 53.7476209], [55.3660246, 53.7477534], [55.3678215, 53.7497277], [55.365754499999994, 53.7508824], [55.36951049999999, 53.7541725], [55.37173859999999, 53.7546474], [55.37328109999999, 53.766937399999996], [55.3719354, 53.7682004], [55.37328109999999, 53.77163660000001], [55.372009, 53.773328199999995], [55.3741557, 53.77530159999999], [55.3732016, 53.7792013], [55.3741865, 53.7815499], [55.3258386, 53.7737688], [55.32375909999999, 53.790610900000004], [55.3576494, 53.814280999999994], [55.391578499999994, 53.80246129999999], [55.3964773, 53.80218300000001], [55.3973725, 53.803269799999995], [55.3996384, 53.8040638], [55.398742, 53.8054754], [55.399563699999995, 53.8071222], [55.4038712, 53.8085336], [55.4035226, 53.8099303], [55.4050166, 53.810636], [55.4090511, 53.8149645], [55.4125971, 53.814600899999995], [55.417141199999996, 53.817052700000005], [55.417291799999994, 53.81445829999999], [55.41889919999999, 53.812255699999994], [55.4206591, 53.8115375], [55.4257336, 53.809059799999986], [55.4342733, 53.80450789999998], [55.4354693, 53.80452270000001], [55.435773999999995, 53.80456589999999], [55.43904919999999, 53.8065232], [55.4382792, 53.8217685], [55.42607069999999, 53.8243625], [55.426393399999995, 53.8246431], [55.4262255, 53.82502219999999], [55.42657129999999, 53.82527300000001], [55.42649219999999, 53.82561119999999], [55.4267392, 53.82578029999999], [55.4266503, 53.82616519999999], [55.426946699999995, 53.826561699999985], [55.4270356, 53.82701070000001], [55.4266108, 53.82732560000001], [55.42634399999999, 53.827798], [55.426294600000006, 53.82835190000001], [55.4263965, 53.8286997], [55.4270356, 53.8290983], [55.428283, 53.8292949], [55.42938699999999, 53.83014209999999], [55.43000669999999, 53.83097399999999], [55.3651297, 53.8567731], [55.37085379999999, 53.861889999999995], [55.3250048, 53.880297999999996], [55.3200426, 53.8822883], [55.3448604, 53.905223400000004], [55.36689609999999, 53.923247200000006], [55.39830009999999, 53.9510494], [55.405417, 53.957347399999996], [55.46422030000001, 53.9347983], [55.487818399999995, 53.9262382], [55.4898522, 53.92789309999999], [55.4913013, 53.92741289999999], [55.491913399999994, 53.9267214], [55.49344560000001, 53.92680999999999], [55.5171285, 53.926399299999986], [55.5220654, 53.9099308], [55.553458299999996, 53.910054699999996], [55.5617935, 53.905135400000006], [55.563636, 53.90588350000001], [55.56405209999999, 53.90562460000001], [55.56467669999999, 53.90565219999999], [55.56649939999999, 53.904548600000005], [55.5675344, 53.90471389999999], [55.5682527, 53.904539099999994], [55.5692521, 53.90462190000001], [55.5700641, 53.903977899999994], [55.5706106, 53.90406069999999], [55.570907299999995, 53.9044747], [55.5714045, 53.90460729999999], [55.57334339999999, 53.90396869999999], [55.5737806, 53.903545499999986], [55.57376500000001, 53.9028095], [55.57561919999999, 53.90225160000001], [55.5660329, 53.8847437], [55.5853253, 53.881564], [55.585643499999996, 53.8805321], [55.5847896, 53.8794246], [55.584936, 53.87861909999999], [55.58422839999999, 53.8780438], [55.58435039999999, 53.87731019999999], [55.583715999999995, 53.876375299999985], [55.58359399999999, 53.8749224], [55.5826668, 53.873858000000006], [55.5830084, 53.8733976], [55.5822032, 53.8728222], [55.58252040000001, 53.872016699999996], [55.5821788, 53.8717577], [55.582618, 53.8713261], [55.58188599999999, 53.8701896], [55.58117849999999, 53.8691682], [55.581032099999995, 53.8684201], [55.58091009999999, 53.867269099999994], [55.5800317, 53.866578499999996], [55.5803245, 53.8662476], [55.57961689999999, 53.8653987], [55.5796657, 53.86439159999999], [55.57893369999999, 53.8632693], [55.5799341, 53.86276569999999], [55.581227299999995, 53.8611253], [55.5815741, 53.859507599999986], [55.58134929999999, 53.8563766], [55.57661579999999, 53.8468486], [55.5871075, 53.8453948], [55.5820324, 53.83271109999999], [55.5695888, 53.83273989999999], [55.5699792, 53.8301912], [55.5718091, 53.8287655], [55.5725411, 53.8274263], [55.57407829999999, 53.82669179999999], [55.57590819999999, 53.8236242], [55.5501181, 53.82751270000001], [55.54387189999999, 53.815255699999994], [55.54046389999999, 53.808689799999996], [55.5402608, 53.7986721], [55.537869699999995, 53.7983407], [55.5373329, 53.79907560000001], [55.53650329999999, 53.7988018], [55.535990899999994, 53.7992053], [55.5341122, 53.79874420000001], [55.533136199999994, 53.798917100000004], [55.53339999999999, 53.781699999999994], [55.533184999999996, 53.768715699999994], [55.5350882, 53.768412899999994], [55.537894099999995, 53.7690185], [55.540358399999995, 53.76986939999999], [55.541065999999994, 53.77007129999999], [55.5422372, 53.7699559], [55.543213099999996, 53.771152799999996], [55.5456026, 53.772077499999995], [55.548702999999996, 53.77245059999999], [55.54945940000001, 53.7722632], [55.551118499999994, 53.77275339999999], [55.5523629, 53.772479499999996], [55.570101199999996, 53.7733735], [55.6064806, 53.776661000000004], [55.62407249999999, 53.7782326], [55.6231515, 53.7828438], [55.6200466, 53.80102099999999], [55.641103199999996, 53.803427400000004], [55.6410056, 53.801784700000006], [55.6504027, 53.7918595], [55.6402808, 53.782659699999996], [55.667552099999995, 53.77493080000001], [55.682166699999996, 53.772669799999996], [55.6862246, 53.7756143], [55.6889955, 53.776018], [55.6915854, 53.77857860000001], [55.6931828, 53.7794981], [55.6936808, 53.7796897], [55.6939238, 53.780035999999996], [55.6941202, 53.78002670000001], [55.69429089999999, 53.779907], [55.6943493, 53.77997679999999], [55.69431289999999, 53.780187100000006], [55.694784, 53.7806189], [55.69536769999999, 53.7812132], [55.6958735, 53.78144249999999], [55.696820699999996, 53.78251879999999], [55.6976628, 53.782960300000006], [55.69806729999999, 53.783201799999986], [55.6985323, 53.78320730000001], [55.6989058, 53.783502999999996], [55.699017299999994, 53.78394829999999], [55.6993959, 53.784139999999994], [55.6994861, 53.78449979999999], [55.699871599999994, 53.7846779], [55.7002778, 53.784639], [55.700673, 53.784852199999996], [55.7010155, 53.7851306], [55.7014708, 53.785416399999995], [55.7015977, 53.7858507], [55.7021001, 53.786095499999995], [55.7022891, 53.78643799999999], [55.702517199999996, 53.7865896], [55.7027376, 53.7868973], [55.702851900000006, 53.78726970000001], [55.7033746, 53.78756069999999], [55.7044266, 53.787599], [55.705140199999995, 53.78728339999999], [55.7056518, 53.78730929999999], [55.7064552, 53.787192899999994], [55.70679510000001, 53.78696029999999], [55.7075727, 53.787073799999995], [55.7084773, 53.7873163], [55.70953759999999, 53.7873942], [55.710583, 53.787434999999995], [55.7115374, 53.78738179999999], [55.7120591, 53.7873686], [55.7127274, 53.787617], [55.71347879999999, 53.787570099999996], [55.714166999999996, 53.7878536], [55.71515509999999, 53.78757430000001], [55.716073699999995, 53.787287], [55.71699629999999, 53.7862495], [55.71903460000001, 53.7853976], [55.71925939999999, 53.78525810000001], [55.720510600000004, 53.785337500000004], [55.7210223, 53.78528639999999], [55.721986799999996, 53.78542920000001], [55.7228639, 53.78561], [55.7230252, 53.78531069999998], [55.723808299999995, 53.78513699999999], [55.7242315, 53.7850111], [55.72518289999999, 53.78500369999999], [55.7255716, 53.7847715], [55.72665680000001, 53.78483649999999], [55.7273363, 53.784695400000004], [55.72764529999999, 53.78456270000001], [55.72915939999999, 53.78439769999999], [55.72966739999999, 53.7842979], [55.73031029999999, 53.7844032], [55.73072979999999, 53.7842796], [55.731695099999996, 53.7838191], [55.73269139999999, 53.7839147], [55.733369599999996, 53.78368280000001], [55.73402509999999, 53.78374079999999], [55.73416449999999, 53.7839119], [55.73436649999999, 53.783988799999996], [55.737983099999994, 53.789826], [55.741741899999994, 53.79567670000001], [55.7473866, 53.7983695], [55.753730399999995, 53.80841269999999], [55.7546606, 53.80835140000001], [55.75513289999999, 53.8082945], [55.7598547, 53.8083407], [55.7520469, 53.7927777], [55.7476306, 53.7838984], [55.7492166, 53.78025099999999], [55.75575559999999, 53.776978199999995], [55.760708599999994, 53.7774396], [55.761928600000005, 53.7794725], [55.7623434, 53.78591660000001], [55.7678576, 53.78418670000001], [55.7748847, 53.795343100000004], [55.7749823, 53.797663299999996], [55.776007, 53.79808129999999], [55.77808099999999, 53.79362799999999], [55.7751774, 53.78960670000001], [55.77132240000001, 53.78459039999999], [55.77081, 53.78212520000001], [55.7801305, 53.77870839999999], [55.782887599999995, 53.777627], [55.7905246, 53.7751615], [55.7917934, 53.774699999999996], [55.794013699999994, 53.7750605], [55.79599009999999, 53.77472889999999], [55.7976492, 53.77413769999999], [55.799162, 53.7737195], [55.799308399999994, 53.7732725], [55.8000891, 53.773258099999985], [55.80152869999999, 53.772739], [55.8018947, 53.7717008], [55.808409299999994, 53.769754], [55.808848499999996, 53.76596120000001], [55.80928769999999, 53.7634084], [55.8140456, 53.76248530000001], [55.8220973, 53.76809560000001], [55.821096999999995, 53.769234899999994], [55.8222925, 53.7703597], [55.82463490000001, 53.7697973], [55.82900229999999, 53.77591120000001], [55.82840149999999, 53.777270699999995], [55.8247325, 53.7800348], [55.82385409999999, 53.782327], [55.8228537, 53.7839272], [55.8232685, 53.78502279999999], [55.8246593, 53.78483539999999], [55.82575719999999, 53.781476500000004], [55.82712359999999, 53.77980410000001], [55.8295879, 53.7788525], [55.8318327, 53.7789823], [55.830978699999996, 53.782601], [55.83236939999999, 53.7832929], [55.8341018, 53.7800348], [55.835907299999995, 53.779198599999994], [55.83710289999999, 53.7785353], [55.8385669, 53.7765024], [55.835639, 53.776387], [55.8357366, 53.775695], [55.837005299999994, 53.7747145], [55.843007500000006, 53.77472889999999], [55.8427636, 53.7739791], [55.838713299999995, 53.77395020000001], [55.8376885, 53.7737772], [55.8408116, 53.7718017], [55.84181199999999, 53.77240739999999], [55.843007500000006, 53.7725227], [55.8479322, 53.7762808], [55.8500147, 53.77812169999999], [55.8487902, 53.78738689999999], [55.8463015, 53.788886], [55.8482778, 53.79185520000001], [55.8480826, 53.795069199999986], [55.846911399999996, 53.7960204], [55.84359309999999, 53.796928400000006], [55.8452279, 53.8025196], [55.846164, 53.8059238], [55.849302599999994, 53.8150252], [55.86247819999999, 53.8287943], [55.8696786, 53.84236649999998], [55.87098739999999, 53.841833099999995], [55.87222369999999, 53.84177249999999], [55.87363299999999, 53.8421478], [55.873946399999994, 53.8419611], [55.87385559999999, 53.841403699999994], [55.874066, 53.84119629999999], [55.8749847, 53.84129449999999], [55.87595280000001, 53.84132379999999], [55.8764794, 53.84184210000001], [55.8774675, 53.84144559999999], [55.8779411, 53.841573600000004], [55.8782683, 53.84178320000001], [55.8786165, 53.8417901], [55.8789647, 53.8419217], [55.879253899999995, 53.8421896], [55.8796406, 53.8423807], [55.8799108, 53.8423954], [55.8802136, 53.8424868], [55.8803567, 53.8426311], [55.8804347, 53.84276590000001], [55.880772099999994, 53.842869], [55.88125579999999, 53.8428281], [55.8816833, 53.84243059999999], [55.8824315, 53.8424134], [55.8829921, 53.8426071], [55.8832163, 53.842951799999994], [55.88341789999999, 53.84313379999999], [55.88359189999999, 53.843218799999995], [55.8838065, 53.84321750000001], [55.8842318, 53.8430777], [55.884419599999994, 53.842932], [55.884510799999994, 53.84286119999999], [55.8853648, 53.84398410000001], [55.8828516, 53.84454550000001], [55.875239, 53.8472229], [55.8757026, 53.847554], [55.8756538, 53.8479858], [55.87650779999999, 53.8487342], [55.8758246, 53.84952590000001], [55.8828028, 53.85010159999999], [55.89807679999999, 53.8595569], [55.8987356, 53.86162889999999], [55.91552229999999, 53.87479299999999], [55.9143467, 53.879268399999994], [55.9133508, 53.88353790000001], [55.91530269999999, 53.88920389999999], [55.926258, 53.8897935], [55.928063599999994, 53.8859396], [55.925257699999996, 53.8850768], [55.925452799999995, 53.8843145], [55.926014, 53.884185099999996], [55.9257456, 53.8820278], [55.9270388, 53.881323099999996], [55.9275512, 53.88081970000001], [55.9276, 53.8799999], [55.928063599999994, 53.8797698], [55.92764879999999, 53.879223200000006], [55.92833199999999, 53.8784897], [55.92813679999999, 53.8778856], [55.928698, 53.8767061], [55.9301375, 53.876404], [55.9305279, 53.8759006], [55.932406699999994, 53.8761451], [55.93316299999999, 53.8759725], [55.9336998, 53.87602999999999], [55.934553799999996, 53.87555539999999], [55.936847300000004, 53.87498000000001], [55.9387637, 53.8740394], [55.94199559999999, 53.8721461], [55.942434799999994, 53.87134049999999], [55.94263, 53.870822600000004], [55.9432643, 53.870477400000006], [55.94270319999999, 53.8692977], [55.9445575, 53.8689668], [55.9446307, 53.8669238], [55.9439719, 53.8648088], [55.9465583, 53.8627081], [55.95109649999999, 53.8625498], [55.957391599999994, 53.86872219999999], [55.9593923, 53.8687078], [55.961637, 53.872031], [55.961637, 53.87431829999999], [55.9589775, 53.8759725], [55.959514299999995, 53.8768356], [55.9583431, 53.88023], [55.95543959999999, 53.88503360000001], [55.9559032, 53.88841300000001], [55.96585809999999, 53.8900523], [55.9690056, 53.8912314], [55.97102730000001, 53.8916142], [55.9744955, 53.8929712], [55.973348699999995, 53.8942653], [55.9844748, 53.8960625], [55.987089899999994, 53.88903100000001], [55.99265599999999, 53.8909183], [55.994104699999994, 53.8923787], [55.99559150000001, 53.892715700000004], [55.996659, 53.893839], [55.99745959999999, 53.89675939999999], [55.998384, 53.8969341], [55.99863779999999, 53.8971987], [55.9993, 53.897199999999984], [56.0208558, 53.89705059999999], [56.02103879999999, 53.90010560000001], [56.02939549999999, 53.90014149999999], [56.030951, 53.890904000000006], [56.05955920000001, 53.8904726], [56.0711184, 53.90414859999999], [56.0672145, 53.9116407], [56.06746369999999, 53.91341709999999], [56.0695629, 53.919652299999996], [56.07502229999999, 53.92554329999999], [56.079078599999995, 53.9266388], [56.0793226, 53.9259563], [56.077553699999996, 53.92486079999999], [56.080390099999995, 53.92477100000001], [56.0805731, 53.9259743], [56.0815491, 53.92604610000001], [56.082281099999996, 53.924842899999994], [56.083257, 53.92522], [56.0856665, 53.9254714], [56.0887774, 53.924591400000004], [56.09143079999999, 53.92477100000001], [56.0916443, 53.9253098], [56.0930473, 53.9252739], [56.09481619999999, 53.9225979], [56.09771359999999, 53.923082799999996], [56.09942160000001, 53.9238731], [56.1004585, 53.9248069], [56.110309799999996, 53.924465699999985], [56.1145492, 53.92338809999999], [56.115006599999994, 53.9212868], [56.1184225, 53.92065809999998], [56.11933749999999, 53.9236755], [56.1281213, 53.926584899999995], [56.1440113, 53.920352799999996], [56.14574979999999, 53.9166526], [56.1480067, 53.9157365], [56.149958700000006, 53.91120949999999], [56.157309, 53.91252099999999], [56.1587729, 53.91341920000001], [56.160480899999996, 53.9151078], [56.1633783, 53.916257399999985], [56.16856309999999, 53.922023199999984], [56.1713081, 53.92198719999999], [56.1796343, 53.9275367], [56.18064079999999, 53.92978139999999], [56.1846362, 53.9276085], [56.1852462, 53.9253816], [56.1818608, 53.9240706], [56.18277569999999, 53.922579899999995], [56.1857952, 53.9225081], [56.1859477, 53.91950859999999], [56.1850632, 53.9167784], [56.1828672, 53.91609580000001], [56.18369069999999, 53.914784399999995], [56.18500219999999, 53.9147306], [56.184727699999996, 53.911227499999995], [56.1828672, 53.9104191], [56.184117699999994, 53.9075624], [56.1852585, 53.903701399999996], [56.1853533, 53.89934829999999], [56.17800059999999, 53.8991543], [56.176135, 53.897473100000006], [56.1772324, 53.8954038], [56.1958886, 53.88958340000001], [56.194791099999996, 53.887254999999996], [56.24187020000001, 53.871331299999994], [56.239401, 53.8667047], [56.24013849999999, 53.86096589999999], [56.23616359999999, 53.8577736], [56.23062159999999, 53.8559613], [56.2208291, 53.8560983], [56.2177147, 53.8535265], [56.217558999999994, 53.85031159999999], [56.2272187, 53.84674569999999], [56.228366799999996, 53.843133099999996], [56.220712799999994, 53.83349830000001], [56.21915359999999, 53.8283458], [56.2158613, 53.8233258], [56.2114716, 53.82154429999999], [56.2077953, 53.82076699999999], [56.2048322, 53.82206259999999], [56.20292129999999, 53.8243073], [56.20151979999999, 53.8322114], [56.19730379999999, 53.8342864], [56.1965089, 53.83479669999999], [56.1959583, 53.835439599999994], [56.195065199999995, 53.8373479], [56.19123739999999, 53.838495], [56.188894499999996, 53.83897880000001], [56.1871359, 53.83883970000001], [56.18557090000001, 53.8386024], [56.18456729999999, 53.8383523], [56.1834874, 53.8369917], [56.1841459, 53.8345957], [56.19018169999999, 53.8304831], [56.1942421, 53.82685599999999], [56.1923765, 53.82364969999999], [56.1826095, 53.8204754], [56.17399999999999, 53.8222], [56.165704, 53.82283670000001], [56.162307199999994, 53.8234877], [56.1574508, 53.82283670000001], [56.1534021, 53.815666300000004], [56.155393499999995, 53.813931899999986], [56.16040949999999, 53.81226459999999], [56.1655995, 53.81014129999999], [56.1681956, 53.806012], [56.16834299999999, 53.802980500000004], [56.16539259999999, 53.8007702], [56.1618134, 53.798411200000004], [56.15709449999999, 53.79789259999999], [56.150455099999995, 53.79922140000001], [56.1460832, 53.8027015], [56.1457362, 53.8067717], [56.1421902, 53.8096901], [56.138218900000005, 53.8101089], [56.1331584, 53.8096901], [56.12817749999999, 53.8076465], [56.1253724, 53.805276400000004], [56.125817999999995, 53.8019435], [56.12971389999999, 53.79750370000001], [56.1290765, 53.7929958], [56.124885199999994, 53.78894689999999], [56.1157218, 53.7855107], [56.11160639999999, 53.785543100000005], [56.107546, 53.78648319999999], [56.100467599999995, 53.789206199999995], [56.09607799999999, 53.7886875], [56.0936088, 53.7864184], [56.09348299999999, 53.7857524], [56.09322469999999, 53.7844733], [56.0948159, 53.782041799999995], [56.1029368, 53.7795777], [56.10803980000001, 53.7800965], [56.1133623, 53.77996679999999], [56.11489869999999, 53.778540099999994], [56.1141305, 53.77649739999998], [56.1168741, 53.77325470000001], [56.119507899999995, 53.77276830000001], [56.1289519, 53.77363770000001], [56.1349815, 53.77302779999999], [56.138383499999996, 53.7714063], [56.1372861, 53.7678065], [56.1350364, 53.7654714], [56.13453859999999, 53.7645148], [56.1350591, 53.76426579999998], [56.13783399999999, 53.76319229999999], [56.13929389999999, 53.7615447], [56.1393154, 53.7596535], [56.13833879999999, 53.7580077], [56.136754399999994, 53.7554541], [56.144803399999994, 53.751717199999995], [56.1595637, 53.74490329999999], [56.15522889999999, 53.7409767], [56.15748, 53.7359264], [56.15478989999999, 53.7345506], [56.15411639999999, 53.73098900000001], [56.17322659999999, 53.72773389999999], [56.1784393, 53.710330199999994], [56.1780351, 53.705850899999994], [56.17714320000001, 53.7055678], [56.16493309999999, 53.7016925], [56.15647800000001, 53.69657440000001], [56.1575035, 53.69016469999999], [56.1592529, 53.68626650000001], [56.159025699999994, 53.68339589999999], [56.145014499999995, 53.68716349999999], [56.124338599999994, 53.6874775], [56.12670959999999, 53.709611499999994], [56.1277451, 53.716155199999996], [56.12297459999999, 53.71639040000001], [56.12154339999999, 53.71817829999999], [56.116120599999995, 53.7177215], [56.11152539999999, 53.7154023], [56.106477, 53.7148132], [56.10316459999999, 53.7137404], [56.1011309, 53.713368], [56.09631509999999, 53.7125023], [56.09503039999999, 53.7144595], [56.0945469, 53.71474630000001], [56.08839259999999, 53.7152973], [56.0838951, 53.7172475], [56.08244049999999, 53.7169234], [56.0810461, 53.7175781], [56.0794202, 53.71708770000001], [56.0791533, 53.717238800000004], [56.0789756, 53.7172997], [56.07465890000001, 53.718780200000005], [56.07139209999999, 53.7188482], [56.068443099999996, 53.7191603], [56.064867, 53.71850539999999]], [[55.93758559999999, 53.5778601], [55.93758299999999, 53.579688700000005], [55.936263499999995, 53.57971439999999], [55.9353495, 53.5801864], [55.9351153, 53.5799897], [55.935589500000006, 53.57974910000001], [55.935490099999996, 53.5778647], [55.93758559999999, 53.5778601]]], [[[56.0977023, 53.68164209999999], [56.0956251, 53.68190609999999], [56.0942471, 53.68211720000001], [56.0939455, 53.6816624], [56.0918386, 53.6820925], [56.0905909, 53.682043799999995], [56.09042629999999, 53.6826122], [56.08749219999999, 53.683846499999994], [56.08780049999999, 53.68421260000001], [56.088828199999995, 53.684614499999995], [56.0902631, 53.687025899999995], [56.093792, 53.6872326], [56.0939859, 53.688139699999994], [56.0963709, 53.689988299999996], [56.09850469999999, 53.68898279999999], [56.1013541, 53.68708329999999], [56.0992794, 53.6854183], [56.1010826, 53.6851427], [56.101664299999996, 53.68393699999999], [56.101896999999994, 53.682846], [56.103467599999995, 53.681984799999995], [56.10199589999999, 53.68090420000001], [56.1023228, 53.67949420000001], [56.098141, 53.6795105], [56.097661099999996, 53.6808017], [56.0977023, 53.68164209999999]]]]}}]}