{"type": "FeatureCollection", "features": [{"type": "Feature", "properties": {"id": "city-14740000", "name": "ГО Старооскольский", "region": "Белгородская область", "isCity": true, "sourceOktmo": "14-740-000-000", "sourceAgg": "Старый Оскол", "excelNames": ["ГО Старооскольский"], "oktmo": "14740000", "vgp": [{"year": 2019, "value": 228115344.83331916}, {"year": 2020, "value": 223913631.8813672}, {"year": 2021, "value": 289923953.761863}, {"year": 2022, "value": 308556412.1718376}, {"year": 2023, "value": 328965202.1117474}, {"year": 2024, "value": 378929112.9944376}], "population": [{"year": 2019, "value": 259811.0}, {"year": 2020, "value": 259627.0}, {"year": 2021, "value": 259023.0}, {"year": 2022, "value": 257375.0}, {"year": 2023, "value": 252329.0}, {"year": 2024, "value": 250703.0}, {"year": 2025, "value": 249329.0}], "shipments": [{"year": 2019, "value": 272467635.9}, {"year": 2020, "value": 281343335.8}, {"year": 2021, "value": 427278739.7}, {"year": 2022, "value": 386026061.1}, {"year": 2023, "value": 388671512.3}, {"year": 2024, "value": 478283940.3}], "employees": [{"year": 2019, "value": 66397.0}, {"year": 2020, "value": 64793.0}, {"year": 2021, "value": 62933.0}, {"year": 2022, "value": 63352.0}, {"year": 2023, "value": 62190.0}, {"year": 2024, "value": 63359.0}], "investments": [{"year": 2019, "value": 24365226.0}, {"year": 2020, "value": 21366534.0}, {"year": 2021, "value": 17314170.0}, {"year": 2022, "value": 25868589.0}, {"year": 2023, "value": 28641824.0}, {"year": 2024, "value": 32196747.0}], "vgp2024": 378929112.9944376, "pop2024": 250703.0, "ship2024": 478283940.3, "emp2024": 63359.0, "inv2024": 32196747.0}, "geometry": {"type": "MultiPolygon", "coordinates": [[[[38.2890021, 51.2964678], [38.29205199999999, 51.294052799999996], [38.2992794, 51.293930700000004], [38.3027718, 51.290024], [38.3042437, 51.2901737], [38.3050573, 51.2910039], [38.31019729999999, 51.29190239999999], [38.3109062, 51.2856233], [38.31192349999999, 51.2813068], [38.316326100000005, 51.2821718], [38.3199033, 51.2779004], [38.323918299999995, 51.273105799999996], [38.3198199, 51.271446299999994], [38.335277299999994, 51.2561434], [38.34607449999999, 51.2578633], [38.3511179, 51.2607858], [38.35253109999999, 51.2622864], [38.355183399999994, 51.26341819999998], [38.35875899999999, 51.2635471], [38.36182169999999, 51.263032100000004], [38.363687299999995, 51.2628492], [38.3632907, 51.26536910000001], [38.3756793, 51.2708442], [38.3815461, 51.272989], [38.3911386, 51.2794746], [38.399248500000006, 51.2871133], [38.40121729999999, 51.2870475], [38.40853369999999, 51.2867958], [38.4172562, 51.28649570000001], [38.434291699999996, 51.28578], [38.433475, 51.267595799999995], [38.4463099, 51.266862499999995], [38.446568299999996, 51.2653943], [38.44533719999999, 51.26382009999999], [38.4454442, 51.2617433], [38.4472107, 51.260436999999996], [38.44833799999999, 51.2596326], [38.44833799999999, 51.2586277], [38.44817749999999, 51.256751699999995], [38.4483134, 51.2550316], [38.4482589, 51.25386489999999], [38.4481239, 51.2523631], [38.449462100000005, 51.2511905], [38.4501045, 51.2501183], [38.449248, 51.2487781], [38.4495916, 51.247710599999984], [38.4523527, 51.2464997], [38.4540656, 51.2444892], [38.4536373, 51.2428138], [38.45501699999999, 51.24159], [38.4564208, 51.2411047], [38.459311299999996, 51.2399653], [38.459204299999996, 51.2370497], [38.460976099999996, 51.23625700000001], [38.462232799999995, 51.234996200000005], [38.462398, 51.233691], [38.465409, 51.2303916], [38.46711440000001, 51.22891829999999], [38.4684199, 51.2278252], [38.4689674, 51.22669640000001], [38.4701973, 51.2258698], [38.4715699, 51.2248018], [38.4724456, 51.22361769999999], [38.46637079999999, 51.2232389], [38.465372499999994, 51.22269189999999], [38.45762, 51.222781100000006], [38.45596019999999, 51.21674389999999], [38.465372499999994, 51.2136517], [38.4656267, 51.2135867], [38.4708436, 51.21225210000001], [38.4731089, 51.2115673], [38.47547099999999, 51.2110988], [38.476311599999995, 51.211215499999994], [38.476706699999994, 51.211371899999996], [38.47716539999999, 51.21215709999999], [38.4775594, 51.2127398], [38.478774, 51.212798], [38.4806328, 51.212634200000004], [38.482758499999996, 51.213169699999995], [38.48397109999999, 51.213577400000005], [38.485832099999996, 51.2116366], [38.4912883, 51.211625399999996], [38.4949058, 51.211618], [38.5023682, 51.21160270000001], [38.5193896, 51.2110233], [38.52173839999999, 51.2031279], [38.5240653, 51.19520729999999], [38.5244743, 51.1934164], [38.5249761, 51.193031899999994], [38.52542729999999, 51.1871248], [38.508846, 51.183682299999994], [38.5062885, 51.1769937], [38.5105858, 51.1743915], [38.5118226, 51.1740893], [38.512870799999995, 51.1732613], [38.51765019999999, 51.1703829], [38.5205011, 51.1696994], [38.520612799999995, 51.1692963], [38.52222, 51.16349509999999], [38.5123886, 51.165835], [38.5113405, 51.16587439999999], [38.50983120000001, 51.166439600000004], [38.5025731, 51.16831929999999], [38.4892113, 51.1695209], [38.48382879999999, 51.16230699999999], [38.4684256, 51.1627595], [38.4561079, 51.163772699999996], [38.43096849999999, 51.164932], [38.4206968, 51.1650634], [38.413737299999994, 51.1655629], [38.411662, 51.16598359999999], [38.41199739999999, 51.164406199999995], [38.411662, 51.1626972], [38.39623360000001, 51.162881299999995], [38.3963594, 51.15783299999999], [38.3962003, 51.151985799999984], [38.380352699999996, 51.1502075], [38.38045749999999, 51.14175169999999], [38.3807936, 51.13619460000001], [38.381193, 51.1295898], [38.40724989999999, 51.13002430000001], [38.4074071, 51.1280773], [38.40738609999999, 51.1263013], [38.4069564, 51.1246238], [38.406275099999995, 51.12027539999999], [38.40593379999999, 51.1171478], [38.4068516, 51.10417389999999], [38.4059079, 51.09924180000001], [38.4058005, 51.0989509], [38.405063, 51.0992325], [38.4041848, 51.0991976], [38.4035474, 51.099590799999994], [38.4024542, 51.09982589999999], [38.40147219999999, 51.0997979], [38.4011239, 51.0996094], [38.400468, 51.0996211], [38.399956599999996, 51.099784], [38.3991858, 51.0997747], [38.39794570000001, 51.09949619999999], [38.3974531, 51.09953240000001], [38.3971859, 51.09945679999999], [38.3968714, 51.0993514], [38.396347399999996, 51.0990125], [38.396294899999994, 51.0986735], [38.39602769999999, 51.09843649999999], [38.396169199999996, 51.0979988], [38.3960958, 51.09774540000001], [38.39578139999999, 51.097567700000006], [38.3954826, 51.09757100000001], [38.39525209999999, 51.097445900000004], [38.3952573, 51.09724189999999], [38.395786599999994, 51.0968634], [38.3957499, 51.0963697], [38.395577, 51.0960999], [38.39532539999999, 51.0959518], [38.3947175, 51.09586289999999], [38.3941411, 51.09614919999999], [38.3935751, 51.0963302], [38.3929095, 51.09583000000001], [38.392385399999995, 51.0955469], [38.391919, 51.0955042], [38.39081749999999, 51.09526300000001], [38.38893399999999, 51.0955542], [38.38893399999999, 51.0965543], [38.38784449999999, 51.0972385], [38.386587299999995, 51.0972912], [38.385413899999996, 51.0967122], [38.3839053, 51.0966596], [38.38331869999999, 51.097396399999994], [38.383311799999994, 51.0974697], [38.383151, 51.09918590000001], [38.381307199999995, 51.09987019999999], [38.3808881, 51.102080599999994], [38.3805529, 51.10334370000001], [38.37929569999999, 51.1031858], [38.379128099999996, 51.102554199999986], [38.3777033, 51.10192269999999], [38.3747699, 51.10171220000001], [38.3731774, 51.10197529999999], [38.3700764, 51.10144900000001], [38.368400199999996, 51.100817500000005], [38.366304899999996, 51.1026069], [38.3665563, 51.10413299999999], [38.365382999999994, 51.105027699999994], [38.3648801, 51.1040804], [38.3634553, 51.10365939999999], [38.3636229, 51.1023437], [38.3610248, 51.10197529999999], [38.3603543, 51.10265950000001], [38.3608571, 51.1040804], [38.35968379999999, 51.10413299999999], [38.35968379999999, 51.1048698], [38.3557446, 51.1045541], [38.3552418, 51.1035015], [38.35239219999999, 51.100343800000005], [38.3521407, 51.099080699999995], [38.347866399999994, 51.0907115], [38.3495426, 51.0900798], [38.3316069, 51.083235900000005], [38.32473439999999, 51.080971899999994], [38.31802939999999, 51.077286099999995], [38.31601799999999, 51.0723888], [38.314760799999995, 51.0650682], [38.3121626, 51.0608543], [38.3109893, 51.0562187], [38.272687399999995, 51.0588], [38.2658148, 51.051846], [38.2519021, 51.0527417], [38.250393499999994, 51.05569190000001], [38.2489687, 51.0545856], [38.24754389999999, 51.0545329], [38.24754389999999, 51.050002000000006], [38.2444429, 51.047631], [38.2389113, 51.04784179999999], [38.2367322, 51.04557599999999], [38.23254159999999, 51.04452220000001], [38.220388899999996, 51.0437318], [38.221646099999994, 51.04093889999999], [38.216785, 51.040043000000004], [38.20656000000001, 51.03672280000001], [38.2046324, 51.0369864], [38.1980951, 51.03656469999999], [38.197676, 51.03540530000001], [38.190132999999996, 51.030187299999994], [38.187031899999994, 51.0297129], [38.1825061, 51.0282897], [38.172029699999996, 51.02834239999999], [38.1664143, 51.0254958], [38.15803309999999, 51.0214366], [38.15415999999999, 51.0235209], [38.15049009999999, 51.0254958], [38.1531721, 51.02834239999999], [38.1543454, 51.02876409999999], [38.153842499999996, 51.0319267], [38.1457128, 51.036775500000005], [38.1353202, 51.0479998], [38.09486749999999, 51.0595854], [38.0786636, 51.0642254], [38.0707853, 51.065700199999995], [38.0709566, 51.06690110000001], [38.07112049999999, 51.0681229], [38.072712900000006, 51.0688603], [38.07430539999999, 51.0720728], [38.076233, 51.07554840000001], [38.06709759999999, 51.078181199999996], [38.0662594, 51.0760749], [38.0653375, 51.074179199999996], [38.0655051, 51.0723888], [38.0589678, 51.07275739999999], [38.0565373, 51.0723361], [38.0504191, 51.0730734], [38.047485699999996, 51.072178099999995], [38.04564179999999, 51.060169599999995], [38.047318, 51.0565348], [38.0431274, 51.05505969999999], [38.0277899, 51.061012399999996], [38.0264489, 51.061065], [38.021923099999995, 51.061065], [38.02100119999999, 51.060591], [38.0137934, 51.061065], [38.0120334, 51.0616971], [38.0092676, 51.061855200000004], [37.98864989999999, 51.07396860000001], [37.9826155, 51.07812859999999], [37.9593159, 51.049422400000005], [37.9314066, 51.0545856], [37.9238636, 51.0569562], [37.921349199999995, 51.057535699999995], [37.9198406, 51.0583259], [37.9174939, 51.059063300000005], [37.914476699999994, 51.0591687], [37.9117947, 51.0598008], [37.90928039999999, 51.0599062], [37.9052574, 51.0626453], [37.9022402, 51.0624872], [37.8998935, 51.06275059999999], [37.8973791, 51.0621185], [37.89444569999999, 51.0625926], [37.88799219999999, 51.06496280000001], [37.88589689999999, 51.066542899999995], [37.884639799999995, 51.0664376], [37.882460699999996, 51.06722760000001], [37.8791082, 51.0674383], [37.877432, 51.0678596], [37.8734928, 51.067806899999994], [37.87097849999999, 51.0671223], [37.8673746, 51.06796489999999], [37.865530699999994, 51.067069599999996], [37.86477639999999, 51.065963499999995], [37.8627649, 51.0662269], [37.861843, 51.0671749], [37.8604182, 51.0668062], [37.8594125, 51.0654895], [37.85597619999999, 51.063646], [37.8525399, 51.0632247], [37.8508637, 51.0637514], [37.8507799, 51.06459410000001], [37.84809789999999, 51.066279599999994], [37.8433206, 51.0660162], [37.829826999999995, 51.065963499999995], [37.8300784, 51.06722760000001], [37.824546899999994, 51.06791229999999], [37.8273126, 51.0664376], [37.83024600000001, 51.06153909999999], [37.8307489, 51.05937939999999], [37.8335985, 51.0571669], [37.8335147, 51.05648209999998], [37.8320899, 51.05669279999999], [37.8307489, 51.055006999999996], [37.8190153, 51.0593267], [37.8187639, 51.060169599999995], [37.8180095, 51.060432899999995], [37.8176743, 51.06122309999999], [37.8184286, 51.0618025], [37.8185124, 51.06269790000001], [37.8175067, 51.0640674], [37.81314849999999, 51.062223900000006], [37.81189129999999, 51.0633827], [37.8121427, 51.0645414], [37.811137, 51.06580550000001], [37.7909253, 51.0669147], [37.7813839, 51.0674383], [37.78171909999999, 51.0688603], [37.7704884, 51.0702296], [37.78280869999999, 51.0972385], [37.7841497, 51.1002912], [37.790351699999995, 51.097028], [37.79563189999999, 51.10829030000001], [37.76361579999999, 51.12249579999999], [37.7579575, 51.12521519999999], [37.7535993, 51.12595159999999], [37.7525097, 51.12647759999999], [37.751504, 51.1261094], [37.7494087, 51.12621459999999], [37.747062, 51.126161999999994], [37.744212399999995, 51.1270036], [37.7428714, 51.128476400000004], [37.7432904, 51.1300017], [37.74119519999999, 51.13047499999998], [37.73809409999999, 51.1332099], [37.7377589, 51.1344196], [37.7396865, 51.13473510000001], [37.7387646, 51.13647059999999], [37.7352445, 51.139520600000004], [37.73381969999999, 51.1389422], [37.7318921, 51.13652319999999], [37.730467299999994, 51.13668090000001], [37.72853959999999, 51.140151700000004], [37.72837199999999, 51.141781800000004], [37.73063489999999, 51.1437273], [37.728204399999996, 51.144516], [37.7257738, 51.1487222], [37.724013799999994, 51.148669599999984], [37.7201584, 51.14972110000001], [37.7173089, 51.1519817], [37.7053238, 51.1535063], [37.70063029999999, 51.1538217], [37.68655, 51.1519817], [37.6831137, 51.159183500000005], [37.6904891, 51.167960699999995], [37.690991999999994, 51.16958979999998], [37.68898049999999, 51.16969490000001], [37.6841195, 51.1716918], [37.66316659999999, 51.18529999999999], [37.6606522, 51.186403199999994], [37.6635856, 51.1913934], [37.6655971, 51.192811600000006], [37.6672733, 51.19449240000001], [37.6635856, 51.1961731], [37.64104029999999, 51.2048908], [37.63383249999999, 51.2104566], [37.634503, 51.21386929999999], [37.6328268, 51.213659299999996], [37.6280495, 51.2143943], [37.6204227, 51.21549679999999], [37.617992099999995, 51.216546699999995], [37.614891099999994, 51.21712419999999], [37.61497489999999, 51.2179117], [37.6189979, 51.21775419999999], [37.62419419999999, 51.2163368], [37.628636199999995, 51.21591680000001], [37.631401999999994, 51.2147093], [37.633497299999995, 51.21449929999999], [37.63542489999999, 51.215234300000006], [37.6382745, 51.215234300000006], [37.640286, 51.21570679999999], [37.64212989999999, 51.2156018], [37.6432194, 51.21612679999999], [37.64221369999999, 51.2178067], [37.6393641, 51.22032639999998], [37.6363469, 51.22174369999999], [37.6345868, 51.223895799999994], [37.630228599999995, 51.22531300000001], [37.63056389999999, 51.226835200000004], [37.63592779999999, 51.2260479], [37.6439737, 51.22211120000001], [37.6458176, 51.2220587], [37.6472424, 51.221691199999995], [37.6474938, 51.22100880000001], [37.6448118, 51.2185941], [37.6450633, 51.2168617], [37.6474938, 51.21665169999999], [37.6516844, 51.217334199999996], [37.6546178, 51.21838409999999], [37.6572998, 51.218436600000004], [37.6588084, 51.21953899999999], [37.6614065, 51.22022139999999], [37.6618256, 51.221113800000005], [37.6574674, 51.2243682], [37.6539473, 51.225837899999995], [37.6516006, 51.22751749999999], [37.6506786, 51.2280423], [37.6499243, 51.229459399999996], [37.6511815, 51.23035159999999], [37.6516006, 51.23176860000001], [37.6536959, 51.2312963], [37.653193, 51.22998419999999], [37.6577188, 51.227622399999994], [37.658976, 51.22814730000001], [37.6609037, 51.2263628], [37.6650942, 51.2242108], [37.66786, 51.2236334], [37.6707096, 51.2242633], [37.671212499999996, 51.225837899999995], [37.6707096, 51.2270976], [37.678084999999996, 51.22736], [37.679258399999995, 51.22694010000001], [37.6816051, 51.2277274], [37.68219179999999, 51.2286721], [37.68152129999999, 51.230719], [37.67724689999999, 51.2336054], [37.6703744, 51.2364391], [37.6671895, 51.2381183], [37.6581379, 51.2412666], [37.6571321, 51.2426308], [37.65453399999999, 51.2435752], [37.6528577, 51.2421061], [37.6510977, 51.2427882], [37.6521873, 51.2446245], [37.6423813, 51.2484019], [37.64171079999999, 51.2493462], [37.6555397, 51.2451491], [37.65679690000001, 51.2461984], [37.6611551, 51.245936099999994], [37.6627475, 51.2451491], [37.6635018, 51.2439949], [37.666518999999994, 51.242158499999995], [37.669703899999995, 51.2412666], [37.6719668, 51.24131899999999], [37.6730563, 51.2424733], [37.6754869, 51.2418437], [37.6747326, 51.24562130000001], [37.6716315, 51.252074], [37.669620099999996, 51.2554312], [37.6805994, 51.2605189], [37.682108, 51.261725199999994], [37.68328129999999, 51.2651865], [37.6836166, 51.26586820000001], [37.6831137, 51.266549999999995], [37.6836166, 51.26712680000001], [37.6840357, 51.268228], [37.6788393, 51.268123200000005], [37.67942599999999, 51.27064020000001], [37.6828623, 51.2716364], [37.6847061, 51.271112099999996], [37.68646619999999, 51.270849899999995], [37.6914111, 51.272475400000005], [37.6914111, 51.27016819999999], [37.69325489999999, 51.26995850000001], [37.6981998, 51.270482799999996], [37.70197129999999, 51.2718986], [37.70063029999999, 51.273157000000005], [37.702557999999996, 51.27488729999999], [37.6734754, 51.279448599999995], [37.673643, 51.2806019], [37.6785879, 51.28898910000001], [37.6797613, 51.29019470000001], [37.68051559999999, 51.2892512], [37.6806832, 51.288569800000005], [37.6816051, 51.2883601], [37.682359399999996, 51.28883189999999], [37.714375399999994, 51.2856868], [37.71588409999999, 51.287678699999994], [37.715464999999995, 51.288255299999996], [37.71588409999999, 51.28898910000001], [37.7137888, 51.28914639999999], [37.7126992, 51.287836], [37.70825719999999, 51.287678699999994], [37.699876, 51.300414199999985], [37.6982836, 51.3010954], [37.697361699999995, 51.3018814], [37.6968588, 51.3032962], [37.69325489999999, 51.303820200000004], [37.6851252, 51.3042918], [37.6869062, 51.30534299999999], [37.68673859999999, 51.30618129999999], [37.68523, 51.3076484], [37.68548139999999, 51.309534499999984], [37.68774429999999, 51.3101108], [37.6885824, 51.31089670000001], [37.68891769999999, 51.31173489999999], [37.6907615, 51.3116825], [37.6905907, 51.3132473], [37.6901547, 51.3140169], [37.6859642, 51.3160076], [37.68764039999999, 51.320040999999996], [37.68764039999999, 51.32129810000001], [37.69007090000001, 51.322083799999994], [37.692669099999996, 51.3236551], [37.69501579999999, 51.3239169], [37.69610539999999, 51.32580239999999], [37.6955187, 51.32674509999999], [37.6965244, 51.3295208], [37.6964406, 51.3309347], [37.696943499999996, 51.33203439999999], [37.69509959999999, 51.3352286], [37.69208239999999, 51.33679939999999], [37.6923338, 51.3382655], [37.691747199999995, 51.3395221], [37.691579499999996, 51.343605800000006], [37.69040619999999, 51.3464328], [37.6848746, 51.3489978], [37.6849584, 51.3520338], [37.6875549, 51.3532568], [37.7014745, 51.351888900000006], [37.70320639999999, 51.357178000000005], [37.7539022, 51.3873315], [37.760390900000004, 51.3910987], [37.7619046, 51.391977499999996], [37.7657232, 51.39396949999999], [37.771004999999995, 51.3966511], [37.77124549999999, 51.394763399999995], [37.7836531, 51.397038599999995], [37.7852781, 51.39169699999999], [37.8020632, 51.401498100000005], [37.8078327, 51.4036304], [37.8144374, 51.4050228], [37.8122224, 51.40902380000001], [37.81791259999999, 51.41306660000001], [37.82236120000001, 51.417478599999995], [37.8270791, 51.418735], [37.831218, 51.4227487], [37.83409489999999, 51.4238305], [37.8359274, 51.4240834], [37.836551799999995, 51.4247604], [37.837894999999996, 51.4251404], [37.838734, 51.4248795], [37.839527999999994, 51.42580939999999], [37.8405644, 51.4260328], [37.841502799999994, 51.42588450000001], [37.8437101, 51.42600879999999], [37.845250699999994, 51.426815500000004], [37.8463215, 51.42681949999999], [37.847477999999995, 51.429730799999994], [37.85302699999999, 51.4293816], [37.8533982, 51.43028730000001], [37.8606316, 51.429031699999996], [37.8644156, 51.42928989999999], [37.86606359999999, 51.42978159999999], [37.876390099999995, 51.4281869], [37.8772967, 51.42902769999999], [37.886633999999994, 51.4269841], [37.8912668, 51.4261326], [37.8935391, 51.42885489999999], [37.8968534, 51.4273069], [37.8989591, 51.4264634], [37.90015019999999, 51.42593780000001], [37.901281, 51.42430819999999], [37.9201808, 51.4235366], [37.92328839999999, 51.4241209], [37.935925, 51.424566799999994], [37.9363222, 51.425938499999994], [37.948710999999996, 51.4267774], [37.95005859999999, 51.427261099999996], [37.9510177, 51.4264456], [37.9861804, 51.42035829999998], [37.99711979999999, 51.423031800000004], [38.0058292, 51.423132100000004], [38.0119339, 51.40767529999999], [38.021081599999995, 51.397339800000005], [38.035172800000005, 51.381350700000006], [38.0324263, 51.3803623], [38.0295037, 51.3768278], [38.0301775, 51.376300099999995], [38.02959169999999, 51.3744637], [38.02949079999999, 51.37326629999999], [38.0298578, 51.37229239999999], [38.035953899999996, 51.36706], [38.0379602, 51.36681219999999], [38.04237619999999, 51.3646834], [38.0433353, 51.3658463], [38.04462819999999, 51.366139799999985], [38.0468614, 51.36621939999999], [38.0471827, 51.3662308], [38.04828779999999, 51.3656507], [38.0477213, 51.3633771], [38.051324, 51.361462599999996], [38.0533046, 51.36150270000001], [38.0564061, 51.36345320000001], [38.0572759, 51.3640052], [38.0580446, 51.3644931], [38.05984699999999, 51.3651014], [38.074861999999996, 51.356054699999994], [38.08124029999999, 51.36021519999999], [38.0721809, 51.36604719999999], [38.0734898, 51.367200700000005], [38.0737816, 51.36818799999999], [38.0731379, 51.3688752], [38.0740348, 51.3711793], [38.0748695, 51.371770000000005], [38.0951592, 51.360770399999986], [38.1047101, 51.356178500000006], [38.10810889999999, 51.3544338], [38.1187473, 51.350422], [38.12944, 51.34594519999999], [38.13365, 51.343979000000004], [38.139587399999996, 51.34178750000001], [38.15382449999999, 51.3345903], [38.15782209999999, 51.333011], [38.1722781, 51.332866199999984], [38.1753659, 51.33324959999999], [38.1812882, 51.33419209999999], [38.1876356, 51.3351883], [38.20301349999999, 51.3378744], [38.20443229999999, 51.338048], [38.205918499999996, 51.3373801], [38.20852, 51.33582019999999], [38.212188299999994, 51.334402], [38.214451, 51.33313369999999], [38.2152053, 51.3323876], [38.217126799999996, 51.330741200000006], [38.2178714, 51.328969400000005], [38.2189571, 51.32579569999998], [38.22049779999999, 51.3237059], [38.22128419999999, 51.3221055], [38.2216061, 51.3206471], [38.2218604, 51.31838069999999], [38.2222455, 51.316560200000005], [38.22359089999999, 51.31567100000001], [38.2244009, 51.3149125], [38.2247411, 51.313663899999995], [38.2248569, 51.31184050000001], [38.225115499999994, 51.310175199999996], [38.22655739999999, 51.307807699999984], [38.227024099999994, 51.3056064], [38.2278374, 51.3028429], [38.22818999999999, 51.302130899999995], [38.2268431, 51.301750199999994], [38.22749679999999, 51.300439100000006], [38.2297992, 51.3012204], [38.2321211, 51.302142100000005], [38.234618399999995, 51.30289989999999], [38.23863269999999, 51.304825699999995], [38.2429638, 51.3061405], [38.2481493, 51.306683], [38.25133799999999, 51.3069067], [38.2537228, 51.306119200000005], [38.2568074, 51.3054414], [38.2579736, 51.3052], [38.2643921, 51.30548300000001], [38.2736105, 51.3047154], [38.27639529999999, 51.304021599999984], [38.28301939999999, 51.30078780000001], [38.288201799999996, 51.2971917], [38.2890021, 51.2964678]]]]}}, {"type": "Feature", "properties": {"id": "mo-14730000", "name": "ГО Губкинский", "region": "Белгородская область", "isCity": false, "sourceOktmo": "14-730-000-000", "sourceAgg": "Старый Оскол", "excelNames": ["ГО Губкинский"], "oktmo": "14730000", "vgp": [{"year": 2019, "value": 113552715.29869194}, {"year": 2020, "value": 118700779.30407183}, {"year": 2021, "value": 157878974.3195363}, {"year": 2022, "value": 160404248.66496482}, {"year": 2023, "value": 174510765.44343582}, {"year": 2024, "value": 197665422.32507786}], "population": [{"year": 2019, "value": 117017.0}, {"year": 2020, "value": 116486.0}, {"year": 2021, "value": 115910.0}, {"year": 2022, "value": 114874.0}, {"year": 2023, "value": 113662.0}, {"year": 2024, "value": 112690.0}, {"year": 2025, "value": 111654.0}], "shipments": [{"year": 2019, "value": 173846661.1}, {"year": 2020, "value": 177732191.4}, {"year": 2021, "value": 321850969.7}, {"year": 2022, "value": 230526205.7}, {"year": 2023, "value": 227202000.2}, {"year": 2024, "value": 253398987.6}], "employees": [{"year": 2019, "value": 33969.0}, {"year": 2020, "value": 33553.0}, {"year": 2021, "value": 33525.0}, {"year": 2022, "value": 32791.0}, {"year": 2023, "value": 32361.0}, {"year": 2024, "value": 32058.0}], "investments": [{"year": 2019, "value": 9175032.0}, {"year": 2020, "value": 12377310.0}, {"year": 2021, "value": 17166499.0}, {"year": 2022, "value": 22781118.0}, {"year": 2023, "value": 24853751.0}, {"year": 2024, "value": 35938140.0}], "vgp2024": 197665422.32507786, "pop2024": 112690.0, "ship2024": 253398987.6, "emp2024": 32058.0, "inv2024": 35938140.0}, "geometry": {"type": "MultiPolygon", "coordinates": [[[[37.17154680000001, 50.97037520000001], [37.1637819, 50.9707768], [37.16830769999999, 50.982069900000006], [37.1648714, 50.9821754], [37.161519, 50.9819643], [37.160596999999996, 50.9814895], [37.15716079999999, 50.9819643], [37.1522159, 50.98581599999999], [37.1492825, 50.986238099999994], [37.14701959999999, 50.9868712], [37.145259499999995, 50.9869767], [37.1445052, 50.9859743], [37.143164199999994, 50.98586879999999], [37.136626899999996, 50.98792639999999], [37.137046, 50.989087], [37.1365431, 50.990986199999995], [37.135671099999996, 50.993082699999995], [37.1314306, 51.0032764], [37.14417, 51.0012195], [37.1476901, 50.999637199999995], [37.1535569, 51.0049114], [37.1595075, 51.01002669999999], [37.1649552, 51.008022799999985], [37.16948109999999, 51.005122300000004], [37.1861596, 51.0154579], [37.189512, 51.018041499999995], [37.1931159, 51.0225228], [37.2014133, 51.0348573], [37.1703192, 51.0387573], [37.14383469999999, 51.0487693], [37.1392251, 51.0512983], [37.122379, 51.0589371], [37.1477739, 51.07547479999999], [37.155400699999994, 51.081056299999986], [37.1487796, 51.0831623], [37.14701959999999, 51.0845838], [37.1492825, 51.0921645], [37.151042499999996, 51.10148079999999], [37.1440023, 51.103428], [37.142330199999996, 51.10311060000001], [37.1403984, 51.1027439], [37.1336097, 51.1060593], [37.1244742, 51.1085852], [37.11584169999999, 51.1114266], [37.1128244, 51.1106899], [37.1037728, 51.1106899], [37.1012584, 51.110005900000004], [37.1000013, 51.1106899], [37.09983359999999, 51.11195279999999], [37.0984088, 51.113426], [37.096732599999996, 51.1145835], [37.09539159999999, 51.1148992], [37.0951402, 51.1158463], [37.09128489999999, 51.1145309], [37.0904467, 51.1107952], [37.084077099999995, 51.11021639999999], [37.080808399999995, 51.11032159999999], [37.0806408, 51.109111399999996], [37.076534, 51.1097428], [37.076115, 51.111268700000004], [37.0729301, 51.1108478], [37.06739889999999, 51.111364], [37.0667281, 51.1114266], [37.0665567, 51.1114855], [37.0622861, 51.11295249999999], [37.0554135, 51.1140574], [37.0507201, 51.114110000000004], [37.0430932, 51.1122158], [37.04007599999999, 51.11205799999999], [37.03697499999999, 51.112478900000006], [37.0378969, 51.11347860000001], [37.0382321, 51.116056699999994], [37.03898639999999, 51.118582], [37.0389026, 51.12236969999999], [37.03957309999999, 51.1242109], [37.0417522, 51.1252629], [37.04124939999999, 51.1267358], [37.04191980000001, 51.127893], [37.0420037, 51.129628699999984], [37.0460266, 51.13262659999999], [37.0471162, 51.13567689999999], [37.0491276, 51.1386745], [37.050301, 51.1403572], [37.052061, 51.143249299999994], [37.0537373, 51.145037], [37.0563354, 51.144931799999995], [37.0590174, 51.146456599999986], [37.0619508, 51.1480865], [37.0637947, 51.1486122], [37.06505179999999, 51.1496637], [37.0704158, 51.15134609999999], [37.0713377, 51.1530283], [37.0732654, 51.151661499999996], [37.0764502, 51.153291199999984], [37.07946739999999, 51.15155639999999], [37.083909399999996, 51.156234999999995], [37.083993299999996, 51.157496599999995], [37.0859209, 51.158022200000005], [37.08600469999999, 51.15949399999999], [37.07946739999999, 51.1606504], [37.0734023, 51.17449049999999], [37.081161699999996, 51.17610080000001], [37.076052, 51.18670649999999], [37.0709755, 51.18588659999999], [37.0708348, 51.1889198], [37.0725949, 51.18997039999999], [37.073349199999996, 51.1915462], [37.070164299999995, 51.193804799999995], [37.066811900000005, 51.19396230000001], [37.0563354, 51.1954855], [37.05356969999999, 51.1964834], [37.05088769999999, 51.196430899999996], [37.0470324, 51.19721870000001], [37.0437637, 51.19895180000001], [37.04074649999999, 51.2010525], [37.0373102, 51.2019977], [37.029264299999994, 51.2035732], [37.022727, 51.2027855], [37.018620199999994, 51.20157759999999], [37.016943999999995, 51.20084239999999], [37.0134838, 51.2020471], [37.0236051, 51.208853500000004], [37.0265365, 51.221041799999995], [37.0311141, 51.22988430000001], [37.0351902, 51.2350268], [37.04155539999999, 51.23885239999999], [37.0470783, 51.24035909999999], [37.05197, 51.2405473], [37.0546979, 51.2424287], [37.0599032, 51.24349500000001], [37.0688085, 51.24405960000001], [37.0747664, 51.2435581], [37.084393, 51.24362099999999], [37.0792499, 51.25208700000001], [37.0920749, 51.2532788], [37.1096976, 51.25447079999999], [37.1124576, 51.24424880000001], [37.09671639999999, 51.24318230000001], [37.0979715, 51.230326299999994], [37.10850739999999, 51.23114180000001], [37.1118315, 51.22775529999999], [37.13955119999999, 51.2307663], [37.1489271, 51.22888509999999], [37.1376233, 51.23589979999999], [37.1377297, 51.2456396], [37.1370862, 51.2602885], [37.1341914, 51.2667082], [37.133117899999995, 51.26896339999999], [37.1288806, 51.2757598], [37.1229958, 51.281930700000004], [37.1221161, 51.284453899999995], [37.12489479999999, 51.289761500000004], [37.13359229999999, 51.298545999999995], [37.141588, 51.3021835], [37.14503729999999, 51.3021835], [37.147922099999995, 51.30375139999999], [37.15212379999999, 51.3041906], [37.15162899999999, 51.3071418], [37.15407449999999, 51.31266049999999], [37.1570848, 51.31171989999999], [37.1569591, 51.316486100000006], [37.1581757, 51.3193783], [37.1599943, 51.3196292], [37.1597907, 51.32509269999999], [37.15594419999999, 51.3275392], [37.15613369999999, 51.3344317], [37.150489099999994, 51.34114180000001], [37.14816849999999, 51.3457197], [37.145483799999994, 51.35443430000001], [37.1452498, 51.355270999999995], [37.1456466, 51.35554690000001], [37.1457213, 51.3555804], [37.145788399999994, 51.3555969], [37.1460197, 51.355584900000004], [37.1462958, 51.3555614], [37.146616, 51.35552549999999], [37.1467014, 51.3555144], [37.1467673, 51.3554947], [37.146837999999995, 51.35546039999999], [37.1471164, 51.3552628], [37.147444899999996, 51.3549915], [37.1476842, 51.354834799999985], [37.1482318, 51.35457339999999], [37.14839919999999, 51.354547899999986], [37.1491849, 51.35452740000001], [37.1494558, 51.354524], [37.1496114, 51.35454079999999], [37.1497375, 51.35459269999999], [37.1498609, 51.3546982], [37.15004059999999, 51.3551555], [37.1501076, 51.3552744], [37.1502069, 51.35534479999999], [37.1504992, 51.35552570000001], [37.1508935, 51.3556781], [37.15137359999999, 51.355787], [37.1517786, 51.3558356], [37.15199319999999, 51.3558624], [37.15212199999999, 51.35589079999999], [37.1523178, 51.3559712], [37.1525743, 51.356060099999986], [37.1527508, 51.356077899999995], [37.15289709999999, 51.3560634], [37.1530339, 51.35599469999999], [37.1533343, 51.3557166], [37.15342549999999, 51.355679800000004], [37.1535569, 51.355661399999995], [37.1540317, 51.355632899999996], [37.15412559999999, 51.3556212], [37.1542758, 51.3555458], [37.15436429999999, 51.35552570000001], [37.1544743, 51.35554239999999], [37.1545574, 51.355616100000006], [37.154688799999995, 51.35582050000001], [37.1548095, 51.3559243], [37.155059, 51.3560717], [37.1553218, 51.3562074], [37.1556304, 51.3563312], [37.1558632, 51.356383099999995], [37.1560702, 51.356411800000004], [37.1563277, 51.3564268], [37.1565449, 51.3564168], [37.156716599999996, 51.35638329999999], [37.1567997, 51.35634139999999], [37.1569013, 51.356244700000005], [37.1570211, 51.3561697], [37.1572825, 51.35604490000001], [37.1573603, 51.3560165], [37.1574032, 51.3560114], [37.1574515, 51.356028200000004], [37.1575078, 51.35608009999998], [37.1575377, 51.35614779999999], [37.15763299999999, 51.3562401], [37.15774919999999, 51.3562778], [37.1579021, 51.3563012], [37.15810329999999, 51.3563012], [37.158517, 51.35617469999999], [37.1587712, 51.3558808], [37.15886809999999, 51.35560890000001], [37.15883519999999, 51.35537500000001], [37.1587241, 51.3551431], [37.1584386, 51.35488579999999], [37.1578749, 51.354477599999996], [37.1578226, 51.3543631], [37.157851199999996, 51.3541471], [37.1579715, 51.3538022], [37.1581542, 51.35340839999999], [37.1583496, 51.353136899999996], [37.158717499999995, 51.3528054], [37.1588625, 51.3526162], [37.15894089999999, 51.352373], [37.15884849999999, 51.3512038], [37.1588958, 51.35090889999999], [37.159093, 51.3505942], [37.1597316, 51.3500774], [37.16029689999999, 51.349796000000005], [37.160949099999996, 51.34970969999999], [37.16139989999999, 51.34971290000001], [37.16177, 51.34979], [37.1620488, 51.349944199999996], [37.1633289, 51.3509612], [37.163642, 51.351066599999996], [37.1640768, 51.3510952], [37.16462709999999, 51.3510449], [37.1649188, 51.3508656], [37.1651485, 51.35066170000001], [37.1651732, 51.350474799999986], [37.1649865, 51.35012830000001], [37.16462369999999, 51.3497432], [37.1645004, 51.3494316], [37.16447349999999, 51.349250700000006], [37.1645755, 51.3490095], [37.1648246, 51.3489148], [37.1651893, 51.3489067], [37.166123799999994, 51.3491359], [37.1664768, 51.34916739999999], [37.16671590000001, 51.3491066], [37.16694559999999, 51.3489563], [37.1673705, 51.34848790000001], [37.1675849, 51.3483863], [37.167936999999995, 51.3483519], [37.1682876, 51.3483662], [37.168759699999995, 51.348463300000006], [37.1692693, 51.348748099999995], [37.169762799999994, 51.348965899999996], [37.1703112, 51.3490904], [37.17076079999999, 51.3490482], [37.17120049999999, 51.3488621], [37.1713509, 51.34863070000001], [37.1713648, 51.348349599999985], [37.1712072, 51.348113999999995], [37.170605099999996, 51.3475084], [37.1703529, 51.34713320000001], [37.1703606, 51.3466954], [37.17056749999999, 51.34644289999999], [37.1708894, 51.34627869999999], [37.1713561, 51.34624190000001], [37.171824, 51.34630270000001], [37.1723056, 51.3464697], [37.1733625, 51.3471068], [37.1738559, 51.347203499999985], [37.1743548, 51.347159999999995], [37.1747571, 51.34696900000001], [37.1753955, 51.34647309999999], [37.1759319, 51.346064299999995], [37.1763664, 51.3458767], [37.1768331, 51.34587], [37.1773642, 51.346000599999996], [37.1775198, 51.346211700000005], [37.17739099999999, 51.34644289999999], [37.176784999999995, 51.346761], [37.1765166, 51.34695889999999], [37.1764255, 51.34725039999999], [37.1765113, 51.34754530000001], [37.17686, 51.3477865], [37.17767, 51.3481249], [37.1781528, 51.348416399999984], [37.1786141, 51.3486878], [37.17927399999999, 51.34881850000001], [37.180201999999994, 51.348768199999995], [37.18079209999999, 51.3484533], [37.1809262, 51.348014400000004], [37.1809262, 51.3475955], [37.18103889999999, 51.34704940000001], [37.181173, 51.34662719999999], [37.1815109, 51.3452936], [37.1819027, 51.34469430000001], [37.1821761, 51.3445833], [37.18268040000001, 51.3444995], [37.183431399999996, 51.3446], [37.1841931, 51.34491169999998], [37.1845527, 51.3453591], [37.1851641, 51.34723030000001], [37.185384, 51.3474381], [37.1860814, 51.34758209999999], [37.1866178, 51.3476324], [37.1869719, 51.3475654], [37.1872562, 51.3472806], [37.1873528, 51.346845], [37.18743859999999, 51.345106], [37.187191, 51.3446602], [37.186076, 51.34392319999999], [37.185925499999996, 51.34371620000001], [37.1859044, 51.34344730000001], [37.186020400000004, 51.34269859999999], [37.1860868, 51.342381700000004], [37.1860097, 51.3421021], [37.1857247, 51.3418623], [37.185239200000005, 51.34169809999999], [37.1848235, 51.34175509999999], [37.1840912, 51.34213710000001], [37.1836402, 51.3422381], [37.18323019999999, 51.342241], [37.1829593, 51.342169], [37.182328299999995, 51.341717399999986], [37.18157529999999, 51.3412927], [37.1805507, 51.3408202], [37.18027169999999, 51.34059560000001], [37.1801859, 51.3404147], [37.180248299999995, 51.3398541], [37.18046489999999, 51.3395601], [37.1807599, 51.3393993], [37.181274900000005, 51.3392686], [37.1818855, 51.3391618], [37.18259989999999, 51.3389502], [37.182986099999994, 51.3388832], [37.1835226, 51.3388564], [37.184219999999996, 51.3388497], [37.1844486, 51.3388133], [37.1846567, 51.3385935], [37.18474569999999, 51.3383705], [37.18466, 51.338083399999995], [37.1844399, 51.3376499], [37.184484, 51.3375069], [37.1846428, 51.33739709999998], [37.1856781, 51.3370177], [37.186242299999996, 51.3366646], [37.1863584, 51.3364908], [37.186426, 51.336187900000006], [37.186247699999996, 51.3354347], [37.18622529999999, 51.3351624], [37.18634230000001, 51.33466289999999], [37.18643769999999, 51.334327800000004], [37.186602, 51.3341904], [37.1877317, 51.3339363], [37.1882003, 51.3339265], [37.18847929999999, 51.3339835], [37.189557699999995, 51.3345617], [37.1897894, 51.334633399999994], [37.1904536, 51.334744699999995], [37.19162939999999, 51.33491639999999], [37.1921992, 51.334998799999994], [37.192573599999996, 51.335073799999996], [37.1930532, 51.33523469999999], [37.194326499999995, 51.335907199999994], [37.1953159, 51.33666040000001], [37.1957493, 51.3370384], [37.19616669999999, 51.33749689999999], [37.1965766, 51.337807199999986], [37.1970731, 51.33795159999999], [37.197772699999994, 51.33799419999999], [37.19853760000001, 51.33794820000001], [37.1992748, 51.33779919999999], [37.2002533, 51.33758339999999], [37.20137019999999, 51.337229400000005], [37.20181759999999, 51.33706189999999], [37.20249989999999, 51.3367134], [37.2031619, 51.336283], [37.203969799999996, 51.3355827], [37.2044729, 51.3352649], [37.204782, 51.33513219999998], [37.2050754, 51.3350413], [37.2054691, 51.33493369999999], [37.20573929999999, 51.334918499999986], [37.2059539, 51.33493699999999], [37.2060424, 51.3349789], [37.2061765, 51.335129699999996], [37.2063187, 51.33522179999999], [37.2065618, 51.3353259], [37.20743910000001, 51.33560649999999], [37.2076889, 51.33563190000001], [37.2081153, 51.33561349999999], [37.20840809999999, 51.335541899999996], [37.208663699999995, 51.3353889], [37.2089392, 51.33500229999999], [37.2092183, 51.3345276], [37.2095133, 51.3342829], [37.2099157, 51.3340992], [37.211182799999996, 51.3337587], [37.2114068, 51.333624799999996], [37.2119027, 51.3332332], [37.2122836, 51.333083], [37.212941, 51.33294109999999], [37.2133081, 51.332965099999996], [37.2150923, 51.3334121], [37.2159818, 51.33346040000001], [37.2171628, 51.333393599999994], [37.2183089, 51.33322039999998], [37.21895359999999, 51.3330226], [37.2201993, 51.3325139], [37.2210091, 51.3322641], [37.22138999999999, 51.3322071], [37.2220874, 51.33219030000001], [37.222361, 51.3322339], [37.2232495, 51.33240259999999], [37.224441199999994, 51.3326802], [37.225878, 51.3331574], [37.2263705, 51.3332881], [37.2266849, 51.3333203], [37.2270817, 51.3332863], [37.2282191, 51.3328947], [37.2284916, 51.332684799999996], [37.2286266, 51.3324383], [37.228647099999996, 51.3321921], [37.2276342, 51.331466299999995], [37.22753759999999, 51.331328899999995], [37.2275453, 51.3311605], [37.2276462, 51.3309976], [37.227819399999994, 51.33089999999999], [37.22908489999999, 51.330397500000004], [37.2293588, 51.3302329], [37.22979599999999, 51.329860899999986], [37.22997579999999, 51.3296916], [37.23004889999999, 51.329642499999984], [37.2301367, 51.32962949999999], [37.2307296, 51.329676], [37.23111589999999, 51.32974810000001], [37.2315636, 51.32989940000001], [37.2326045, 51.330414999999995], [37.232671399999994, 51.330439], [37.2328028, 51.3304474], [37.23319669999999, 51.3303678], [37.2333741, 51.330328400000006], [37.2333888, 51.330302], [37.2333759, 51.3302749], [37.2328028, 51.3298742], [37.23273809999999, 51.32975570000001], [37.2327386, 51.32965960000001], [37.2328985, 51.32915169999999], [37.2330281, 51.32895250000001], [37.2331783, 51.32880159999999], [37.2332615, 51.32875130000001], [37.23336069999999, 51.328719500000005], [37.2335431, 51.3286927], [37.2350907, 51.3285268], [37.23527039999999, 51.3284899], [37.2354126, 51.328417800000004], [37.23579079999999, 51.3280625], [37.2361395, 51.327846300000004], [37.23661549999999, 51.327606800000005], [37.2369066, 51.327548], [37.2376583, 51.327508200000004], [37.2378319, 51.3275312], [37.2379887, 51.3275789], [37.23815919999999, 51.32769879999999], [37.2386872, 51.32834160000001], [37.2390336, 51.3285938], [37.2394144, 51.328845199999996], [37.2399515, 51.3291239], [37.2404221, 51.3293176], [37.24099389999999, 51.329464499999986], [37.2414874, 51.32961120000001], [37.2417372, 51.3297569], [37.2419572, 51.32997139999999], [37.2424606, 51.33064089999999], [37.24265799999999, 51.33079440000001], [37.2428799, 51.330873100000005], [37.2431557, 51.3308702], [37.2433788, 51.330806], [37.24387779999999, 51.3303681], [37.2442845, 51.32995450000001], [37.2449389, 51.329532799999996], [37.2453702, 51.3291601], [37.246309, 51.3290971], [37.24705139999999, 51.3291004], [37.247645799999994, 51.3291239], [37.2479709, 51.329626], [37.2485352, 51.33028699999999], [37.2494568, 51.330479399999994], [37.25004799999999, 51.3305122], [37.25052329999999, 51.330210599999994], [37.2511391, 51.33015019999999], [37.25147919999999, 51.330337300000004], [37.2520897, 51.33049410000001], [37.2532918, 51.3311874], [37.2535123, 51.3314413], [37.2540155, 51.33152450000001], [37.2544833, 51.3317061], [37.256680499999995, 51.3323792], [37.2590409, 51.3326191], [37.2619613, 51.3343365], [37.273066299999996, 51.337562], [37.2829124, 51.337311400000004], [37.2878356, 51.3363709], [37.2932918, 51.3329846], [37.300754899999994, 51.33154239999998], [37.30834329999999, 51.33304759999999], [37.31016189999999, 51.333988299999994], [37.3129838, 51.339695299999995], [37.3190043, 51.33957], [37.3204153, 51.34157689999999], [37.3187846, 51.3444616], [37.3187618, 51.3453497], [37.3187218, 51.3469074], [37.3212271, 51.3536224], [37.32310819999999, 51.358639399999994], [37.3313607, 51.363042099999994], [37.34689829999999, 51.36881329999999], [37.349787, 51.3698354], [37.3675231, 51.377942999999995], [37.37401869999999, 51.380193], [37.3797615, 51.38027819999999], [37.384815499999995, 51.3808931], [37.3846295, 51.38222119999998], [37.383742399999996, 51.3845212], [37.385716, 51.38460729999999], [37.3923406, 51.3831684], [37.40852459999999, 51.381642899999996], [37.4088046, 51.3776589], [37.4092334, 51.3715587], [37.4209001, 51.3715546], [37.4188718, 51.38001980000001], [37.4594825, 51.3709633], [37.472049999999996, 51.3680262], [37.4743918, 51.370974200000006], [37.4767288, 51.3736621], [37.477858299999994, 51.3740636], [37.4787152, 51.374368200000006], [37.4827381, 51.375798], [37.48311999999999, 51.37593379999999], [37.484193, 51.3770857], [37.5012505, 51.3826047], [37.5216951, 51.37846600000001], [37.525708699999996, 51.37909319999999], [37.5270255, 51.38260509999999], [37.5300357, 51.38348309999999], [37.5340494, 51.38185270000001], [37.5365578, 51.3833578], [37.5386901, 51.38310700000001], [37.5440833, 51.383985], [37.545588300000006, 51.3858665], [37.55724849999999, 51.39152990000001], [37.585636099999995, 51.38872680000001], [37.5854205, 51.386573], [37.5839065, 51.37144299999999], [37.5908677, 51.36868379999999], [37.59713909999999, 51.3644194], [37.60065099999999, 51.365172], [37.6041627, 51.3675551], [37.637714, 51.3663014], [37.6381532, 51.3646708], [37.68129940000001, 51.36216290000001], [37.685814799999996, 51.361285], [37.6871946, 51.35840029999999], [37.6875549, 51.3532568], [37.6849584, 51.3520338], [37.6848746, 51.3489978], [37.69040619999999, 51.3464328], [37.691579499999996, 51.343605800000006], [37.691747199999995, 51.3395221], [37.6923338, 51.3382655], [37.69208239999999, 51.33679939999999], [37.69509959999999, 51.3352286], [37.696943499999996, 51.33203439999999], [37.6964406, 51.3309347], [37.6965244, 51.3295208], [37.6955187, 51.32674509999999], [37.69610539999999, 51.32580239999999], [37.69501579999999, 51.3239169], [37.692669099999996, 51.3236551], [37.69007090000001, 51.322083799999994], [37.68764039999999, 51.32129810000001], [37.68764039999999, 51.320040999999996], [37.6859642, 51.3160076], [37.6901547, 51.3140169], [37.6905907, 51.3132473], [37.6907615, 51.3116825], [37.68891769999999, 51.31173489999999], [37.6885824, 51.31089670000001], [37.68774429999999, 51.3101108], [37.68548139999999, 51.309534499999984], [37.68523, 51.3076484], [37.68673859999999, 51.30618129999999], [37.6869062, 51.30534299999999], [37.6851252, 51.3042918], [37.69325489999999, 51.303820200000004], [37.6968588, 51.3032962], [37.697361699999995, 51.3018814], [37.6982836, 51.3010954], [37.699876, 51.300414199999985], [37.70825719999999, 51.287678699999994], [37.7126992, 51.287836], [37.7137888, 51.28914639999999], [37.71588409999999, 51.28898910000001], [37.715464999999995, 51.288255299999996], [37.71588409999999, 51.287678699999994], [37.714375399999994, 51.2856868], [37.682359399999996, 51.28883189999999], [37.6816051, 51.2883601], [37.6806832, 51.288569800000005], [37.68051559999999, 51.2892512], [37.6797613, 51.29019470000001], [37.6785879, 51.28898910000001], [37.673643, 51.2806019], [37.6734754, 51.279448599999995], [37.702557999999996, 51.27488729999999], [37.70063029999999, 51.273157000000005], [37.70197129999999, 51.2718986], [37.6981998, 51.270482799999996], [37.69325489999999, 51.26995850000001], [37.6914111, 51.27016819999999], [37.6914111, 51.272475400000005], [37.68646619999999, 51.270849899999995], [37.6847061, 51.271112099999996], [37.6828623, 51.2716364], [37.67942599999999, 51.27064020000001], [37.6788393, 51.268123200000005], [37.6840357, 51.268228], [37.6836166, 51.26712680000001], [37.6831137, 51.266549999999995], [37.6836166, 51.26586820000001], [37.68328129999999, 51.2651865], [37.682108, 51.261725199999994], [37.6805994, 51.2605189], [37.669620099999996, 51.2554312], [37.6716315, 51.252074], [37.6747326, 51.24562130000001], [37.6754869, 51.2418437], [37.6730563, 51.2424733], [37.6719668, 51.24131899999999], [37.669703899999995, 51.2412666], [37.666518999999994, 51.242158499999995], [37.6635018, 51.2439949], [37.6627475, 51.2451491], [37.6611551, 51.245936099999994], [37.65679690000001, 51.2461984], [37.6555397, 51.2451491], [37.64171079999999, 51.2493462], [37.6423813, 51.2484019], [37.6521873, 51.2446245], [37.6510977, 51.2427882], [37.6528577, 51.2421061], [37.65453399999999, 51.2435752], [37.6571321, 51.2426308], [37.6581379, 51.2412666], [37.6671895, 51.2381183], [37.6703744, 51.2364391], [37.67724689999999, 51.2336054], [37.68152129999999, 51.230719], [37.68219179999999, 51.2286721], [37.6816051, 51.2277274], [37.679258399999995, 51.22694010000001], [37.678084999999996, 51.22736], [37.6707096, 51.2270976], [37.671212499999996, 51.225837899999995], [37.6707096, 51.2242633], [37.66786, 51.2236334], [37.6650942, 51.2242108], [37.6609037, 51.2263628], [37.658976, 51.22814730000001], [37.6577188, 51.227622399999994], [37.653193, 51.22998419999999], [37.6536959, 51.2312963], [37.6516006, 51.23176860000001], [37.6511815, 51.23035159999999], [37.6499243, 51.229459399999996], [37.6506786, 51.2280423], [37.6516006, 51.22751749999999], [37.6539473, 51.225837899999995], [37.6574674, 51.2243682], [37.6618256, 51.221113800000005], [37.6614065, 51.22022139999999], [37.6588084, 51.21953899999999], [37.6572998, 51.218436600000004], [37.6546178, 51.21838409999999], [37.6516844, 51.217334199999996], [37.6474938, 51.21665169999999], [37.6450633, 51.2168617], [37.6448118, 51.2185941], [37.6474938, 51.22100880000001], [37.6472424, 51.221691199999995], [37.6458176, 51.2220587], [37.6439737, 51.22211120000001], [37.63592779999999, 51.2260479], [37.63056389999999, 51.226835200000004], [37.630228599999995, 51.22531300000001], [37.6345868, 51.223895799999994], [37.6363469, 51.22174369999999], [37.6393641, 51.22032639999998], [37.64221369999999, 51.2178067], [37.6432194, 51.21612679999999], [37.64212989999999, 51.2156018], [37.640286, 51.21570679999999], [37.6382745, 51.215234300000006], [37.63542489999999, 51.215234300000006], [37.633497299999995, 51.21449929999999], [37.631401999999994, 51.2147093], [37.628636199999995, 51.21591680000001], [37.62419419999999, 51.2163368], [37.6189979, 51.21775419999999], [37.61497489999999, 51.2179117], [37.614891099999994, 51.21712419999999], [37.617992099999995, 51.216546699999995], [37.6204227, 51.21549679999999], [37.6280495, 51.2143943], [37.6328268, 51.213659299999996], [37.634503, 51.21386929999999], [37.63383249999999, 51.2104566], [37.64104029999999, 51.2048908], [37.6635856, 51.1961731], [37.6672733, 51.19449240000001], [37.6655971, 51.192811600000006], [37.6635856, 51.1913934], [37.6606522, 51.186403199999994], [37.66316659999999, 51.18529999999999], [37.6841195, 51.1716918], [37.68898049999999, 51.16969490000001], [37.690991999999994, 51.16958979999998], [37.6904891, 51.167960699999995], [37.6831137, 51.159183500000005], [37.68655, 51.1519817], [37.70063029999999, 51.1538217], [37.7053238, 51.1535063], [37.7173089, 51.1519817], [37.7201584, 51.14972110000001], [37.724013799999994, 51.148669599999984], [37.7257738, 51.1487222], [37.728204399999996, 51.144516], [37.73063489999999, 51.1437273], [37.72837199999999, 51.141781800000004], [37.72853959999999, 51.140151700000004], [37.730467299999994, 51.13668090000001], [37.7318921, 51.13652319999999], [37.73381969999999, 51.1389422], [37.7352445, 51.139520600000004], [37.7387646, 51.13647059999999], [37.7396865, 51.13473510000001], [37.7377589, 51.1344196], [37.73809409999999, 51.1332099], [37.74119519999999, 51.13047499999998], [37.7432904, 51.1300017], [37.7428714, 51.128476400000004], [37.744212399999995, 51.1270036], [37.747062, 51.126161999999994], [37.7494087, 51.12621459999999], [37.751504, 51.1261094], [37.7525097, 51.12647759999999], [37.7535993, 51.12595159999999], [37.7579575, 51.12521519999999], [37.75661649999999, 51.124373500000004], [37.7525097, 51.1200599], [37.74882199999999, 51.116535], [37.74572100000001, 51.1142727], [37.7459724, 51.1120628], [37.7444638, 51.1096424], [37.7377589, 51.1060641], [37.72535479999999, 51.0944328], [37.7246843, 51.08658919999999], [37.7183984, 51.085589000000006], [37.7159679, 51.0846413], [37.71177730000001, 51.0869578], [37.7087601, 51.08716829999999], [37.710017199999996, 51.092800999999994], [37.7053238, 51.0930642], [37.702641799999995, 51.09395909999999], [37.6948473, 51.0933801], [37.6887291, 51.09453809999998], [37.68688519999999, 51.0969593], [37.68428709999999, 51.09759089999999], [37.6837004, 51.098222500000006], [37.680180299999996, 51.099012], [37.677666, 51.098117200000004], [37.6768279, 51.0971172], [37.6707096, 51.099012], [37.6666028, 51.0998015], [37.667943799999996, 51.10106460000001], [37.6572159, 51.103485500000005], [37.6564616, 51.104801099999996], [37.6474938, 51.1086952], [37.6479129, 51.10995809999999], [37.6517682, 51.112273300000005], [37.65084629999999, 51.1126416], [37.6473262, 51.11269419999999], [37.6439737, 51.11222070000001], [37.64078889999999, 51.111220900000006], [37.6388612, 51.1095898], [37.6381907, 51.1084321], [37.6360954, 51.1088531], [37.6335811, 51.10669560000001], [37.63115049999999, 51.10553790000001], [37.62318839999999, 51.1102212], [37.617573099999994, 51.1049064], [37.6147235, 51.1044854], [37.6079347, 51.1073797], [37.574913, 51.1221641], [37.5737396, 51.120322900000005], [37.56938139999999, 51.1153776], [37.56887849999999, 51.1141674], [37.566448, 51.11269419999999], [37.565107000000005, 51.1108526], [37.56167069999999, 51.1070639], [37.566950899999995, 51.105485200000004], [37.56410129999999, 51.10143299999999], [37.556725899999996, 51.100327799999995], [37.553121999999995, 51.10074879999999], [37.548847599999995, 51.101748799999996], [37.54482459999999, 51.10159089999999], [37.5435674, 51.1020645], [37.542896999999996, 51.10053829999999], [37.5329234, 51.0970646], [37.524374599999994, 51.09438019999998], [37.5245422, 51.092011400000004], [37.517502, 51.091748300000006], [37.5174182, 51.0927484], [37.5164125, 51.09285369999999], [37.5144848, 51.0935906], [37.5125572, 51.09453809999998], [37.5107133, 51.09395909999999], [37.5094561, 51.09395909999999], [37.5077799, 51.093538], [37.50669039999999, 51.0923799], [37.5005721, 51.092485200000006], [37.4904309, 51.0914324], [37.4918557, 51.0898005], [37.486575599999995, 51.0848519], [37.47333329999999, 51.0849572], [37.463611199999995, 51.081903499999996], [37.46755029999999, 51.07932350000001], [37.46813699999999, 51.076532799999995], [37.472243799999994, 51.075111], [37.474339099999995, 51.070529499999985], [37.4740876, 51.0685282], [37.472159999999995, 51.0676329], [37.47291429999999, 51.0671062], [37.4741715, 51.0646834], [37.4795354, 51.062945199999994], [37.482384999999994, 51.0608383], [37.4843965, 51.0587839], [37.49110139999999, 51.061049], [37.49269379999999, 51.062892600000005], [37.4949567, 51.06315589999999], [37.49956639999999, 51.06178640000001], [37.4993987, 51.060153500000006], [37.5018293, 51.058362499999994], [37.5137305, 51.05736159999999], [37.5128924, 51.048615999999996], [37.5165801, 51.0466665], [37.5180887, 51.0440845], [37.5194297, 51.04339949999999], [37.521105899999995, 51.0402377], [37.5194297, 51.037339200000005], [37.5248775, 51.03544190000001], [37.537700599999994, 51.033807999999986], [37.5385388, 51.0274829], [37.5374492, 51.02637589999999], [37.53250430000001, 51.0268503], [37.5307443, 51.0248472], [37.5158258, 51.01504090000001], [37.5063551, 51.019628000000004], [37.49378339999999, 51.01973340000001], [37.48313929999999, 51.021156899999994], [37.4801221, 51.0210514], [37.4774401, 51.0179936], [37.4720762, 51.019628000000004], [37.4649522, 51.02068239999999], [37.4639464, 51.01825720000001], [37.4507042, 51.0202079], [37.4488604, 51.0155155], [37.4522966, 51.01504090000001], [37.4527995, 51.01187720000001], [37.4483575, 51.012457199999986], [37.4440831, 51.01324820000001], [37.4428259, 51.014091799999996], [37.44014399999999, 51.0136173], [37.4408144, 51.0123518], [37.4407306, 51.011244399999995], [37.445004999999995, 51.006867500000006], [37.4439993, 51.004968899999994], [37.4453403, 51.000696899999994], [37.4454241, 50.998903600000006], [37.4496985, 50.99463099999999], [37.4532186, 50.9922044], [37.4533024, 50.9910438], [37.4510395, 50.9904635], [37.4475194, 50.9904635], [37.4423231, 50.98998869999999], [37.4421554, 50.989039099999985], [37.4396411, 50.98824780000001], [37.4381325, 50.9885643], [37.4362048, 50.98866979999998], [37.4353667, 50.98798399999999], [37.43310379999999, 50.98761470000001], [37.43033799999999, 50.98761470000001], [37.42773979999999, 50.9862957], [37.4233816, 50.986454], [37.421873, 50.985768099999994], [37.4199454, 50.98814219999999], [37.41818529999999, 50.98866979999998], [37.4179339, 50.9895139], [37.41349189999999, 50.9891446], [37.4125698, 50.9889972], [37.4120858, 50.9889198], [37.408211699999995, 50.988300499999994], [37.4081243, 50.9882969], [37.4045286, 50.988150899999994], [37.4043476, 50.988143599999994], [37.395221, 50.98777290000001], [37.395189800000004, 50.987576700000005], [37.3946046, 50.9837935], [37.3945726, 50.9836913], [37.394550499999994, 50.9835521], [37.38994079999999, 50.9809139], [37.3684851, 50.9934705], [37.34904079999999, 50.98059729999999], [37.3488741, 50.9806935], [37.33898339999999, 50.98640120000001], [37.33621759999999, 50.985979099999994], [37.329596499999994, 50.980227899999996], [37.317192399999996, 50.979964100000004], [37.319790499999996, 50.962442100000004], [37.3135885, 50.96444790000001], [37.3035311, 50.9646063], [37.2962395, 50.9630755], [37.2891335, 50.96442350000001], [37.2876793, 50.960966000000006], [37.28639179999999, 50.957614199999995], [37.2875355, 50.954674099999984], [37.2890317, 50.95309780000001], [37.2849249, 50.95130269999999], [37.26967119999999, 50.953573], [37.2525736, 50.95605439999999], [37.2490536, 50.95616], [37.2407562, 50.9569519], [37.2383257, 50.95663510000001], [37.2209767, 50.9569519], [37.2215634, 50.9595387], [37.2222339, 50.961914199999995], [37.2215634, 50.96872329999999], [37.2189652, 50.9689344], [37.2156965, 50.9686177], [37.2141041, 50.9674566], [37.2112545, 50.9668232], [37.2071478, 50.96713989999999], [37.203041, 50.96845939999999], [37.1968389, 50.9691983], [37.175215599999994, 50.970306699999995], [37.17154680000001, 50.97037520000001]]]]}}]}